Date and Time Downloaded : 12/30/2020 03:18:14 pm"Health Facility Code","Health Facility Code Short","Facility Name","Old Health Facility Names","Old Health Facility Name 2","Old Health Facility Name 3","Health Facility Type","Ownership Major Classification","Ownership Sub-Classification for Government facilities","Ownership Sub-Classification for private facilities","Street Name and #           ","Building name and #","Region Name","Region PSGC","Province Name","Province PSGC","City/Municipality Name","City/Municipality PSGC","Barangay Name","Barangay PSGC","Zip Code","Landline Number","Landline Number 2","Fax Number","Email Address","Alternate Email Address","Official Website","Facility Head: Last Name","Facility Head: First Name","Facility Head: Middle Name","Facility Head: Position","Hospital Licensing Status","Service Capability","Bed Capacity"
"DOH000000000000005","5","BAGONG POOK DIST. III HEALTH CENTER","DEL REMEDIO HEALTH CENTER","","","Rural Health Unit","Government","Local Government Unit","","","","REGION IV-A (CALABAR ZON)","040000000","QUEZON","045600000","LUCENA CITY (Capital)","045624000","","","4301","","","","","","","","","","","","",""
"DOH000000000000050","50","PAKIL RURAL HEALTH UNIT"," "," "," ","Rural Health Unit","Government","Local Government Unit"," ","GONZALES STREET"," ","REGION IV-A (CALABAR ZON)","040000000","LAGUNA","043400000","PAKIL","043420000","GONZALES (POB.)","043420007","4017","+63 495572233"," "," ","rhupakil_laguna@yahoo.com.ph"," "," ","ACERIMO","PRIMO JR.","C.","Municipal Health Officer","","",""
"DOH000000000000075","75","PANGIL RURAL HEALTH UNIT","","","","Rural Health Unit","Government","Local Government Unit","","","","REGION IV-A (CALABAR ZON)","040000000","LAGUNA","043400000","PANGIL","043421000","SAN JOSE (POB.)","043421007","4018","049 557 0282","","049 557 0282","pangilrhu@yahoo.com","","","ALCANTARA","SUSAN","ESPIRITU","Municipal Health Officer","","",""
"DOH000000000000126","126","SAN PASCUAL RURAL HEALTH UNIT"," "," "," ","Rural Health Unit","Government","Local Government Unit"," ","AQUINO AVENUE"," ","REGION IV-A (CALABAR ZON)","040000000","BATANGAS","041000000","SAN PASCUAL","041026000","POBLACION","041026020","4204","+63 437274321"," ","+63 437272376","rhu_san pascual.batangas@yahoo.com"," "," ","CARAAN","ROSALINA","S.","Municipal Health Officer","","",""
"DOH000000000000149","149","SANTA CRUZ RURAL HEALTH UNIT I"," "," "," ","Rural Health Unit","Government","Local Government Unit"," ","GENERAL CALLIES STREET"," ","REGION IV-A (CALABAR ZON)","040000000","LAGUNA","043400000","SANTA CRUZ (Capital)","043426000","BARANGAY III (POB.)","043426016","4009","+63 495010359"," "," ","stacrurhu1@yahoo.com.ph"," "," ","BECINA","DELIA","AGUS","Municipal Health Officer","","",""
"DOH000000000000157","157","SAN LUIS RURAL HEALTH UNIT II"," "," "," ","Rural Health Unit","Government","Local Government Unit"," "," "," ","REGION IV-A (CALABAR ZON)","040000000","BATANGAS","041000000","SAN LUIS","041024000","BANOYO","041024005","4210"," "," ","+63 434118121"," "," "," ","LEAÑO","LORENZO"," ","Municipal Health Officer","","",""
"DOH000000000000158","158","LIAN RURAL HEALTH UNIT"," "," "," ","Rural Health Unit","Government","Local Government Unit"," ","J.P. RIZAL STREET"," ","REGION IV-A (CALABAR ZON)","040000000","BATANGAS","041000000","LIAN","041013000","BARANGAY  2 (POB.)","041013017","4216","+63 432152723","+63 432152320","+63 432152723"," "," "," ","VERGARA","MARILYN GILDELITA","ALVIOR","Municipal Health Officer","","",""
"DOH000000000000159","159","STRIKE SA SERBISYO CITY HEALTH UNIT I (POBLACION)","BACOOR RURAL HEALTH UNIT I","","","Rural Health Unit","Government","Local Government Unit","","EVANGELISTA STREET","","REGION IV-A (CALABAR ZON)","040000000","CAVITE","042100000","BACOOR CITY","042103000","TABING DAGAT","042103023","4102","+63 454-3311","","","poblacionrhui@yahoo.com","","","DEGUZMAN","MUTYA MARVIS","CORPUZ","Medical Officer","Not Applicable","",""
"DOH000000000000161","161","CARMONA RURAL HEALTH UNIT"," "," "," ","Rural Health Unit","Government","Local Government Unit"," "," "," ","REGION IV-A (CALABAR ZON)","040000000","CAVITE","042100000","CARMONA","042104000","BARANGAY  4 (POB.)","042104015","4116","+63 464302372"," ","+63 46 4302372","mho.carmona@gmail.com"," "," ","AGUINALDO","HOMER","L.","Municipal Health Officer","","",""
"DOH000000000000163","163","DASMARIÑAS CITY HEALTH OFFICE II","","","","Rural Health Unit","Government","Local Government Unit","","","","REGION IV-A (CALABAR ZON)","040000000","CAVITE","042100000","CITY OF DASMARI?AS","042106000","SANTA CRUZ I","042106041","4115","+63 464165638","","+63 464165638","dasma_cho2pidsr@yahoo.com","","","CAZEÑAS","MINERVA","MANGUBAT","City Health Officer","","",""
"DOH000000000000170","170","SAN MATEO RURAL HEALTH UNIT I","","","","Rural Health Unit","Government","Local Government Unit","","GSIS DAANG BAKAL","","REGION IV-A (CALABAR ZON)","040000000","RIZAL","045800000","SAN MATEO","045811000","MALY","045811008","1850","+63 029944735","","","","","","BERGADO","MARIA MELISSA","","Public Health Nurse","","",""
"DOH000000000000183","183","TANAY RURAL HEALTH UNIT I"," "," "," ","Rural Health Unit","Government","Local Government Unit"," ","MARCELO H. DEL PILAR STREET"," ","REGION IV-A (CALABAR ZON)","040000000","RIZAL","045800000","TANAY","045812000","KAYBUTO (POB.)","045812005","1980","+63 027033051","+63 026542608","+63 026542608","rhutanay@yahoo.com"," "," ","LUCE","RENE","VALDEZ","Municipal Health Officer","","",""
"DOH000000000000187","187","CCH RURAL HEALTH UNIT BIRTHING HOME","RODRIGUEZ MUNICIPAL HEALTH CENTER","","","Rural Health Unit","Government","Local Government Unit","","147 J.P. RIZAL AVENUE","","REGION IV-A (CALABAR ZON)","040000000","RIZAL","045800000","RODRIGUEZ (MONTALBAN)","045808000","BALITE (POB.)","045808001","1860","+63 026543336","","","mhorodriguezofficial@yahoo.com","","","JAVIER","MARIA CARMELA","VALDEZ","Municipal Health Officer","","",""
"DOH000000000000188","188","BALETE RURAL HEALTH UNIT","","","","Rural Health Unit","Government","Local Government Unit","","","","REGION IV-A (CALABAR ZON)","040000000","BATANGAS","041000000","BALETE","041004000","POBLACION","041004009","4219","+63 437720209","","","baleterhu@gmail.com","","","QUINTO","CZAR","","Municipal Health Officer","","",""
"DOH000000000000816","816","ANTIPOLO RURAL HEALTH UNIT II"," "," "," ","Rural Health Unit","Government","Local Government Unit"," ","SUMULONG HIGHWAY"," ","REGION IV-A (CALABAR ZON)","040000000","RIZAL","045800000","CITY OF ANTIPOLO (Capital)","045802000","MAYAMOT","045802004","1870"," "," "," ","mojica.nita@gmail.com"," "," ","MOJICA","JUANITA"," ","Public Health Nurse","","",""
"DOH000000000000820","820","BAGONG POOK DIST. 1-B (SAN PABLO 1-B)"," "," "," ","Rural Health Unit","Government","Local Government Unit"," "," "," ","REGION IV-A (CALABAR ZON)","040000000","QUEZON","045600000","LUCENA CITY (Capital)","045624000"," "," ","4301"," "," "," "," "," "," "," "," "," "," ","","",""
"DOH000000000000821","821","BAGONG POOK DIST. II(CONCEPCION HC)"," "," "," ","Rural Health Unit","Government","Local Government Unit"," "," "," ","REGION IV-A (CALABAR ZON)","040000000","QUEZON","045600000","LUCENA CITY (Capital)","045624000"," "," ","4301"," "," "," "," "," "," "," "," "," "," ","","",""
"DOH000000000000822","822","BAGONG POOK DISTRICT V (STO. CRISTO HC)"," "," "," ","Rural Health Unit","Government","Local Government Unit"," "," "," ","REGION IV-A (CALABAR ZON)","040000000","QUEZON","045600000","LUCENA CITY (Capital)","045624000"," "," ","4301"," "," "," "," "," "," "," "," "," "," ","","",""
"DOH000000000000830","830","GRUAR HEALTH CENTER"," "," "," ","Rural Health Unit","Government","Local Government Unit"," ","4TH STREET PHASE I"," ","REGION IV-A (CALABAR ZON)","040000000","RIZAL","045800000","CAINTA","045805000","SANTO DOMINGO","045805020","1900"," "," "," "," "," "," ","BUENVIAJE","ELIZABETH","R.","Rural Health Physician","","",""
"DOH000000000000831","831","KARANGALAN HEALTH CENTER"," "," "," ","Rural Health Unit","Government","Local Government Unit"," ","KARANGALAN DRIVE"," ","REGION IV-A (CALABAR ZON)","040000000","RIZAL","045800000","CAINTA","045805000","SAN ISIDRO","045805015","1900"," "," "," "," "," "," ","CAALIM","ZOSIMO","LEGASPI","Rural Health Physician","","",""
"DOH000000000000833","833","CALACA RURAL HEALTH UNIT"," "," "," ","Rural Health Unit","Government","Local Government Unit"," "," "," ","REGION IV-A (CALABAR ZON)","040000000","BATANGAS","041000000","CALACA","041007000","BARANGAY  3 (POB.)","041007008","4212","+63 432235047","+63 432237220","+63 434240345","mho_calaca@yahoo.com"," "," ","ONA","M. GHAAN"," ","Rural Health Physician","","",""
"DOH000000000000834","834","CALAMBA CITY HEALTH OFFICE"," "," "," ","Rural Health Unit","Government","Local Government Unit"," "," "," ","REGION IV-A (CALABAR ZON)","040000000","LAGUNA","043400000","CITY OF CALAMBA","043405000","BARANGAY 7 (POB.)","043405044","4027","+63 495456597"," "," ","cho_calamba@yahoo.com"," "," ","KHAN","RODOLFO"," ","City Health Officer","","",""
"DOH000000000000837","837","CANDELARIA RURAL HEALTH UNIT"," "," "," ","Rural Health Unit","Government","Local Government Unit"," "," "," ","REGION IV-A (CALABAR ZON)","040000000","QUEZON","045600000","CANDELARIA","045608000"," "," ","4323"," "," "," "," "," "," "," "," "," "," ","","",""
"DOH000000000000854","854","JALA-JALA RURAL HEALTH UNIT"," "," "," ","Rural Health Unit","Government","Local Government Unit"," ","I. PASCUAL STREET"," ","REGION IV-A (CALABAR ZON)","040000000","RIZAL","045800000","JALA-JALA","045807000","SPECIAL DISTRICT (POB.)","045807015","1990","+63 027361538"," "," "," "," "," ","BELTRAN","PEDRO BENIGNO","MONTON","Municipal Health Officer","","",""
"DOH000000000000859","859","LIPA CITY MAIN HEALTH CENTER (EAST DISTRICT)"," "," "," ","Rural Health Unit","Government","Local Government Unit"," "," "," ","REGION IV-A (CALABAR ZON)","040000000","BATANGAS","041000000","LIPA CITY","041014000","SABANG","041014054","4217","+63 439810013"," "," "," "," "," ","QUINTO","RUBY","P.","Municipal Health Officer","","",""
"DOH000000000000889","889","ROSARIO RURAL HEALTH UNIT I"," "," "," ","Rural Health Unit","Government","Local Government Unit"," "," "," ","REGION IV-A (CALABAR ZON)","040000000","BATANGAS","041000000","ROSARIO","041021000","BARANGAY B (POB.)","041021032","4225","+63 437401338","+63 433211048","+63 437401256","rosariorhu_07@yahoo.com"," "," ","LUNA","LUISITO","TAGLE","Municipal Health Officer","","",""
"DOH000000000000892","892","SAN JUAN RURAL HEALTH UNIT II"," "," "," ","Rural Health Unit","Government","Local Government Unit"," "," "," ","REGION IV-A (CALABAR ZON)","040000000","BATANGAS","041000000","SAN JUAN","041023000"," "," ","4226"," "," "," "," "," "," "," "," "," "," ","","",""
"DOH000000000000910","910","TANAUAN RURAL HEALTH UNIT I"," "," "," ","Rural Health Unit","Government","Local Government Unit"," ","MAYAPIS STREET"," ","REGION IV-A (CALABAR ZON)","040000000","BATANGAS","041000000","CITY OF TANAUAN","041031000","POBLACION BARANGAY  3","041031034","4232","+63 437781001"," "," "," "," "," ","BAUTISTA","ADEL","S.","City Health Officer","","",""
"DOH000000000000911","911","TANAUAN RURAL HEALTH UNIT II"," "," "," ","Rural Health Unit","Government","Local Government Unit"," "," "," ","REGION IV-A (CALABAR ZON)","040000000","BATANGAS","041000000","CITY OF TANAUAN","041031000","SAMBAT","041031040","4232","+63 437781274"," "," ","cho2tanauan@gmail.com"," "," ","BAUTISTA","IMELDA ROSAL"," ","Rural Health Physician","","",""
"DOH000000000001398","1398","UNISAN RURAL HEALTH UNIT/MAIN HEALTH CENTER"," "," "," ","Rural Health Unit","Government","Local Government Unit"," "," "," ","REGION IV-A (CALABAR ZON)","040000000","QUEZON","045600000","UNISAN","045649000","MULIGUIN","045649020","4305","+63 425498376"," "," ","fabian.zubiri@yahoo.com"," "," ","ZUBIRI","FABIAN","C.","Municipal Health Officer","","",""
"DOH000000000001405","1405","INFANTA RURAL HEALTH UNIT"," "," "," ","Rural Health Unit","Government","Local Government Unit"," "," "," ","REGION IV-A (CALABAR ZON)","040000000","QUEZON","045600000","INFANTA","045620000"," "," ","4336"," "," "," "," "," "," "," "," "," "," ","","",""
"DOH000000000001420","1420","JOMALIG RURAL HEALTH UNIT"," "," "," ","Rural Health Unit","Government","Local Government Unit"," ","HIGHWAY 54 STREET"," ","REGION IV-A (CALABAR ZON)","040000000","QUEZON","045600000","JOMALIG","045621000","TALISOY (POB.)","045621004","4342"," "," "," "," "," "," ","CRSITOBAL","MARIELLE CARMELA"," ","Municipal Health Officer","","",""
"DOH000000000001431","1431","PANUKULAN RURAL HEALTH UNIT"," "," "," ","Rural Health Unit","Government","Local Government Unit"," "," "," ","REGION IV-A (CALABAR ZON)","040000000","QUEZON","045600000","PANUKULAN","045631000","SAN JUAN (POB.)","045631012","4337"," "," "," ","mcgn_sargento@yahoo.com"," "," ","SARGENTO","MA. CECILIA","NOLASCO","Municipal Health Officer","","",""
"DOH000000000001432","1432","GENERAL LUNA RURAL HEALTH UNIT"," "," "," ","Rural Health Unit","Government","Local Government Unit"," ","EMILIO JACINTO STREET"," ","REGION IV-A (CALABAR ZON)","040000000","QUEZON","045600000","GENERAL LUNA","045616000","BARANGAY  7 (POB.)","045616009","4310"," "," "," ","mecijaconnie@yahoo.com.ph"," "," ","MECIJA","CONSTANCIA","SANTOS","Municipal Health Officer","","",""
"DOH000000000001514","1514","MACALELON RURAL HEALTH UNIT"," "," "," ","Rural Health Unit","Government","Local Government Unit"," "," "," ","REGION IV-A (CALABAR ZON)","040000000","QUEZON","045600000","MACALELON","045625000"," "," ","4309","+63 423934257"," "," "," "," "," "," "," "," "," ","","",""
"DOH000000000001518","1518","PLARIDEL RURAL HEALTH UNIT"," "," "," ","Rural Health Unit","Government","Local Government Unit"," "," "," ","REGION IV-A (CALABAR ZON)","040000000","QUEZON","045600000","PLARIDEL","045635000","M. L. TUMAGAY POB. (REMAS MABUTON)","045635011","4306","+63 423028865"," "," "," "," "," "," "," "," "," ","","",""
"DOH000000000001519","1519","ATIMONAN RURAL HEALTH UNIT"," "," "," ","Rural Health Unit","Government","Local Government Unit"," ","QUEZON STREET","RHU BUILDING","REGION IV-A (CALABAR ZON)","040000000","QUEZON","045600000","ATIMONAN","045603000","BARANGAY ZONE  1 (POB.)","045603004","4331","+63 423165436"," ","+63 423167323","atimonan_rhu@yahoo.com"," "," ","ARGULLA","RICHARD","AMADO","Municipal Health Officer","","",""
"DOH000000000001640","1640","LUCBAN RURAL HEALTH UNIT"," "," "," ","Rural Health Unit","Government","Local Government Unit"," ","0458 AVENUE"," ","REGION IV-A (CALABAR ZON)","040000000","QUEZON","045600000","LUCBAN","045623000","ABANG","045623001","4328","+63 425403382"," ","+63 425403382"," "," "," ","ARAÑA","VICTORINO","QUEVEDO","Municipal Health Officer","","",""
"DOH000000000001698","1698","SAN ANTONIO RURAL HEALTH UNIT"," "," "," ","Rural Health Unit","Government","Local Government Unit"," ","J.C. WAGAN AVENUE"," ","REGION IV-A (CALABAR ZON)","040000000","QUEZON","045600000","SAN ANTONIO","045641000","POBLACION","045641014","4324","+63 425454105"," ","+63 425454091","mawilmalaroza@yahoo.com"," "," ","LAROZA","MA. WILMA","CASTILLO","Municipal Health Officer","","",""
"DOH000000000001700","1700","SANTA MARIA RURAL HEALTH UNIT","","","","Rural Health Unit","Government","Local Government Unit","","","","REGION IV-A (CALABAR ZON)","040000000","LAGUNA","043400000","SANTA MARIA","043427000","BARANGAY II (POB.)","043427020","4022","+63 495011611","","049 501 1611","santamariarhu14@yahoo.com","","","TAMARES","SILVA","CYNTHIA","Municipal Health Officer","","",""
"DOH000000000001702","1702","MAUBAN RURAL HEALTH UNIT"," "," "," ","Rural Health Unit","Government","Local Government Unit"," "," "," ","REGION IV-A (CALABAR ZON)","040000000","QUEZON","045600000","MAUBAN","045627000","RIZALIANA (POB.)","045627022","4330","+63 427841056"," ","+63 427841056","mho_mauban@yahoo.com"," "," ","MARARAC","RONALD","D.","Municipal Health Officer","","",""
"DOH000000000001722","1722","BIÑAN CITY HEALTH OFFICE II","BIÑAN RURAL HEALTH UNIT II"," "," ","Rural Health Unit","Government","Local Government Unit"," ","ROMANA SUBDIVISION"," ","REGION IV-A (CALABAR ZON)","040000000","LAGUNA","043400000","CITY OF BI?AN","043403000","SAN ANTONIO","043403019","4024","+63 495117918"," "," ","queen_victoria1458@yahoo.com"," "," ","MIRANDA","VICTORIA","H.","Public Health Nurse","","",""
"DOH000000000001780","1780","BATANGAS CITY HEALTH OFFICE","","","","Rural Health Unit","Government","Local Government Unit","","P. BURGOS STREET","","REGION IV-A (CALABAR ZON)","040000000","BATANGAS","041000000","BATANGAS CITY (Capital)","041005000","","","4200","+63 437233103","","+63 437238890","","","","BARRION","ROSANNA CARMELITA","","City Health Officer","","",""
"DOH000000000001920","1920","GEN. MARIANO ALVAREZ RURAL HEALTH UNIT II"," "," "," ","Rural Health Unit","Government","Local Government Unit"," "," "," ","REGION IV-A (CALABAR ZON)","040000000","CAVITE","042100000","GEN. MARIANO ALVAREZ","042123000","BARANGAY  2 POBLACION","042123003","4117","+63 469722017"," "," ","gmarhu@yahoo.com"," "," ","ALCASID","EDUARDO"," ","Municipal Health Officer","","",""
"DOH000000000001928","1928","SANTO TOMAS RURAL HEALTH UNIT"," "," "," ","Rural Health Unit","Government","Local Government Unit"," "," "," ","REGION IV-A (CALABAR ZON)","040000000","BATANGAS","041000000","SANTO TOMAS","041028000","BARANGAY I (POB.)","041028001","4234","+63 437782960"," ","+63 437782960"," "," "," ","MAYUGA","PEDRITO","C.","Municipal Health Officer","","",""
"DOH000000000001953","1953","MULANAY RURAL HEALTH UNIT MATERNAL AND CHILD CARE CLINIC"," "," "," ","Rural Health Unit","Government","Local Government Unit"," ","RIZAL STREET"," ","REGION IV-A (CALABAR ZON)","040000000","QUEZON","045600000","MULANAY","045628000","BARANGAY  1 (POB.)","045628006","4312"," "," "," "," "," "," ","LAGUERTA","GENEVIVE","BAYONGAN","Municipal Health Officer","","",""
"DOH000000000002002","2002","CALAUAG RURAL HEALTH UNIT","CALAUAG MAIN HEALTH CENTER"," "," ","Rural Health Unit","Government","Local Government Unit"," ","CANTRE STREET"," ","REGION IV-A (CALABAR ZON)","040000000","QUEZON","045600000","CALAUAG","045607000","BARANGAY III (POB.)","045607015","4318","+63 423018739"," ","+63 423018739"," "," "," ","RUBY","KATHERINE","PULGAR","Municipal Health Officer","","",""
"DOH000000000002017","2017","LIPA CITY MAIN HEALTH CENTER (SOUTH DISTRICT)"," "," "," ","Rural Health Unit","Government","Local Government Unit"," "," "," ","REGION IV-A (CALABAR ZON)","040000000","BATANGAS","041000000","LIPA CITY","041014000","BOLBOK","041014011","4217"," "," "," "," "," "," ","BATILO","SONIA","H.","Municipal Health Officer","","",""
"DOH000000000002049","2049","ALFONSO RURAL HEALTH UNIT","","","","Rural Health Unit","Government","Local Government Unit","","071 BURGOS STREET","","REGION IV-A (CALABAR ZON)","040000000","CAVITE","042100000","ALFONSO","042101000","BARANGAY I (POB.)","042101002","4123","+63 465220568","","+63 465220568","rnmdmph_ha@yahoo.com","","","MANZO","EVANGELINA","B.","Municipal Health Officer","","",""
"DOH000000000002148","2148","PADRE GARCIA RURAL HEALTH UNIT"," "," "," ","Rural Health Unit","Government","Local Government Unit"," ","A. LUNA"," ","REGION IV-A (CALABAR ZON)","040000000","BATANGAS","041000000","PADRE GARCIA","041020000","POBLACION","041020023","4224","+63 435159344"," ","+63 435159207"," "," "," ","ORLANDO","SILVA","M.","Municipal Health Officer","","",""
"DOH000000000002170","2170","ROSARIO RURAL HEALTH UNIT II","","","","Rural Health Unit","Government","Local Government Unit","","SCOUT TORILLO STREET","","REGION IV-A (CALABAR ZON)","040000000","CAVITE","042100000","ROSARIO","042117000","POBLACION","042117008","4106","+63 464382690","","+63 464380642","","","","DE JESUS","NOELLE","","Public Health Nurse","","",""
"DOH000000000002217","2217","LIPA CITY MAIN HEALTH CENTER (URBAN DISTRICT)","","","","Rural Health Unit","Government","Local Government Unit","","CM RECTO AVENUE","","REGION IV-A (CALABAR ZON)","040000000","BATANGAS","041000000","LIPA CITY","041014000","POBLACION BARANGAY  1","041014040","4217","+63 434046246","","","lipacho_urban@yahoo.co","","","GARCIA","AVELYN","MAYO","Medical Officer","","",""
"DOH000000000002328","2328","SANTA ROSA CITY HEALTH OFFICE II","SANTA ROSA RURAL UNIT II (2003)"," "," ","Rural Health Unit","Government","Local Government Unit"," ","LEYCO SUBDIVISION, PUROK 4"," ","REGION IV-A (CALABAR ZON)","040000000","LAGUNA","043400000","CITY OF SANTA ROSA","043428000","BALIBAGO","043428002","4026","+63 495300015"," "," ","cityhealthofficetwo@yahoo.com"," "," ","ESCAL","ERWIN","M.","City Health Officer","","",""
"DOH000000000002346","2346","CAVITE CITY HEALTH OFFICE"," "," "," ","Rural Health Unit","Government","Local Government Unit"," ","JUDGE IBANEZ STREET, SAMONTE PARK"," ","REGION IV-A (CALABAR ZON)","040000000","CAVITE","042100000","CAVITE CITY","042105000"," "," ","4100","+63 464310752"," ","+63 464311655"," "," "," ","TERRADO","LOIDA","C.","City Health Officer","","",""
"DOH000000000002348","2348","NAGCARLAN RURAL HEALTH UNIT I"," "," "," ","Rural Health Unit","Government","Local Government Unit"," ","RIZAL AVENUE"," ","REGION IV-A (CALABAR ZON)","040000000","LAGUNA","043400000","NAGCARLAN","043417000","POBLACION II (POB.)","043417034","4002","+63 495306844"," ","+63 495632904","lenardfe@yahoo.com"," "," ","QUEBRADO","CYNTHIA","E.","Municipal Health Officer","","",""
"DOH000000000002358","2358","POLILLO RURAL HEALTH UNIT"," "," "," ","Rural Health Unit","Government","Local Government Unit"," ","SAN JOSE STREET"," ","REGION IV-A (CALABAR ZON)","040000000","QUEZON","045600000","POLILLO","045636000","POBLACION","045636015","4339","+63 423148203"," "," "," "," "," ","ALMIREZ","RYAN","ANMENTAPO","Municipal Health Officer","","",""
"DOH000000000002386","2386","LOBO MUNICIPAL HEALTH OFFICE","LOBO RURAL HEALTH UNIT"," "," ","Rural Health Unit","Government","Local Government Unit"," "," "," ","REGION IV-A (CALABAR ZON)","040000000","BATANGAS","041000000","LOBO","041015000","POBLACION","041015026","4229"," "," "," ","lobo_mho@yahoo.com"," "," ","MACATANGAY","EDGAR","SULIT","Municipal Health Officer","","",""
"DOH000000000002399","2399","KAWIT RURAL HEALTH UNIT I"," "," "," ","Rural Health Unit","Government","Local Government Unit"," "," "," ","REGION IV-A (CALABAR ZON)","040000000","CAVITE","042100000","KAWIT","042111000","TABON I","042111010","4104","+63 464847515"," "," ","tabonrhu@yahoo.com"," "," ","FIGUEROA","EDGARDO","R.","Municipal Health Officer","","",""
"DOH000000000002414","2414","TAAL RURAL HEALTH UNIT I"," "," "," ","Rural Health Unit","Government","Local Government Unit"," "," "," ","REGION IV-A (CALABAR ZON)","040000000","BATANGAS","041000000","TAAL","041029000","POBLACION  1","041029023","4208"," "," "," "," "," "," ","MAYUGA","CAILANIE","B.","Municipal Health Officer","","",""
"DOH000000000002416","2416","SANTA TERESITA RURAL HEALTH UNIT"," "," "," ","Rural Health Unit","Government","Local Government Unit"," "," "," ","REGION IV-A (CALABAR ZON)","040000000","BATANGAS","041000000","SANTA TERESITA","041027000","POBLACION I","041027010","4206","+63 437720738"," ","+63 437720469","rhu_stateresita@yahoo.com"," "," ","PATRON","EUFRACIA","CAPUNO","Municipal Health Officer","","",""
"DOH000000000002492","2492","CUENCA RURAL HEALTH UNIT"," "," "," ","Rural Health Unit","Government","Local Government Unit"," "," "," ","REGION IV-A (CALABAR ZON)","040000000","BATANGAS","041000000","CUENCA","041009000","BARANGAY  2 (POB.)","041009016","4222","+63 437401652","+63 433421202","+63 433421202","cuencaRHU@gmail.com"," "," ","CUEVAS","CAROLINA","CUEVAS","Municipal Health Officer","","",""
"DOH000000000002504","2504","KAWIT RURAL HEALTH UNIT II"," "," "," ","Rural Health Unit","Government","Local Government Unit"," "," "," ","REGION IV-A (CALABAR ZON)","040000000","CAVITE","042100000","KAWIT","042111000","BINAKAYAN-APLAYA","042111015","4104","+63 464341452"," "," ","kawitrhu2@yahoo.com"," "," ","SANTOS","JO ANN ROSE","C.","Rural Health Physician","","",""
"DOH000000000002510","2510","BAY RURAL HEALTH UNIT"," "," "," ","Rural Health Unit","Government","Local Government Unit"," "," "," ","REGION IV-A (CALABAR ZON)","040000000","LAGUNA","043400000","BAY","043402000","SAN AGUSTIN (POB.)","043402016","4033"," "," "," "," "," "," "," "," "," "," ","","",""
"DOH000000000002521","2521","LIPA CITY MAIN HEALTH CENTER (WEST DISTRICT HEALTH CENTER)"," "," "," ","Rural Health Unit","Government","Local Government Unit"," ","SAN VICENTE STREET"," ","REGION IV-A (CALABAR ZON)","040000000","BATANGAS","041000000","LIPA CITY","041014000","BANAYBANAY","041014010","4217","+63 434551609"," "," "," "," "," ","CUSTODIO","ROSARIO","PAGCALIWAGAN","Rural Health Physician","","",""
"DOH000000000002531","2531","ANTIPOLO CITY HEALTH OFFICE I","","","","Rural Health Unit","Government","Local Government Unit","","M. SANTOS STREET","","REGION IV-A (CALABAR ZON)","040000000","RIZAL","045800000","CITY OF ANTIPOLO (Capital)","045802000","SAN ROQUE (POB.)","045802009","1870","+63 026970362","","+63 026974097","antipolo_cho2015@yahoo.com","health@antipolo.ph","","LAT","CONCEPCION","GARCIA","City Health Officer","","",""
"DOH000000000002545","2545","SARIAYA RURAL HEALTH UNIT"," "," "," ","Rural Health Unit","Government","Local Government Unit"," ","MARICHI SUBDIVISION"," ","REGION IV-A (CALABAR ZON)","040000000","QUEZON","045600000","SARIAYA","045645000","BARANGAY  4 (POB.)","045645035","4322","+63 425258494"," "," "," "," "," ","CATARROJA","CONSTANCIA","P.","Municipal Health Officer","","",""
"DOH000000000002613","2613","ROSARIO RURAL HEALTH UNIT II","","","","Rural Health Unit","Government","Local Government Unit","","PUROK 3","","REGION IV-A (CALABAR ZON)","040000000","BATANGAS","041000000","ROSARIO","041021000","ALUPAY","041021001","4225","","","","ruralhealthunit2alupay@yahoo.com","","","LUNA","LUISITO","TAGLE","Rural Health Physician","","",""
"DOH000000000002735","2735","SAN NARCISO RURAL HEALTH UNIT"," "," "," ","Rural Health Unit","Government","Local Government Unit"," "," "," ","REGION IV-A (CALABAR ZON)","040000000","QUEZON","045600000","SAN NARCISO","045644000"," "," ","4313"," "," "," "," "," "," "," "," "," "," ","","",""
"DOH000000000002739","2739","PILILLA RURAL HEALTH UNIT"," "," "," ","Rural Health Unit","Government","Local Government Unit"," ","M.A. ROXAS STREET"," ","REGION IV-A (CALABAR ZON)","040000000","RIZAL","045800000","PILILLA","045810000","BAGUMBAYAN (POB.)","045810001","1910"," "," "," ","pilillarhu@yahoo.com"," "," ","PAZ","AURA","ALCANTARA","Municipal Health Officer","","",""
"DOH000000000002776","2776","PITOGO RURAL HEALTH UNIT"," "," "," ","Rural Health Unit","Government","Local Government Unit"," "," "," ","REGION IV-A (CALABAR ZON)","040000000","QUEZON","045600000","PITOGO","045634000","MAALIW (POB.)","045634026","4308","+63 423188111"," ","+63 423188555","rhu_pitogo@yahoo.com"," "," ","LAO","MARIA GLENDA","HUTAMARES","Municipal Health Officer","","",""
"DOH000000000002781","2781","TRECE MARTIREZ CITY HEALTH OFFICE"," "," "," ","Rural Health Unit","Government","Local Government Unit"," "," "," ","REGION IV-A (CALABAR ZON)","040000000","CAVITE","042100000","TRECE MARTIRES CITY (Capital)","042122000","SAN AGUSTIN (POB.)","042122006","4109","+63 464192425"," ","+63 464190091","cho_trececavite@yahoo.com"," "," ","PEREÑA-PAGGAO","MARINA","R.","City Health Officer","","",""
"DOH000000000002792","2792","BUENAVISTA RURAL HEALTH UNIT"," "," "," ","Rural Health Unit","Government","Local Government Unit"," ","SAN LORENZO STREET"," ","REGION IV-A (CALABAR ZON)","040000000","QUEZON","045600000","BUENAVISTA","045605000","POBLACION","045605026","4320"," "," "," ","dochermisiat@yahoo.com.ph"," "," ","SIAT","HERMINIGILDO","TENORIO","Municipal Health Officer","","",""
"DOH000000000002799","2799","SANTA CRUZ RURAL HEALTH UNIT II"," "," "," ","Rural Health Unit","Government","Local Government Unit"," "," "," ","REGION IV-A (CALABAR ZON)","040000000","LAGUNA","043400000","SANTA CRUZ (Capital)","043426000","BUBUKAL","043426003","4009","+63 495013649"," "," ","santacrurhu2@yahoo.com.ph"," "," ","MONTESA","IMEE"," ","Rural Health Physician","","",""
"DOH000000000002884","2884","GENERAL EMILIO AGUINALDO RURAL HEALTH UNIT"," "," "," ","Rural Health Unit","Government","Local Government Unit"," ","MAGALLANES STREET"," ","REGION IV-A (CALABAR ZON)","040000000","CAVITE","042100000","GENERAL EMILIO AGUINALDO","042107000"," "," ","4124"," "," "," ","rhu_aguinaldo@yahoo.com"," "," ","GLORIANI","VICENTE","HAYAG","Municipal Health Officer","","",""
"DOH000000000002932","2932","ILIHAN RURAL HEALTH UNIT V","","","","Rural Health Unit","Government","Local Government Unit","","","","REGION IV-A (CALABAR ZON)","040000000","BATANGAS","041000000","BATANGAS CITY (Capital)","041005000","ILIHAN","041005032","4200","","","","","","","YAM","VILMA VICENTA","","Municipal Health Officer","","",""
"DOH000000000002984","2984","PATNANUNGAN RURAL HEALTH UNIT"," "," "," ","Rural Health Unit","Government","Local Government Unit"," ","DEMIN STREET"," ","REGION IV-A (CALABAR ZON)","040000000","QUEZON","045600000","PATNANUNGAN","045632000","PATNANUNGAN SUR (POB.)","045632006","4341"," "," "," "," "," "," ","FAIGMANI","DULCE KRISELDA","E.","Municipal Health Officer","","",""
"DOH000000000003017","3017","DALAHICAN RURAL HEALTH UNIT"," "," "," ","Rural Health Unit","Government","Local Government Unit"," "," "," ","REGION IV-A (CALABAR ZON)","040000000","QUEZON","045600000","LUCENA CITY (Capital)","045624000"," "," ","4301"," "," "," "," "," "," "," "," "," "," ","","",""
"DOH000000000003048","3048","MABINI RURAL HEALTH UNIT"," "," "," ","Rural Health Unit","Government","Local Government Unit"," "," "," ","REGION IV-A (CALABAR ZON)","040000000","BATANGAS","041000000","MABINI","041016000","POBLACION","041016018","4202","+63 434871077"," "," ","rhu.mabini@yahoo.com"," "," ","BELOSO","MELANIO RAMIR","P.","Municipal Health Officer","","",""
"DOH000000000003059","3059","LOPEZ RURAL HEALTH UNIT"," "," "," ","Rural Health Unit","Government","Local Government Unit"," "," "," ","REGION IV-A (CALABAR ZON)","040000000","QUEZON","045600000","LOPEZ","045622000","MAGSAYSAY (POB.)","045622007","4316","+63 423025334"," "," ","rhulopez@yahoo.com"," "," ","MERCADO JR.","JOSE","MARQUEZ","Municipal Health Officer","","",""
"DOH000000000003088","3088","GENERAL NAKAR RURAL HEALTH UNIT"," "," "," ","Rural Health Unit","Government","Local Government Unit"," ","DON ASTRERA STREET"," ","REGION IV-A (CALABAR ZON)","040000000","QUEZON","045600000","GENERAL NAKAR","045617000","POBLACION","045617016","4338"," "," "," "," "," "," "," "," "," "," ","","",""
"DOH000000000003184","3184","NAVOTAS RURAL HEALTH UNIT"," "," "," ","Rural Health Unit","Government","Local Government Unit"," ","211 GUHIT STREET"," ","REGION IV-A (CALABAR ZON)","040000000","RIZAL","045800000","CARDONA","045806000","NAVOTAS","045806018","1950"," "," "," "," "," "," ","SILAO","ELOIDA","ESTRELLA","Municipal Health Officer","","",""
"DOH000000000003188","3188","BURDEOS RURAL HEALTH UNIT"," "," "," ","Rural Health Unit","Government","Local Government Unit"," "," "," ","REGION IV-A (CALABAR ZON)","040000000","QUEZON","045600000","BURDEOS","045606000","POBLACION","045606012","4340"," "," "," ","rhu_burdeos@yahoo.com"," "," ","ALPAÑO","JOHN GILBERT"," ","Municipal Health Officer","","",""
"DOH000000000003203","3203","BALAYAN MUNICIPAL HEALTH OFFICE","Â BALAYAN RURAL HEALTH UNIT","","","Rural Health Unit","Government","Local Government Unit","","PLAZA MABINI STREET","","REGION IV-A (CALABAR ZON)","040000000","BATANGAS","041000000","BALAYAN","041003000","BARANGAY  2 (POB.)","041003007","4213","+63 434073750","+63 432116629","+63 439211872","mhobalayan@yahoo.com","","","NOCHE","EVELYN","S.","Municipal Health Officer","","",""
"DOH000000000003266","3266","SAN MATEO RURAL HEALTH UNIT II","","","","Rural Health Unit","Government","Local Government Unit","","FE AMADO COMPOUND","","REGION IV-A (CALABAR ZON)","040000000","RIZAL","045800000","SAN MATEO","045811000","MALANDAY","045811007","1850","","","","","","","BAUTISTA","MARILYN","","Public Health Nurse","","",""
"DOH000000000003362","3362","SAN ROQUE RURAL HEALTH UNIT"," "," "," ","Rural Health Unit","Government","Local Government Unit"," ","F. MAÑALAC STREET"," ","REGION IV-A (CALABAR ZON)","040000000","CAVITE","042100000","CAVITE CITY","042105000","BARANGAY 54-A (PECHAY A)","042105080","4100"," "," "," ","cavitecity_cho@yahoo.com"," "," ","SOSA","ARMIDA"," ","Public Health Nurse","","",""
"DOH000000000003531","3531","PADRE BURGOS RURAL HEALTH UNIT"," "," "," ","Rural Health Unit","Government","Local Government Unit"," "," "," ","REGION IV-A (CALABAR ZON)","040000000","QUEZON","045600000","PADRE BURGOS","045629000","BURGOS (POB.)","045629011","4303"," "," "," ","rhu.padereburgos@yahoo.com"," "," ","SAVEDIA","MAILA"," ","Municipal Health Officer","","",""
"DOH000000000003604","3604","MENDEZ (MENDEZ-NUÑEZ) RURAL HEALTH UNIT"," "," "," ","Rural Health Unit","Government","Local Government Unit"," ","RIZAL STREET"," ","REGION IV-A (CALABAR ZON)","040000000","CAVITE","042100000","MENDEZ (MENDEZ-NU?EZ)","042114000","POBLACION II (BARANGAY II)","042114008","4021","+63 468610308"," ","+63 464130601","ellenpeji@yahoo.com"," "," ","AUDITOR","JOSE","NOCEDA","Municipal Health Officer","","",""
"DOH000000000003693","3693","TIAONG MUNICIPAL HEALTH OFFICE","TIAONG Main Health Center"," "," ","Rural Health Unit","Government","Local Government Unit"," ","DON. ROBLES STREET"," ","REGION IV-A (CALABAR ZON)","040000000","QUEZON","045600000","TIAONG","045648000","BARANGAY  III (POB.)","045648005","4325"," "," "," ","tiaong_health@yahoo.com"," "," ","LANDICHO","PEDRO"," ","Municipal Health Officer","","",""
"DOH000000000003749","3749","ANGONO RURAL HEALTH UNIT I"," "," "," ","Rural Health Unit","Government","Local Government Unit"," ","P. TOLENTINO STREET"," ","REGION IV-A (CALABAR ZON)","040000000","RIZAL","045800000","ANGONO","045801000","SAN ISIDRO","045801009","1930"," "," "," ","angonorhu@yahoo.com"," "," ","LOZO","JOSE","ATENDIDIO","Municipal Health Officer","","",""
"DOH000000000003836","3836","STRIKE SA SERBISYO HEALTH UNIT II (FLORAVILLE)","FLORAVILLE MAIN HEALTH CENTER","BACOOR RURAL HEALTH UNIT II","","Rural Health Unit","Government","Local Government Unit","","FLORAVILLE AVENUE","","REGION IV-A (CALABAR ZON)","040000000","CAVITE","042100000","BACOOR CITY","042103000","P.F. ESPIRITU I (PANAPAAN)","042103018","4102","+63 46436-1948","","","floraville.rhu@gmail.com","","","GUEVARRA","MARITA","TORRES","Medical Officer","Not Applicable","",""
"DOH000000000003858","3858","TAAL RURAL HEALTH UNIT II"," "," "," ","Rural Health Unit","Government","Local Government Unit"," "," "," ","REGION IV-A (CALABAR ZON)","040000000","BATANGAS","041000000","TAAL","041029000"," "," ","4208","+63 432143195"," "," "," "," "," "," "," "," "," ","","",""
"DOH000000000003892","3892","PAGBILAO RURAL HEALTH UNIT"," "," "," ","Rural Health Unit","Government","Local Government Unit"," ","BONIFACIO STREET","RHU - SENTRONG PANGKALUSUGAN","REGION IV-A (CALABAR ZON)","040000000","QUEZON","045600000","PAGBILAO","045630000","BARANGAY  5 SANTA CATALINA (POB.)","045630023","4302"," "," "," ","rhu_pagbilao@yahoo.com"," "," ","MERENE","NATHANIEL","P.","Municipal Health Officer","","",""
"DOH000000000003990","3990","CATANAUAN RURAL HEALTH UNIT AND LYINGIN CLINIC"," "," "," ","Rural Health Unit","Government","Local Government Unit"," ","NABATASAN STREET"," ","REGION IV-A (CALABAR ZON)","040000000","QUEZON","045600000","CATANAUAN","045610000","BARANGAY  9 (POB.)","045610011","4311","+63 423158321"," "," "," "," "," ","DAYA","FRANCIS GERARD","MOLINA","Municipal Health Officer","","",""
"DOH000000000004004","4004","SANTA ROSA CITY HEALTH OFFICE I","SANTA ROSA RURAL UNIT I (2003)"," "," ","Rural Health Unit","Government","Local Government Unit"," ","RIZAL BOULEVARD"," ","REGION IV-A (CALABAR ZON)","040000000","LAGUNA","043400000","CITY OF SANTA ROSA","043428000","MARKET AREA (POB.)","043428012","4026","+63 495300015"," "," ","santarosa_cho1@yahoo.com.ph","cho1@santarosacity.gov.ph"," ","CUNANAN","SOLEDAD ROSANNA","C.","City Health Officer","","",""
"DOH000000000004070","4070","SAN LUIS RURAL HEALTH UNIT I","","","","Rural Health Unit","Government","Local Government Unit","","","","REGION IV-A (CALABAR ZON)","040000000","BATANGAS","041000000","SAN LUIS","041024000","POBLACION","041024028","4210","+63 434118121","","+63 434118083","sanluisbatangas.rhu@gmail.com","","","LASALA","SALVADOR ATANACITO","","Municipal Health Officer","","",""
"DOH000000000004132","4132","AGONCILLO RURAL HEALTH UNIT","","","","Rural Health Unit","Government","Local Government Unit","","","","REGION IV-A (CALABAR ZON)","040000000","BATANGAS","041000000","AGONCILLO","041001000","POBLACION","041001015","4211","+63 432102116","+63 432102334","+63 432102344","","","","LANDICHO","RICHARD","B.","Municipal Health Officer","","",""
"DOH000000000004170","4170","IMUS CITY HEALTH OFFICE I"," "," "," ","Rural Health Unit","Government","Local Government Unit"," ","VELARDE SUBDIVISION"," ","REGION IV-A (CALABAR ZON)","040000000","CAVITE","042100000","IMUS CITY","042109000","MEDICION   I-C","042109073","4103","+63 464344057"," "," "," "," "," ","MINA","FERDINAND","P.","City Health Officer","","",""
"DOH000000000004181","4181","NASUGBU RURAL HEALTH UNIT I"," "," "," ","Rural Health Unit","Government","Local Government Unit"," "," P. RINOZA STREET"," ","REGION IV-A (CALABAR ZON)","040000000","BATANGAS","041000000","NASUGBU","041019000","BARANGAY  1 (POB.)","041019049","4231","+63 432162783","+63 434120222","+63 439316439","rhu_nasugbu@yahoo.com"," "," ","MARQUEZ","SARAH","DELOS REYES","Municipal Health Officer","","",""
"DOH000000000004240","4240","LEMERY RURAL HEALTH UNIT"," "," "," ","Rural Health Unit","Government","Local Government Unit"," ","ILUSTRE AVENUE"," ","REGION IV-A (CALABAR ZON)","040000000","BATANGAS","041000000","LEMERY","041012000","DISTRICT III (POB.)","041012034","4209","+63 437402983","+63 434110760","+63 434110894","mho.lemery@yahoo.com.ph"," "," ","VERGARA","WENCY","MARANAN","Municipal Health Officer","","",""
"DOH000000000004301","4301","BIÑAN CITY HEALTH OFFICE I","BIÑAN RURAL HEALTH UNIT I"," "," ","Rural Health Unit","Government","Local Government Unit"," ","GOOD MORNING SUBDIVISION"," ","REGION IV-A (CALABAR ZON)","040000000","LAGUNA","043400000","CITY OF BI?AN","043403000","SANTO DOMINGO","043403023","4024","+63 495118142"," "," ","binanrhu@yahoo.com"," "," ","BENJAMIN","MIRABELLE","MORALES","City Health Officer","","",""
"DOH000000000004485","4485","REAL RURAL HEALTH UNIT"," "," "," ","Rural Health Unit","Government","Local Government Unit"," "," "," ","REGION IV-A (CALABAR ZON)","040000000","QUEZON","045600000","REAL","045638000"," "," ","4335","+63 425366330"," "," "," "," "," "," "," "," "," ","","",""
"DOH000000000004503","4503","BINANGONAN RURAL HEALTH UNIT III"," "," "," ","Rural Health Unit","Government","Local Government Unit"," ","ZULUETA STREET"," ","REGION IV-A (CALABAR ZON)","040000000","RIZAL","045800000","BINANGONAN","045804000","LIBID (POB.)","045804038","1940","+63 026525597"," "," "," "," "," ","REYES","FILIPINA"," ","Public Health Nurse","","",""
"DOH000000000004527","4527","BINANGONAN RURAL HEALTH UNIT II"," "," "," ","Rural Health Unit","Government","Local Government Unit"," ","NATIONAL ROAD"," ","REGION IV-A (CALABAR ZON)","040000000","RIZAL","045800000","BINANGONAN","045804000","TAYUMAN","045804036","1940","+63 022895727"," "," "," "," "," ","DIESTRO","ROSALINDA","ALCANTARA","Public Health Nurse","","",""
"DOH000000000004533","4533","ALITAGTAG RURAL HEALTH UNIT","","","","Rural Health Unit","Government","Local Government Unit","","","","REGION IV-A (CALABAR ZON)","040000000","BATANGAS","041000000","ALITAGTAG","041002000","POBLACION EAST","041002015","4205","+63 437720207","+63 437720154","+63 437720154","","","","CASTILLO","FLORDELIZA","","Municipal Health Officer","","",""
"DOH000000000004540","4540","GUINAYANGAN MUNICIPAL HEALTH OFFICE","GUINAYANGAN RURAL HEALTH UNIT"," "," ","Rural Health Unit","Government","Local Government Unit"," ","PUBLIC MARKET STREET","MUNICPAL HEALTH OFFICE BUILDING","REGION IV-A (CALABAR ZON)","040000000","QUEZON","045600000","GUINAYANGAN","045618000","CALIMPAK","045618010","4319","+63 423034754"," "," ","mhoguinayangan@yahoo.com"," "," ","ARDIENTE","ANNABEL","TAGANAS","Municipal Health Officer","","",""
"DOH000000000004561","4561","BARAS RURAL HEALTH UNIT"," "," "," ","Rural Health Unit","Government","Local Government Unit"," ","RIZAL STREET"," ","REGION IV-A (CALABAR ZON)","040000000","RIZAL","045800000","BARAS","045803000","MABINI","045803009","1970","+63 023684942"," "," ","barasrhumesu@yahoo.com"," "," ","MALABANAN","ALLEN","MATIGNAS","Municipal Health Officer","","",""
"DOH000000000004574","4574","TUY RURAL HEALTH UNIT"," "," "," ","Rural Health Unit","Government","Local Government Unit"," "," "," ","REGION IV-A (CALABAR ZON)","040000000","BATANGAS","041000000","TUY","041034000","LUNA (POB.)","041034013","4214","+63 432760043"," ","+63 432760047","tuy_rhu@yahoo.com.ph"," "," ","ADRIAS","PILAR","AFABLE","Municipal Health Officer","","",""
"DOH000000000004623","4623","CARDONA RURAL HEALTH UNIT I"," "," "," ","Rural Health Unit","Government","Local Government Unit"," ","RIZAL STREET"," ","REGION IV-A (CALABAR ZON)","040000000","RIZAL","045800000","CARDONA","045806000","REAL (POB.)","045806022","1950","+63 026521598"," "," "," "," "," ","SILAO","ELOIDA","ESTRELLA","Municipal Health Officer","","",""
"DOH000000000004686","4686","MARAGONDON RURAL HEALTH UNIT"," "," "," ","Rural Health Unit","Government","Local Government Unit"," "," "," ","REGION IV-A (CALABAR ZON)","040000000","CAVITE","042100000","MARAGONDON","042113000","GARITA I A","042113008","4112","+63 464121432"," ","+63 464121432","maragondonrhu@yahoo.com"," "," ","DIEZ","RUFINO","SINGSON","Municipal Health Officer","","",""
"DOH000000000004746","4746","CITY HEALTH OFFICE II - PULO CITY OF CABUYAO","CABUYAO RURAL HEALTH UNIT II","","","Rural Health Unit","Government","Local Government Unit","","OLD NATIONAL HIGHWAY","","REGION IV-A (CALABAR ZON)","040000000","LAGUNA","043400000","CABUYAO CITY","043404000","PULO","043404013","4025","+63 495314281","+63 0495314697","","rhu2cabuyao@yahoo.com","cho2cabuyao@yahoo.com.ph","","AGUILLO","CECIL ARNOLD","GARCIA","City Health Officer","","",""
"DOH000000000004786","4786","IBAAN MUNICIPAL HEALTH OFFICE","IBAAN RURAL HEALTH UNIT"," "," ","Rural Health Unit","Government","Local Government Unit"," ","DON PEDRO SUBDIVISION"," ","REGION IV-A (CALABAR ZON)","040000000","BATANGAS","041000000","IBAAN","041010000","TALAIBON","041010025","4230","+63 433111566"," ","+63 433117950","ibaan_mho@yahoo.com"," "," ","CHUA","AGNES","MARQUEZ","Municipal Health Officer","","",""
"DOH000000000004841","4841","GENERAL RICARTE HEALTH CENTER"," "," "," ","Rural Health Unit","Government","Local Government Unit"," ","GEENRAL RICARTE STREET"," ","REGION IV-A (CALABAR ZON)","040000000","RIZAL","045800000","CAINTA","045805000","SAN JUAN","045805016","1900"," "," "," "," "," "," ","JAVIER","JOVITO","BERNARDINO","Rural Health Physician","","",""
"DOH000000000004887","4887","GEN. MARIANO ALVAREZ RURAL HEALTH UNIT I"," "," "," ","Rural Health Unit","Government","Local Government Unit"," ","BLOCK 11-B"," ","REGION IV-A (CALABAR ZON)","040000000","CAVITE","042100000","GEN. MARIANO ALVAREZ","042123000","GREGORIA DE JESUS","042123014","4117","+63 469722017"," "," ","gmarhu@yahoo.com"," "," ","ALCASID","EDUARDO"," ","Municipal Health Officer","","",""
"DOH000000000004948","4948","GUMACA MAIN HEALTH CENTER - ANNEX"," "," "," ","Rural Health Unit","Government","Local Government Unit"," ","MAHARLIKA HIGHWAY"," ","REGION IV-A (CALABAR ZON)","040000000","QUEZON","045600000","GUMACA","045619000","VILLA NAVA","045619059","4306","+63 423176226"," ","+63 423177591"," "," "," "," "," "," "," ","","",""
"DOH000000000004991","4991","SAN FRANCISCO RURAL HEALTH UNIT"," "," "," ","Rural Health Unit","Government","Local Government Unit"," "," "," ","REGION IV-A (CALABAR ZON)","040000000","QUEZON","045600000","SAN FRANCISCO (AURORA)","045642000","POBLACION","045642012","4315"," "," "," "," "," "," ","INONCILLO","JOSE ODILON","R.","Municipal Health Officer","","",""
"DOH000000000005036","5036","IMUS CITY HEALTH OFFICE II","","","","Rural Health Unit","Government","Local Government Unit","","","","REGION IV-A (CALABAR ZON)","040000000","CAVITE","042100000","IMUS CITY","042109000","POBLACION III-A (POB.)","042109008","4103","+63 464715560","","","","","","CORONADO","RHODORA","J.","Rural Health Physician","","",""
"DOH000000000005101","5101","TAYSAN RURAL HEALTH UNIT"," "," "," ","Rural Health Unit","Government","Local Government Unit"," "," "," ","REGION IV-A (CALABAR ZON)","040000000","BATANGAS","041000000","TAYSAN","041032000","POBLACION WEST","041032016","4228"," "," "," ","taysan_rhu@yahoo.com.ph","dredelicia@yahoo.com"," ","REDELICIA","MARIA ROSITA DAISY","PAUIG","Municipal Health Officer","","",""
"DOH000000000005140","5140","IMUS CITY HEALTH OFFICE III"," "," "," ","Rural Health Unit","Government","Local Government Unit"," "," "," ","REGION IV-A (CALABAR ZON)","040000000","CAVITE","042100000","IMUS CITY","042109000","POBLACION III-B","042109090","4103","+63 464719734","+63 9175524799"," "," "," "," ","CALINGASAN","RONALDO","I.","City Health Officer","","",""
"DOH000000000005178","5178","PAGSANJAN RURAL HEALTH UNIT","","","","Rural Health Unit","Government","Local Government Unit","","SITIO I","","REGION IV-A (CALABAR ZON)","040000000","LAGUNA","043400000","PAGSANJAN","043419000","BIÑAN","043419002","4008","","","","","","","TORRES","LYRA","LERON","Municipal Health Officer","","",""
"DOH000000000005227","5227","SAN NICOLAS RURAL HEALTH UNIT","","","","Rural Health Unit","Government","Local Government Unit","","JOSE P. LAUREL","","REGION IV-A (CALABAR ZON)","040000000","BATANGAS","041000000","SAN NICOLAS","041025000","POBLACION","041025013","4207","+63 432185392","","+63 432105200","sannicolasrhu@yahoo.com","","","GARCIA","ARNEL","C.","Municipal Health Officer","","",""
"DOH000000000005228","5228","LAUREL RURAL HEALTH UNIT"," "," "," ","Rural Health Unit","Government","Local Government Unit"," ","CP GARCIA STREET"," ","REGION IV-A (CALABAR ZON)","040000000","BATANGAS","041000000","LAUREL","041011000","BARANGAY  2 (POB.)","041011017","4221","+63 437414032"," ","+63 437414031","GRACEAMO@YAHOO.COM"," "," ","GARCIA","BENBENATO","RAMILO","Municipal Health Officer","","",""
"DOH000000000005238","5238","LIPA CITY MAIN HEALTH CENTER (NORTH DISTRICT)"," "," "," ","Rural Health Unit","Government","Local Government Unit"," "," "," ","REGION IV-A (CALABAR ZON)","040000000","BATANGAS","041000000","LIPA CITY","041014000","INOSLOBAN","041014021","4217","+63 434042055"," "," ","north_dhc@yahoo.com"," "," ","GARCIA","AVELYN","M.","Municipal Health Officer","","",""
"DOH000000000005239","5239","TANAY RURAL HEALTH UNIT II"," "," "," ","Rural Health Unit","Government","Local Government Unit"," ","JP RIZAL STREET"," ","REGION IV-A (CALABAR ZON)","040000000","RIZAL","045800000","TANAY","045812000","SAMPALOC","045812012","1980"," "," "," ","rhu23tanay@yahoo.com"," "," ","RIVERA","AMOR DULCE","AQUINO","Rural Health Physician","","",""
"DOH000000000005242","5242","SAN ANDRES MAIN HEALTH CENTER"," "," "," ","Rural Health Unit","Government","Local Government Unit"," ","FERNANDEZ STREET"," ","REGION IV-A (CALABAR ZON)","040000000","QUEZON","045600000","SAN ANDRES","045640000","POBLACION","045640007","4314"," "," "," "," "," "," ","FLORIDO, JR","VIRGILIO","OBLEFIAS","Municipal Health Officer","","",""
"DOH000000000005303","5303","DASMARIÑAS CITY HEALTH OFFICE I","","","","Rural Health Unit","Government","Local Government Unit","","D. MANGUBAT STREET","","REGION IV-A (CALABAR ZON)","040000000","CAVITE","042100000","CITY OF DASMARI?AS","042106000","ZONE  II (POB.)","042106017","4115","+63 464160279","","+63 464160279","cho1_dasma@ymail.com","","","CRISTOBAL","CYNTHIA","MORALES","City Health Officer","","",""
"DOH000000000005336","5336","ALABAT RURAL HEALTH UNIT","MUNICIPAL HEALTH OFFICE ALABAT","","","Rural Health Unit","Government","Local Government Unit","","NATIONAL ROAD","","REGION IV-A (CALABAR ZON)","040000000","QUEZON","045600000","ALABAT","045602000","BARANGAY  1 (POB.)","045602010","4333","","","","mhoalabat@yahoo.com rhu_alabat@yahoo.com","","","CHUA CHENG","MA. ROSELLA","CAPARROS","Municipal Health Officer","","",""
"DOH000000000005404","5404","MALVAR RURAL HEALTH UNIT","Malvar Maternity Clinic","","","Rural Health Unit","Government","Local Government Unit","","","","REGION IV-A (CALABAR ZON)","040000000","BATANGAS","041000000","MALVAR","041017000","SAN PIOQUINTO","041017019","4233","+63 434060331","+63 434060439","+63 434060331","malvarrhu@gmail.com","","","JAURIGUE","MARIA LUISA","VITUG","Municipal Health Officer","","",""
"DOH000000000005405","5405","TINGLOY RURAL HEALTH UNIT"," "," "," ","Rural Health Unit","Government","Local Government Unit"," "," "," ","REGION IV-A (CALABAR ZON)","040000000","BATANGAS","041000000","TINGLOY","041033000","BARANGAY 14 (POBLACION 2)","041033009","4203","+63 437062706"," "," ","tingloy.rhu@gmail.com"," "," ","BEJASA","OSCAR ELEUTERIO","LEYCO","Municipal Health Officer","","",""
"DOH000000000005542","5542","TAGAYTAY CITY HEALTH OFFICE"," "," "," ","Rural Health Unit","Government","Local Government Unit"," ","AKLE STREET"," ","REGION IV-A (CALABAR ZON)","040000000","CAVITE","042100000","TAGAYTAY CITY","042119000","KAYBAGAL SOUTH (POB.)","042119008","4120","+63 464830604"," ","+63 46 4830604","chotagaytay@yahoo.com"," "," ","MANGAYA","ROSALINDA","R.","City Health Officer","","",""
"DOH000000000005552","5552","SAMPALOC RURAL HEALTH UNIT"," "," "," ","Rural Health Unit","Government","Local Government Unit"," ","OBMANIA STREET CORNER DORNEO STREET"," ","REGION IV-A (CALABAR ZON)","040000000","QUEZON","045600000","SAMPALOC","045639000","SAN ROQUE (POB.)","045639018","4332"," "," "," "," "," "," ","RAMOSO","RANI","BALO","Municipal Health Officer","","",""
"DOH000000000005596","5596","SAN PEDRO RURAL HEALTH UNIT II"," "," "," ","Rural Health Unit","Government","Local Government Unit"," ","OLD TENANT"," ","REGION IV-A (CALABAR ZON)","040000000","LAGUNA","043400000","CITY OF SAN PEDRO","043425000","LANGGAM","043425006","4023"," "," "," ","splhealth@yahoo.com.ph","r.histosis@yahoo.com"," ","OLIVAREZ","ROBERT","R.","Municipal Health Officer","","",""
"DOH000000000005775","5775","CABUYAO CITY HEALTH OFFICE I","CABUYAO RURAL HEALTH UNIT I"," "," ","Rural Health Unit","Government","Local Government Unit"," ","ROSARIO VILLAGE"," ","REGION IV-A (CALABAR ZON)","040000000","LAGUNA","043400000","CABUYAO CITY","043404000","SALA","043404014","4025","+63 495311153"," ","+63 495311153","rhu1cabuyao@yahoo.com"," "," ","DIAMANTE","ELENA","CAPARAS","City Health Officer","","",""
"DOH000000000005793","5793","TERNATE RURAL HEALTH UNIT"," "," "," ","Rural Health Unit","Government","Local Government Unit"," ","GOVERNOR DRIVE"," ","REGION IV-A (CALABAR ZON)","040000000","CAVITE","042100000","TERNATE","042121000","SAN JUAN I","042121007","4111","+63 464120164"," "," "," "," "," ","ARANDIA","GINALYNN","Y.","Municipal Health Officer","","",""
"DOH000000000005869","5869","NOVELETA HEALTH CENTER","NOVELETA RURAL HEALTH UNIT","","","Rural Health Unit","Government","Local Government Unit","","","","REGION IV-A (CALABAR ZON)","040000000","CAVITE","042100000","NOVELETA","042116000","POBLACION","042116002","4105","+63 464381828","","","noveletarhu@gmail.com","","","BUCU","MARIA HILDA","CALIBUSO","Municipal Health Officer","","",""
"DOH000000000005905","5905","TERESA RURAL HEALTH UNIT"," "," "," ","Rural Health Unit","Government","Local Government Unit"," ","M. GAROVILLAS STREET"," ","REGION IV-A (CALABAR ZON)","040000000","RIZAL","045800000","TERESA","045814000","POBLACION","045814006","1880","+63 029185561"," "," ","teresa_rhu@yahoo.com"," "," ","CELESTRA","MENCHITA","FELIX","Municipal Health Officer","","",""
"DOH000000000006126","6126","NAIC RURAL HEALTH UNIT"," "," "," ","Rural Health Unit","Government","Local Government Unit"," ","CAPTAIN CIRIACO NAZARENO STREET"," ","REGION IV-A (CALABAR ZON)","040000000","CAVITE","042100000","NAIC","042115000","CAPT. C. NAZARENO (POB.)","042115006","4110","+63 465070781","+63 464120296","+63 465070781","naicrhu@yahoo.com"," "," ","ANSELMO SE","SUSAN","J.","Municipal Health Officer","","",""
"DOH000000000006537","6537","BAUAN RURAL HEALTH UNIT II","","","","Rural Health Unit","Government","Local Government Unit","","C. INGCO STREET","","REGION IV-A (CALABAR ZON)","040000000","BATANGAS","041000000","BAUAN","041006000","APLAYA","041006002","4201","+63 439809147","","","ruh_bauan2@yahoo.com","","","GENEROSO, JR.","FRANCISCO","I.","Municipal Health Officer","","",""
"DOH000000000006538","6538","BAUAN RURAL HEALTH UNIT I"," "," "," ","Rural Health Unit","Government","Local Government Unit"," ","F. MANGOBOS STREET"," ","REGION IV-A (CALABAR ZON)","040000000","BATANGAS","041000000","BAUAN","041006000","BARANGAY  I (POB.)","041006007","4201","+63 437272261","+63 437270154","+63 437271004","bauanbatangasrhu1@ymail.com"," "," ","BEJER","VICTOR","C.","Municipal Health Officer","","",""
"DOH000000000006539","6539","SAN JOSE MUNICIPAL HEALTH OFFICE","SAN JOSE RURAL HEALTH UNIT"," "," ","Rural Health Unit","Government","Local Government Unit"," ","MAKALINTAL STREET"," ","REGION IV-A (CALABAR ZON)","040000000","BATANGAS","041000000","SAN JOSE","041022000","POBLACION BARANGAY I","041022023","4227","+63 437260023"," ","+63 437260023","sanjoserhu@yahoo.com"," "," ","LUNA","RUFO","RAZO","Municipal Health Officer","","",""
"DOH000000000006703","6703","TALISAY RURAL HEALTH UNIT"," "," "," ","Rural Health Unit","Government","Local Government Unit"," "," "," ","REGION IV-A (CALABAR ZON)","040000000","BATANGAS","041000000","TALISAY","041030000","POBLACION BARANGAY  5","041030015","4220","+63 437730284"," ","+63 437730238","talisayrhu4a@yahoo.com"," "," ","LUNA","VICTORIA","V.","Municipal Health Officer","","",""
"DOH000000000006704","6704","SAN JUAN RURAL HEALTH UNIT I"," "," "," ","Rural Health Unit","Government","Local Government Unit"," "," "," ","REGION IV-A (CALABAR ZON)","040000000","BATANGAS","041000000","SAN JUAN","041023000","POBLACION","041023029","4226","+63 435754058"," ","+63 435753210","mhosanjuanbatangas@yahoo.com"," "," ","ALIDIO, JR.","NESTOR","Q.","Municipal Health Officer","","",""
"DOH000000000006845","6845","RIZAL RURAL HEALTH UNIT"," "," "," ","Rural Health Unit","Government","Local Government Unit"," "," "," ","REGION IV-A (CALABAR ZON)","040000000","LAGUNA","043400000","RIZAL","043423000","WEST POBLACION","043423007","4003","+63 495633588"," ","+63 495631051","rizal_rhu@yahoo.com"," "," ","CIRILO","SAM JOSEPH","C.","Municipal Health Officer","","",""
"DOH000000000006907","6907","CARIDAD RURAL HEALTH UNIT"," "," "," ","Rural Health Unit","Government","Local Government Unit"," ","P. PATERNO STREET"," ","REGION IV-A (CALABAR ZON)","040000000","CAVITE","042100000","CAVITE CITY","042105000","BARANGAY 39 (JASMIN)","042105033","4100"," "," "," "," "," "," ","DOMINGO","JET"," ","Rural Health Physician","","",""
"DOH000000000006915","6915","SAN MATEO RURAL HEALTH UNIT III (DOÑA PEPENG PC)","","","","Rural Health Unit","Government","Local Government Unit","","DONA PEPENG","","REGION IV-A (CALABAR ZON)","040000000","RIZAL","045800000","SAN MATEO","045811000","GUITNANG BAYAN I (POB.)","045811005","1850","","","","","","","CADAOAS","HAYDEE","","Public Health Nurse","","",""
"DOH000000000007170","7170","CALATAGAN RURAL HEALTH UNIT"," "," "," ","Rural Health Unit","Government","Local Government Unit"," ","BURGOS STREET"," ","REGION IV-A (CALABAR ZON)","040000000","BATANGAS","041000000","CALATAGAN","041008000","BARANGAY  2 (POB.)","041008017","4215","+63 432132018","+63 432132258","+63 432133001","calataganrhu@yahoo.com"," "," ","TURNO","ROBERT JOHN","MENESES","Municipal Health Officer","","",""
"DOH000000000007367","7367","BINANGONAN RURAL HEALTH UNIT I"," "," "," ","Rural Health Unit","Government","Local Government Unit"," ","MUNICIPAL COMPOUND"," ","REGION IV-A (CALABAR ZON)","040000000","RIZAL","045800000","BINANGONAN","045804000","CALUMPANG","045804007","1940","+63 026525413"," "," ","binangonan_health@yahoo.com","Jhing_feliciano@yahoo.com.ph"," ","DE LA CUESTA","ANGELITO","UBIADAS","Municipal Health Officer","","",""
"DOH000000000007369","7369","GENERAL TRIAS RURAL HEALTH UNIT"," "," "," ","Rural Health Unit","Government","Local Government Unit"," "," "," ","REGION IV-A (CALABAR ZON)","040000000","CAVITE","042100000","CITY OF GENERAL TRIAS","042108000","SAMPALUCAN POB. (BGY. 2)","042108004","4119","+63 464378184"," ","+63 465091250","mesu_gentri@yahoo.com"," "," ","ESCARIO","ABE","DESTURA","Municipal Health Officer","","",""
"DOH000000000007370","7370","TANZA RURAL HEALTH UNIT"," "," "," ","Rural Health Unit","Government","Local Government Unit"," "," "," ","REGION IV-A (CALABAR ZON)","040000000","CAVITE","042100000","TANZA","042120000","DAANG AMAYA I","042120009","4108","+63 464841485"," "," "," "," "," ","PUNZALAN","RUTH","S.","Municipal Health Officer","","",""
"DOH000000000007374","7374","MAGALLANES RURAL HEALTH UNIT AND LYING IN CLINIC","MAGALLANES RURAL HEALTH UNIT"," "," ","Rural Health Unit","Government","Local Government Unit"," "," "," ","REGION IV-A (CALABAR ZON)","040000000","CAVITE","042100000","MAGALLANES","042112000","KABULUSAN","042112014","4113"," "," "," ","magallanesrhu207@yahoo.com"," "," ","BACOLOD","JOSE JEMMEL","B.","Municipal Health Officer","","",""
"DOH000000000007375","7375","AMADEO RURAL HEALTH UNIT"," "," "," ","Rural Health Unit","Government","Local Government Unit"," ","MUNICIPAL BUILDING OF AMADEO, A. MABINI STREET"," ","REGION IV-A (CALABAR ZON)","040000000","CAVITE","042100000","AMADEO","042102000","BARANGAY VI (POB.)","042102019","4119","+63 464833022"," "," "," "," "," ","VILLANUEVA","MELINDA"," ","Rural Health Physician","","",""
"DOH000000000007377","7377","INDANG RURAL HEALTH UNIT"," "," "," ","Rural Health Unit","Government","Local Government Unit"," ","J. DIMABILING STREET"," ","REGION IV-A (CALABAR ZON)","040000000","CAVITE","042100000","INDANG","042110000","BARANGAY  4 (POB.)","042110026","4122","+63 464150286"," ","+63 464150286","indangrhu@yahoo.com"," "," ","ALEGRE","ROSA"," ","Municipal Health Officer","","",""
"DOH000000000007380","7380","MAJAYJAY RURAL HEALTH UNIT","MAJAYJAY PUERICULTURE CENTER"," "," ","Rural Health Unit","Government","Local Government Unit"," ","PLAZA RIZAL STREET"," ","REGION IV-A (CALABAR ZON)","040000000","LAGUNA","043400000","MAJAYJAY","043416000","SANTA CATALINA (POB.)","043416037","4005","+63 495633586"," ","+63 495633586","rhumajayjay@gmail.com","florebel_conejares@yahoo.co,"," ","VILLAREAL","IVAN","G.","Municipal Health Officer","","",""
"DOH000000000007381","7381","LUISIANA RURAL HEALTH UNIT","","","","Rural Health Unit","Government","Local Government Unit","","MORILLO STREET","","REGION IV-A (CALABAR ZON)","040000000","LAGUNA","043400000","LUISIANA","043412000","BARANGAY ZONE VIII (POB.)","043412009","4032","+63 495036467","+63 495554287","+63 495036208","rhuluisiana@gmail.com","fhsislaguna_luisiana@yahoo.com","","LEOBRERA","MAR ANTHONY","IBAÑEZ","Municipal Health Officer","","",""
"DOH000000000007385","7385","PEREGRINA REBONG - DATOR MEMORIAL HEALTH CENTER","VICTORIA RURAL HEALTH UNIT","","","Rural Health Unit","Government","Local Government Unit","","M.H. DEL PILAR STREET","","REGION IV-A (CALABAR ZON)","040000000","LAGUNA","043400000","VICTORIA","043430000","NANHAYA (POB.)","043430004","4011","","","","victoriafhsisvictoria@yahoo.com","grace.Doctora@yahoo.com","","YOUNG","MARIA KATHLEEN GRACE CONCEPCION","R.","Municipal Health Officer","","",""
"DOH000000000007386","7386","CALAUAN RURAL HEALTH UNIT"," "," "," ","Rural Health Unit","Government","Local Government Unit"," "," "," ","REGION IV-A (CALABAR ZON)","040000000","LAGUNA","043400000","CALAUAN","043406000","KANLURAN (POB.)","043406013","4012","+63 495680016"," "," "," "," "," ","REFREA","JELIDORA"," "," ","","",""
"DOH000000000007394","7394","LUMBAN RURAL HEALTH UNIT"," "," "," ","Rural Health Unit","Government","Local Government Unit"," ","GENERAL LUNA STREET"," ","REGION IV-A (CALABAR ZON)","040000000","LAGUNA","043400000","LUMBAN","043413000","SANTO NIÑO (POB.)","043413015","4014","+63 495009331"," "," ","lumban_rhu@yahoo.com"," "," ","MAGTOTO","ULYSSES","B.","Municipal Health Officer","","",""
"DOH000000000007397","7397","FAMY RURAL HEALTH UNIT (JACINTO F. ABARY HEALTH CTR.)"," "," "," ","Rural Health Unit","Government","Local Government Unit"," "," "," ","REGION IV-A (CALABAR ZON)","040000000","LAGUNA","043400000","FAMY","043408000","TUNHAC","043408020","4021","+63 495012545"," "," ","fhsislaguna_famy@yahoo.com"," "," ","EM","RUBEN","R.","Municipal Health Officer","","",""
"DOH000000000007398","7398","MAGDALENA RURAL HEALTH UNIT","","","","Rural Health Unit","Government","Local Government Unit","","BONIFACIO STREET","","REGION IV-A (CALABAR ZON)","040000000","LAGUNA","043400000","MAGDALENA","043415000","POBLACION","043415019","4007","+63 495766107","","","magdalenarhu@yahoo.com","","","PITA","MARIA CLEOFE","ARCENA","Municipal Health Officer","","",""
"DOH000000000007400","7400","SINILOAN RURAL HEALTH UNIT"," "," "," ","Rural Health Unit","Government","Local Government Unit"," "," "," ","REGION IV-A (CALABAR ZON)","040000000","LAGUNA","043400000","SINILOAN","043429000","BAGUMBARANGAY (POB.)","043429003","4019","+63 498130204"," ","+63 498130204","siniloanrhu@gmail.com"," "," ","FARIÑAS","GIRANY","A.","Municipal Health Officer","","",""
"DOH000000000007401","7401","LOS BAÑOS RURAL HEALTH UNIT I"," "," "," ","Rural Health Unit","Government","Local Government Unit"," ","HIGHWAY ANOS"," ","REGION IV-A (CALABAR ZON)","040000000","LAGUNA","043400000","LOS BA?OS","043411000","ANOS","043411001","4030","+63 495363857"," ","+63 495363857","lbhealth@yahoo.com"," "," ","ISIDRO","ALVIN","A.","Municipal Health Officer","","",""
"DOH000000000007402","7402","CAVINTI RURAL HEALTH UNIT"," "," "," ","Rural Health Unit","Government","Local Government Unit"," ","JUNCTION STREET"," ","REGION IV-A (CALABAR ZON)","040000000","LAGUNA","043400000","CAVINTI","043407000","DUHAT","043407006","4013","+63 495230148"," "," ","cavintirhu@yahoo.com"," "," ","CASTILLO","EDILBERTO","R.","Municipal Health Officer","","",""
"DOH000000000007404","7404","BULIHAN RURAL HEALTH UNIT","","","","Rural Health Unit","Government","Local Government Unit","","ZONE 6 BULILAN SILANG, AFP HOUSING","","REGION IV-A (CALABAR ZON)","040000000","CAVITE","042100000","SILANG","042118000","BULIHAN","042118011","4118","","","","","","","PAU","VIOLETA","D.","Municipal Health Officer","","",""
"DOH000000000007405","7405","SILANG RURAL HEALTH UNIT"," "," "," ","Rural Health Unit","Government","Local Government Unit"," ","OLD CAPARAS BUILDING"," ","REGION IV-A (CALABAR ZON)","040000000","CAVITE","042100000","SILANG","042118000","BARANGAY  III (POB.)","042118034","4118","+63 464142925"," ","+63 464142925","amanciro@gmail.com"," "," ","PANG","LUZ","JAURIQUE","Municipal Health Officer","","",""
"DOH000000000007410","7410","MATAAS NA KAHOY RURAL HEALTH UNIT"," "," "," ","Rural Health Unit","Government","Local Government Unit"," "," "," ","REGION IV-A (CALABAR ZON)","040000000","BATANGAS","041000000","MATAASNAKAHOY","041018000","BARANGAY II-A (POB.)","041018018","4223","+63 437841016","+63 434610389","+63 437841016"," "," "," ","CARAAN","KARLA"," ","Municipal Health Officer","","",""
"DOH000000000007411","7411","LOS BAÑOS RURAL HEALTH UNIT II"," "," "," ","Rural Health Unit","Government","Local Government Unit"," ","OPAL STREET"," ","REGION IV-A (CALABAR ZON)","040000000","LAGUNA","043400000","LOS BA?OS","043411000","BATONG MALAKE","043411004","4030","+63 495366403"," "," "," "," "," ","SIOTA","AILEEN","G.","Municipal Health Officer","","",""
"DOH000000000007413","7413","LILIW RURAL HEALTH UNIT"," "," "," ","Rural Health Unit","Government","Local Government Unit"," "," "," ","REGION IV-A (CALABAR ZON)","040000000","LAGUNA","043400000","LILIW","043410000","PAG-ASA (POB.)","043410032","4004","+63 495633055"," ","+63 495631003","liliwrhu@gmail.com"," "," ","CORDIN","MARILOU","P.","Municipal Health Officer","","",""
"DOH000000000007419","7419","KALAYAAN RURAL HEALTH UNIT","KALAYAAN MUNICIPAL HEALTH OFFICE"," "," ","Rural Health Unit","Government","Local Government Unit"," ","REAL STREET"," ","REGION IV-A (CALABAR ZON)","040000000","LAGUNA","043400000","KALAYAAN","043409000","SAN JUAN (POB.)","043409003","4015","+63 495017753"," "," ","edelane_acueza@yahoo.com"," "," ","YAMBOT JR.","RICARDO","R.","Municipal Health Officer","","",""
"DOH000000000007424","7424","PAETE RURAL HEALTH UNIT","","","","Rural Health Unit","Government","Local Government Unit","","2-058 F. SARIO STREET","","REGION IV-A (CALABAR ZON)","040000000","LAGUNA","043400000","PAETE","043418000","MAYTOONG (POB.)","043418008","4016","+63 495572838","","","rhupaete_official@yahoo.com","","","ICO","JENNIEFER KRISTINE","MALATE","Other","Not Applicable","",""
"DOH000000000007447","7447","SAN PEDRO RURAL HEALTH UNIT I"," "," "," ","Rural Health Unit","Government","Local Government Unit"," ","LUNA STREET"," ","REGION IV-A (CALABAR ZON)","040000000","LAGUNA","043400000","CITY OF SAN PEDRO","043425000","POBLACION","043425011","4023","+63 028565086"," "," ","splhealth@yahoo.com.ph"," "," ","OLIVAREZ","ROBERT","R.","Municipal Health Officer","","",""
"DOH000000000007451","7451","MABITAC RURAL HEALTH UNIT"," "," "," ","Rural Health Unit","Government","Local Government Unit"," "," "," ","REGION IV-A (CALABAR ZON)","040000000","LAGUNA","043400000","MABITAC","043414000","PAG-ASA (POB.)","043414012","4020"," "," "," "," "," "," ","DEL MUNDO","AIZEL","C.","Municipal Health Officer","","",""
"DOH000000000007452","7452","ALAMINOS RURAL HEALTH UNIT","","","","Rural Health Unit","Government","Local Government Unit","","D. FANDIÑO STREET, MUNICIPAL BLDG. CPD.","","REGION IV-A (CALABAR ZON)","040000000","LAGUNA","043400000","ALAMINOS","043401000","BARANGAY III (POB.)","043401005","4001","+63 495671196","","+63 49 5671196","","","","BASILAN","VICTORIA","F.","Municipal Health Officer","","",""
"DOH000000000007454","7454","MORONG RURAL HEALTH UNIT"," "," "," ","Rural Health Unit","Government","Local Government Unit"," ","TOMAS CLAUDIO STREET"," ","REGION IV-A (CALABAR ZON)","040000000","RIZAL","045800000","MORONG","045809000","SAN PEDRO (POB.)","045809008","1960","+63 024512773"," "," "," "," "," ","PEDROSA","NORBERTA"," ","Municipal Health Officer","","",""
"DOH000000000007651","7651","PILA RURAL HEALTH UNIT","","","","Rural Health Unit","Government","Local Government Unit","","RIZAL STREET","","REGION IV-A (CALABAR ZON)","040000000","LAGUNA","043400000","PILA","043422000","SANTA CLARA SUR (POB.)","043422017","4010","+63 495590482","","","","","","BAMBO","ANGELO VIEL","ENRIQUEZ","Municipal Health Officer","","",""
"DOH000000000007661","7661","TAYABAS RURAL HEALTH UNIT"," "," "," ","Rural Health Unit","Government","Local Government Unit"," "," "," ","REGION IV-A (CALABAR ZON)","040000000","QUEZON","045600000","CITY OF TAYABAS","045647000"," "," ","4327"," "," "," "," "," "," "," "," "," "," ","","",""
"DOH000000000007666","7666","TAGKAWAYAN RURAL HEALTH UNIT"," "," "," ","Rural Health Unit","Government","Local Government Unit"," ","MAXI DRIVE MUNICIPAL HALL COMPOUND"," ","REGION IV-A (CALABAR ZON)","040000000","QUEZON","045600000","TAGKAWAYAN","045646000","POBLACION","045646029","4321","+63 423040093"," ","+63 423048034","rvteopy@yahoo.com"," "," ","ROCAFORT","POTENCIANO","GARING","Municipal Health Officer","","",""
"DOH000000000007695","7695","AGDANGAN RURAL HEALTH UNIT","","","","Rural Health Unit","Government","Local Government Unit","","","","REGION IV-A (CALABAR ZON)","040000000","QUEZON","045600000","AGDANGAN","045601000","POBLACION  II","045601013","4304","+63 425497210","","+63 425497210","rhuagdangan@yahoo.com.ph","agdangan_mayorsoffice@yahoo.com","","ILAGAN","FELIXBERTO","","Municipal Health Officer","","",""
"DOH000000000016170","16170","STRIKE SA SERBISYO HEALTH UNIT III (SALINAS)","SALINAS I BARANGAY HEALTH STATION","","","Rural Health Unit","Government","Local Government Unit","","SALINAS STREET","","REGION IV-A (CALABAR ZON)","040000000","CAVITE","042100000","BACOOR CITY","042103000","SALINAS I","042103020","4102","","","","jeremiemendez@gmail.com","","","MARQUEZ","MICHAEL ANGELO","JACINTO","Medical Officer","Not Applicable","",""
"DOH000000000016759","16759","DALAHICAN HEALTH CENTER"," "," "," ","Rural Health Unit","Government","Local Government Unit"," ","REYES STREET"," ","REGION IV-A (CALABAR ZON)","040000000","CAVITE","042100000","CAVITE CITY","042105000","BARANGAY 3 (HEN. E. AGUINALDO)","042105023","4100"," "," "," "," "," "," ","REYES","MERCEDITA","P.","Municipal Health Officer","","",""
"DOH000000000016766","16766","SAN ANTONIO HEALTH CENTER"," "," "," ","Rural Health Unit","Government","Local Government Unit"," ","RODRIGUEZ STREET"," ","REGION IV-A (CALABAR ZON)","040000000","CAVITE","042100000","CAVITE CITY","042105000","BARANGAY 45-A (KAUNLARAN A)","042105073","4100","+63 464311618"," "," "," "," "," ","MENDOZA","ARNOLD","C.","Rural Health Physician","","",""
"DOH000000000016776","16776","LUCENA CITY RURAL HEALTH UNIT I"," "," "," ","Rural Health Unit","Government","Local Government Unit"," "," "," ","REGION IV-A (CALABAR ZON)","040000000","QUEZON","045600000","LUCENA CITY (Capital)","045624000"," "," ","4301"," "," "," "," "," "," "," "," "," "," ","","",""
"DOH000000000016778","16778","LUCENA CITY RURAL HEALTH UNIT II"," "," "," ","Rural Health Unit","Government","Local Government Unit"," "," "," ","REGION IV-A (CALABAR ZON)","040000000","QUEZON","045600000","LUCENA CITY (Capital)","045624000"," "," ","4301"," "," "," "," "," "," "," "," "," "," ","","",""
"DOH000000000016780","16780","LUCENA CITY RURAL HEALTH UNIT III"," "," "," ","Rural Health Unit","Government","Local Government Unit"," "," "," ","REGION IV-A (CALABAR ZON)","040000000","QUEZON","045600000","LUCENA CITY (Capital)","045624000"," "," ","4301"," "," "," "," "," "," "," "," "," "," ","","",""
"DOH000000000017211","17211","PEREZ RURAL HEALTH UNIT"," "," "," ","Rural Health Unit","Government","Local Government Unit"," ","LEON GUINTO STREET"," ","REGION IV-A (CALABAR ZON)","040000000","QUEZON","045600000","PEREZ","045633000","MAPAGMAHAL POB. (BARANGAY 2)","045633008","4334","+63 427190093"," "," ","dra_cynthia_oliveros@yahoo.com"," "," ","OLIVEROS","CYNTHIA","CAMARA","Municipal Health Officer","","",""
"DOH000000000017593","17593","QUEZON RURAL HEALTH UNIT"," "," "," ","Rural Health Unit","Government","Local Government Unit"," ","U. CAMACHO STREET"," ","REGION IV-A (CALABAR ZON)","040000000","QUEZON","045600000","QUEZON","045637000","BARANGAY  III (POB.)","045637014","4332"," "," "," ","rhuquezon2@yahoo.com.ph"," "," ","MIER","JANA DEBORAH","BANISA","Municipal Health Officer","","",""
"DOH000000000019201","19201","DOLORES RURAL HEALTH UNIT","","","","Rural Health Unit","Government","Local Government Unit","","","","REGION IV-A (CALABAR ZON)","040000000","QUEZON","045600000","DOLORES","045615000","BULAKIN II","045615016","4326","+63 425656785","","","","","","DIMAANO","RUBY ANNA","LAROZA","Municipal Health Officer","","",""
"DOH000000000019641","19641","SANTO NIÑO HEALTH CENTER","","","","Rural Health Unit","Government","Local Government Unit","","MAYFAIR STREET, MONTEVISTA PARK SUBDIVISION","","REGION IV-A (CALABAR ZON)","040000000","RIZAL","045800000","CAINTA","045805000","SANTO NIÑO","045805019","1900","","","","","","","CORRALES","CRISTIE","FERNANDEZ","","","",""
"DOH000000000019660","19660","CAINTA MUNICIPAL HEALTH OFFICE","","","","Rural Health Unit","Government","Local Government Unit","","","","REGION IV-A (CALABAR ZON)","040000000","RIZAL","045800000","CAINTA","045805000","SANTO DOMINGO","045805020","1900","","","","h.officecainta@yahoo.com","","","GONZAGA","EDGARDO","MOLINA","Municipal Health Officer","Not Applicable","",""
"DOH000000000019661","19661","PFCI HEALTH CENTER"," "," "," ","Rural Health Unit","Government","Local Government Unit"," ","SAMPAGUITA STREET PFCI FLOODWAY"," ","REGION IV-A (CALABAR ZON)","040000000","RIZAL","045800000","CAINTA","045805000","SAN ANDRES (POB.)","045805014","1900"," "," "," "," "," "," ","DEMATA","ANNIE","P.","Rural Health Physician","","",""
"DOH000000000020085","20085","ANGONO RURAL HEALTH UNIT II"," "," "," ","Rural Health Unit","Government","Local Government Unit"," ","DON MARIANO STREET"," ","REGION IV-A (CALABAR ZON)","040000000","RIZAL","045800000","ANGONO","045801000","MAHABANG PARANG","045801014","1930"," "," "," "," "," "," ","MANLICLIC","GARRY"," ","Rural Health Physician","","",""
"DOH000000000020375","20375","BINANGONAN RURAL HEALTH UNIT IV"," "," "," ","Rural Health Unit","Government","Local Government Unit"," ","TALIM ISLAND"," ","REGION IV-A (CALABAR ZON)","040000000","RIZAL","045800000","BINANGONAN","045804000","GULOD","045804010","1940"," "," "," "," "," "," ","CEÑIDOZA","ADELAIDA","GONDRANEOUS","Public Health Nurse","","",""
"DOH000000000023673","23673","SAN ISIDRO RURAL HEALTH UNIT II","","","","Rural Health Unit","Government","Local Government Unit","","","","REGION IV-A (CALABAR ZON)","040000000","BATANGAS","041000000","BATANGAS CITY (Capital)","041005000","SAN ISIDRO","041005090","4200","+63 437239146","","","","","","TENORIO","TRISHA","","Municipal Health Officer","","",""
"DOH000000000023674","23674","ALANGILAN RURAL HEALTH UNIT III","","","","Rural Health Unit","Government","Local Government Unit","","BEREDO COMPOUND","","REGION IV-A (CALABAR ZON)","040000000","BATANGAS","041000000","BATANGAS CITY (Capital)","041005000","ALANGILAN","041005001","4200","+63 439848784","","","","","","ALEGRE","ANGELA GRACE","F.","Municipal Health Officer","","",""
"DOH000000000023675","23675","TABANGAO AMBULONG RURAL HEALTH UNIT IV"," "," "," ","Rural Health Unit","Government","Local Government Unit"," "," "," ","REGION IV-A (CALABAR ZON)","040000000","BATANGAS","041000000","BATANGAS CITY (Capital)","041005000","TABANGAO AMBULONG","041005107","4200","+63 434024751"," "," "," "," "," ","CALINJASA","IAN"," ","Municipal Health Officer","","",""
"DOH000000000023676","23676","PALLOCAN KANLURAN RURAL HEALTH UNIT VI","","","","Rural Health Unit","Government","Local Government Unit","","","","REGION IV-A (CALABAR ZON)","040000000","BATANGAS","041000000","BATANGAS CITY (Capital)","041005000","PALLOCAN KANLURAN","041005051","4200","","","","","","","MENDOZA","RONA","","Municipal Health Officer","","",""
"DOH000000000025712","25712","STRIKE SA SERBISYO CITY HEALTH UNIT VI (QUEENS ROW)","QUEENS ROW MAIN HEALTH CENTER","","","Rural Health Unit","Government","Local Government Unit","","BLOCK 1 LOT 2 SANTAN STREET","","REGION IV-A (CALABAR ZON)","040000000","CAVITE","042100000","BACOOR CITY","042103000","QUEENS ROW WEST","042103028","4102","+63 46436-1626","","","","","","LOPEZ","MANUEL","PALAD","Medical Officer","Not Applicable","",""
"DOH000000000025698","25698","STRIKE SA SERBISYO LYING-IN AND HEALTH CENTER (GREEN VALLEY)","GREEN VALLEY HEALTH CENTER","","","Rural Health Unit","Government","Local Government Unit","","M. ALVAREZ EXTENSION","","REGION IV-A (CALABAR ZON)","040000000","CAVITE","042100000","BACOOR CITY","042103000","MOLINO II","042103045","4102","+63 464172253","","","abby_buging05@yahoo.com","","","DE OCAMPO","ORLANDO","ROXAS","Medical Officer","Not Applicable","",""
"DOH000000000025700","25700","STRIKE SA SERBISYO CITY HEALTH UNIT V (MOLINO III)","MOLINO III MAIN HEALTH CENTER","","","Rural Health Unit","Government","Local Government Unit","","MALINIS COMPOUND","","REGION IV-A (CALABAR ZON)","040000000","CAVITE","042100000","BACOOR CITY","042103000","MOLINO III","042103046","4102","","","","rubilyn.s@yahoo.com","","","SANTIAGO","RUBILYN","SALDAÑA","Medical Officer","Not Applicable","",""
"DOH000000000025695","25695","STRIKE SA SERBISYO LYING-IN AND CITY HEALTH UNIT IV","BAYANAN MAIN HEALTH CENTER","","","Rural Health Unit","Government","Local Government Unit","","MOLINO I","SAGIP BUHAY RECOVERY AND CITY HEALTH CENTER BUILDING","REGION IV-A (CALABAR ZON)","040000000","CAVITE","042100000","BACOOR CITY","042103000","BAYANAN","042103004","4102","+63 46437-1560","","","bayananchu@yahoo.com","","","ASERON","GRACE","ALIS","Rural Health Physician","Not Applicable","",""
"DOH000000000025762","25762","CAVITE SOCIAL HYGIENE CLINIC"," "," "," ","Rural Health Unit","Government","Local Government Unit"," ","F. DELA CRUZ STREET"," ","REGION IV-A (CALABAR ZON)","040000000","CAVITE","042100000","CAVITE CITY","042105000","BARANGAY 39 (JASMIN)","042105033","4100"," "," "," "," "," "," ","TERRADO","LOIDA","S.","City Health Officer","","",""
"DOH000000000025788","25788","SANTA CRUZ HEALTH CENTER"," "," "," ","Rural Health Unit","Government","Local Government Unit"," ","ALEJANDRO STREET"," ","REGION IV-A (CALABAR ZON)","040000000","CAVITE","042100000","CAVITE CITY","042105000","BARANGAY 12 (LOVE BIRD)","042105005","4100"," "," "," "," "," "," ","PORTUGUEZ","ROLANDO","S.","Rural Health Physician","","",""
"DOH000000000029420","29420","MABINI HEALTH CENTER","","","","Rural Health Unit","Government","Local Government Unit","","","","REGION IV-A (CALABAR ZON)","040000000","BATANGAS","041000000","MABINI","041016000","POBLACION","041016018","4202","","","","mabini_rhu001@yahoo.com","","","Beloso","Melanio Ramir","Panopio","Municipal Health Officer","","",""
"DOH000000000029554","29554","BARANGAY II-D RURAL HEALTH UNIT","BARANGAY II-D HEALTH CENTER","","","Rural Health Unit","Government","Local Government Unit","","PNR COMPOUND","","REGION IV-A (CALABAR ZON)","040000000","LAGUNA","043400000","SAN PABLO CITY","043424000","BARANGAY II-D (POB.)","043424008","4000","","","","","","","DIOSO","MARILYN","M.","Public Health Nurse","","",""
"DOH000000000029559","29559","ANTIPOLO RURAL HEALTH UNIT V"," "," "," ","Rural Health Unit","Government","Local Government Unit"," ","BUHANGINAN ANNEX"," ","REGION IV-A (CALABAR ZON)","040000000","RIZAL","045800000","CITY OF ANTIPOLO (Capital)","045802000","SAN JOSE (POB.)","045802008","1870"," "," "," "," "," "," ","VARGAS","ELIZABETH","G.","Public Health Nurse","","",""
"DOH000000000029560","29560","CCH RURAL HEALTH UNIT BIRTHING HOME 2","RODRIGUEZ RURAL HEALTH UNIT II","","","Rural Health Unit","Government","Local Government Unit","","MUNTING ILAW, KASIGLAHAN","","REGION IV-A (CALABAR ZON)","040000000","RIZAL","045800000","RODRIGUEZ (MONTALBAN)","045808000","SAN JOSE","045808010","1860","","","","","","","MENDADOR","MARIA CRISTINA","SELATINO","Public Health Nurse","","",""
"DOH000000000029561","29561","CCH RURAL HEALTH UNIT BIRTHING HOME 3","RODRIGUEZ RURAL HEALTH UNIT III","","","Rural Health Unit","Government","Local Government Unit","","SITIO TANAG","","REGION IV-A (CALABAR ZON)","040000000","RIZAL","045800000","RODRIGUEZ (MONTALBAN)","045808000","SAN ISIDRO","045808009","1860","","","","","","","OROCAY","EMILY ANN","APILLADO","Public Health Nurse","","",""
"DOH000000000029562","29562","CCH RURAL HEALTH UNIT BIRTHING HOME 4","RODRIGUEZ RURAL HEALTH UNIT IV","","","Rural Health Unit","Government","Local Government Unit","","SITIO WAWA","","REGION IV-A (CALABAR ZON)","040000000","RIZAL","045800000","RODRIGUEZ (MONTALBAN)","045808000","SAN RAFAEL","045808011","1860","","","","","","","PADILLA","LUZ","PACURSA","Public Health Nurse","","",""
"DOH000000000029597","29597","SANTA MARIA RURAL HEALTH UNIT","","","","Rural Health Unit","Government","Local Government Unit","","","","REGION IV-A (CALABAR ZON)","040000000","LAGUNA","043400000","SAN PABLO CITY","043424000","SANTA MARIA","043424082","4000","+63 495032165","","","","","","GOMEZ","ELVIRA","M.","Rural Health Midwife","","",""
"DOH000000000029599","29599","CONCEPCION A RURAL HEALTH UNIT","","","","Rural Health Unit","Government","Local Government Unit","","DOÑA EUSEBIA STREET","","REGION IV-A (CALABAR ZON)","040000000","LAGUNA","043400000","SAN PABLO CITY","043424000","CONCEPCION","043424035","4000","+63 495628179","","","","","","GUTIERREZ","EMELITA","B.","Public Health Nurse","","",""
"DOH000000000029600","29600","DEL REMEDIO RURAL HEALTH UNIT","DEL REMEDIO HEALTH CENTER","","","Rural Health Unit","Government","Local Government Unit","","1041 LEFT PNR COMPOUND","","REGION IV-A (CALABAR ZON)","040000000","LAGUNA","043400000","SAN PABLO CITY","043424000","DEL REMEDIO","043424036","4000","","","","","","","AMANTE","EDEN","GABANAN","Rural Health Midwife","","",""
"DOH000000000029602","29602","SAN MATEO RURAL HEALTH UNIT IV","","","","Rural Health Unit","Government","Local Government Unit","","SAMPAGUITA STREET MODESTA","","REGION IV-A (CALABAR ZON)","040000000","RIZAL","045800000","SAN MATEO","045811000","AMPID I","045811001","1850","+63 025334134","","","","","","VALERE","GIOZIE","","Public Health Nurse","","",""
"DOH000000000029603","29603","SAN JUAN RURAL HEALTH UNIT 2-A"," "," "," ","Rural Health Unit","Government","Local Government Unit"," ","KADALAGAHAN STREET"," ","REGION IV-A (CALABAR ZON)","040000000","RIZAL","045800000","TAYTAY","045813000","SAN JUAN","045813004","1920"," "," "," "," "," "," ","BENSORTO","ARMANDO","TUMLOS","Public Health Nurse","","",""
"DOH000000000029604","29604","SAN LORENZO RUIZ RURAL HEALTH UNIT II-B"," "," "," ","Rural Health Unit","Government","Local Government Unit"," ","BLK 40 MAIN ROAD SAN LAZARO RUIZ"," ","REGION IV-A (CALABAR ZON)","040000000","RIZAL","045800000","TAYTAY","045813000","SAN JUAN","045813004","1920"," "," "," "," "," "," ","BORREO","ROSARIO","MORALES","Public Health Nurse","","",""
"DOH000000000029605","29605","MUZON RURAL HEALTH UNIT III"," "," "," ","Rural Health Unit","Government","Local Government Unit"," ","NATIONAL ROAD"," ","REGION IV-A (CALABAR ZON)","040000000","RIZAL","045800000","TAYTAY","045813000","MUZON","045813002","1920"," "," "," "," "," "," ","TAPAWAN","MILA","TOMENIO","Public Health Nurse","","",""
"DOH000000000029606","29606","SAN ISIDRO RURAL HEALTH UNIT IV"," "," "," ","Rural Health Unit","Government","Local Government Unit"," ","SAMPAGUITA STREET GREGORIA HEIGHTS SUBDIVISION"," ","REGION IV-A (CALABAR ZON)","040000000","RIZAL","045800000","TAYTAY","045813000","SAN ISIDRO","045813003","1920","+63 026691096"," ","+63 026588573","cecilia_vallesteros@yahoocom"," "," ","VALLESTEROS","MARIA CECILIA","RESURRECCION","Public Health Nurse","","",""
"DOH000000000029607","29607","SANTA ANA HEALTH CENTER MAIN RURAL HEALTH UNIT V-A"," "," "," ","Rural Health Unit","Government","Local Government Unit"," ","B.A. CRUZ"," ","REGION IV-A (CALABAR ZON)","040000000","RIZAL","045800000","TAYTAY","045813000","SANTA ANA","045813005","1920"," "," "," "," "," "," ","TINA","NOEMI","PASCUA","Public Health Nurse","","",""
"DOH000000000029608","29608","SITIO TAPAYAN HEALTH CENTER RURAL HEALTH UNIT V-B","LUPANG ARENDA HEALTH CENTER"," "," ","Rural Health Unit","Government","Local Government Unit"," ","YNARES AVENUE, LUPANG ARENDA"," ","REGION IV-A (CALABAR ZON)","040000000","RIZAL","045800000","TAYTAY","045813000","SANTA ANA","045813005","1920"," "," "," "," "," "," ","STA. ANA","MARIA CRISTINA","CRUZ","Public Health Nurse","","",""
"DOH000000000029609","29609","TAYTAY RURAL HEALTH UNIT I"," "," "," ","Rural Health Unit","Government","Local Government Unit"," ","J. ASILO STREET"," ","REGION IV-A (CALABAR ZON)","040000000","RIZAL","045800000","TAYTAY","045813000","DOLORES (POB.)","045813001","1920","+63 026589874"," "," ","annaconcepcionnaval@yahoo.com"," "," ","NAVAL","ANNA CONCEPCION","NAVAL","Public Health Nurse","","",""
"DOH000000000031352","31352","ANTIPOLO RURAL HEALTH UNIT III","","","","Rural Health Unit","Government","Local Government Unit","","ARTELLAR AVENUE","","REGION IV-A (CALABAR ZON)","040000000","RIZAL","045800000","CITY OF ANTIPOLO (Capital)","045802000","DELA PAZ (POB.)","045802003","1870","+63 026320937","+63 026970362","","antipolo_cho2015@yahoo.com","health@antipolo.ph","","MACAPAGAL","RAYMUND","SORIANO","Rural Health Physician","","",""
"DOH000000000031353","31353","ANTIPOLO RURAL HEALTH UNIT IV"," "," "," ","Rural Health Unit","Government","Local Government Unit"," ","SANTOS STREET"," ","REGION IV-A (CALABAR ZON)","040000000","RIZAL","045800000","CITY OF ANTIPOLO (Capital)","045802000"," "," ","1870"," "," "," "," "," "," ","BALTAZAR","EDEN"," ","Public Health Nurse","","",""
"DOH000000000031361","31361","TANAY RURAL HEALTH UNIT III"," "," "," ","Rural Health Unit","Government","Local Government Unit"," "," "," ","REGION IV-A (CALABAR ZON)","040000000","RIZAL","045800000","TANAY","045812000","SANTO NIÑO","045812016","1980"," "," "," "," "," "," ","GABOT","FAUSTINO"," ","Public Health Nurse","","",""
"DOH000000000031366","31366","ROYAL RURAL HEALTH UNIT II-B"," "," "," ","Rural Health Unit","Government","Local Government Unit"," ","CORNER CAMIA STREET ROYAL SUBDIVISION ZAPANTA COMPOUND"," ","REGION IV-A (CALABAR ZON)","040000000","RIZAL","045800000","TAYTAY","045813000","SAN JUAN","045813004","1920"," "," "," "," "," "," ","CINCO","ARACELI","E.","Rural Health Midwife","","",""
"DOH000000000032021","32021","BAGONG POOK RURAL HEALTH UNIT","BAGONG POOK VI-C HEALTH CENTER","","","Rural Health Unit","Government","","","HOLY ROSARY STREET","","REGION IV-A (CALABAR ZON)","040000000","LAGUNA","043400000","SAN PABLO CITY","043424000","BAGONG POOK VI-C (POB.)","043424002","4000","+63 495625505","","","lagunabpookhc@yahoo.com.ph","","","ESCALANDA","BERNADETTE","J.","Rural Health Physician","","",""
"DOH000000000032054","32054","SAN PABLO CITY HEALTH OFFICE EXTENSION UNIT","SAN JOSE HEALTH CENTER","","","Rural Health Unit","Government","Local Government Unit","","PUROK 2, BAÑAGALE SUBDIVISION","","REGION IV-A (CALABAR ZON)","040000000","LAGUNA","043400000","SAN PABLO CITY","043424000","SAN JOSE","043424053","4000","+63 495033839","","","choext.spclaguna@yahoo.com.ph","","","QUIAMBAO","EDUARDO","G.","Rural Health Physician","","",""
"DOH000000000033710","33710","SAN MATEO RURAL HEALTH UNIT V","","","","Rural Health Unit","Government","","","PUROK 2, BUNTONG PALAY","","REGION IV-A (CALABAR ZON)","040000000","RIZAL","045800000","SAN MATEO","045811000","SILANGAN","045811016","","","","+63 9255698339","jepenggay@yahoo.com","","","MEDRANO","JENIFER","D.C.","Rural Health Physician","","",""
"DOH000000000034410","34410","ROSARIO RURAL HEALTH UNIT III","","","","Rural Health Unit","Government","Local Government Unit","","PUROK 2, CENTRO 1","","REGION IV-A (CALABAR ZON)","040000000","BATANGAS","041000000","ROSARIO","041021000","CALANTAS","041021009","4225","","","","","","","LUNA","LUISITO","TAGLE","Rural Health Physician","","",""
"DOH000000000036505","36505","ONE CAINTA VILLAGE HEALTH CENTER","","","","Rural Health Unit","Government","","","050 Nursery Road","","REGION IV-A (CALABAR ZON)","040000000","RIZAL","045800000","CAINTA","045805000","SAN ROQUE","045805017","1900","","","","","","","JAVIER","JOVITO","BERNARDO","Rural Health Physician","Not Applicable","",""
