Date and Time Downloaded : 01/01/2021 11:34:35 pm"Health Facility Code","Health Facility Code Short","Facility Name","Old Health Facility Names","Old Health Facility Name 2","Old Health Facility Name 3","Health Facility Type","Ownership Major Classification","Ownership Sub-Classification for Government facilities","Ownership Sub-Classification for private facilities","Street Name and #           ","Building name and #","Region Name","Region PSGC","Province Name","Province PSGC","City/Municipality Name","City/Municipality PSGC","Barangay Name","Barangay PSGC","Zip Code","Landline Number","Landline Number 2","Fax Number","Email Address","Alternate Email Address","Official Website","Facility Head: Last Name","Facility Head: First Name","Facility Head: Middle Name","Facility Head: Position","Hospital Licensing Status","Service Capability","Bed Capacity"
"DOH000000000000011","11","DILASAG RURAL HEALTH UNIT","","","","Rural Health Unit","Government","Local Government Unit","","SANTIAGO STREET","","REGION III (CENTRAL LUZON)","030000000","AURORA","037700000","DILASAG","037703000","MASAGANA (POB.)","037703009","3205","","","","","","","MAALIW","APRIL JOY","BAUTISTA","Municipal Health Officer","","",""
"DOH000000000000030","30","SANTA RITA RURAL HEALTH CENTER","","","","Rural Health Unit","Government","Local Government Unit","","SANTA RITA ROAD","","REGION III (CENTRAL LUZON)","030000000","ZAMBALES","037100000","OLONGAPO CITY","037107000","SANTA RITA","037107018","2200","","","","ochdept@yahoo.com","olongapochd@gmail.com","","INTERINO","ALLAN","ESPINA","Rural Health Physician","","",""
"DOH000000000000031","31","GUAGUA RURAL HEALTH UNIT I"," "," "," ","Rural Health Unit","Government","Local Government Unit"," ","IMMACON STREET, PUROK 1","PATERNO P. MAGCALAS BUILDING","REGION III (CENTRAL LUZON)","030000000","PAMPANGA","035400000","GUAGUA","035407000","SANTO NIÑO (POB.)","035407033","2003","+63 454580560"," "," "," "," "," ","CALILONG","MA. ISABEL","LAGMAN","Municipal Health Officer","","",""
"DOH000000000000049","49","PURA RURAL HEALTH UNIT"," "," "," ","Rural Health Unit","Government","Local Government Unit"," "," "," ","REGION III (CENTRAL LUZON)","030000000","TARLAC","036900000","PURA","036911000","POBLACION 2","036911013","2312","+63 459300495"," ","+63 459300495"," "," "," ","DIZON","ROEDEL"," ","Municipal Health Officer","","",""
"DOH000000000000092","92","CANDABA RURAL HEALTH UNIT I"," "," "," ","Rural Health Unit","Government","Local Government Unit"," "," "," ","REGION III (CENTRAL LUZON)","030000000","PAMPANGA","035400000","CANDABA","035405000","PARALAYA (POB.)","035405023","2013"," "," "," "," "," "," ","MANIMBO","PRIMATIVA","CLEMENTE","Municipal Health Officer","","",""
"DOH000000000000099","99","SAN CLEMENTE RURAL HEALTH UNIT","","","","Rural Health Unit","Government","Local Government Unit","","ROMULO HIGHWAY","","REGION III (CENTRAL LUZON)","030000000","TARLAC","036900000","SAN CLEMENTE","036913000","","","2305","+63 459343475","","","sanclementerhu@yahoo.com.ph","elvielopez2058@yahoo.com","","LOPEZ","ELVIRA","CASCO","Municipal Health Officer","","",""
"DOH000000000000120","120","NEW BANICAIN HEALTH CENTER","","","","Rural Health Unit","Government","Local Government Unit","","LUNA STREET","","REGION III (CENTRAL LUZON)","030000000","ZAMBALES","037100000","OLONGAPO CITY","037107000","BANICAIN","037107002","2200","+63 476110382","","","tetelestai@gmx.com","ochdept@yahoo.com.ph","","D'ASIS","MA. REGINA PIA","","Rural Health Physician","","",""
"DOH000000000000128","128","MACABEBE RURAL HEALTH UNIT II"," "," "," ","Rural Health Unit","Government","Local Government Unit"," ","PUROK BANTAYAN"," ","REGION III (CENTRAL LUZON)","030000000","PAMPANGA","035400000","MACABEBE","035410000","SAN RAFAEL","035410014","2018","+63 454353826"," "," "," "," "," ","SUNGA","MA. AGATA","MIRANDA","Municipal Health Officer","","",""
"DOH000000000000151","151","SAN NICOLAS MAIN HEALTH CENTER (RURAL HEALTH UNIT III)","CITY OF SAN FERNANDO (CAPITAL) RURAL HEALTH UNIT III"," "," ","Rural Health Unit","Government","Local Government Unit"," ","BULUSAN STREET, CENTRO"," ","REGION III (CENTRAL LUZON)","030000000","PAMPANGA","035400000","CITY OF SAN FERNANDO (Capital)","035416000","SAN NICOLAS","035416030","2000","+63 454361412"," "," "," "," "," ","MANARANG","ELMA","N.","Rural Health Physician","","",""
"DOH000000000000152","152","SANTA CRUZ RURAL HEALTH UNIT II","","","","Rural Health Unit","Government","Local Government Unit","","","","REGION III (CENTRAL LUZON)","030000000","ZAMBALES","037100000","SANTA CRUZ","037113000","BAYTO","037113004","2213","","","","","","","MANTES","RAOUL JR.","MISAL","Rural Health Midwife","","",""
"DOH000000000000160","160","PAG-ASA RURAL HEALTH CENTER","","","","Rural Health Unit","Government","Local Government Unit","","59 PERIMETER STREET","","REGION III (CENTRAL LUZON)","030000000","ZAMBALES","037100000","OLONGAPO CITY","037107000","PAG-ASA","037107017","2200","","","","olongapochd@gmail.com","ochdept@yahoo.com.ph","","VALDEZ","MARIA EDITHA","SANTOS","Rural Health Physician","","",""
"DOH000000000000164","164","WEST BAJAC-BAJAC HEALTH CENTER","","","","Rural Health Unit","Government","Local Government Unit","","DAVIDSON STREET","","REGION III (CENTRAL LUZON)","030000000","ZAMBALES","037100000","OLONGAPO CITY","037107000","WEST BAJAC-BAJAC","037107019","2200","+63 472225173","","","wbbhc@yahoo.com.ph","olongapochd@gmail.com","","TAMAYO","ARNILDO","CASTRO","City Health Officer","","",""
"DOH000000000000181","181","SAN LUIS RURAL HEALTH UNIT II"," "," "," ","Rural Health Unit","Government","Local Government Unit"," "," "," ","REGION III (CENTRAL LUZON)","030000000","PAMPANGA","035400000","SAN LUIS","035417000","SANTA MONICA","035417014","2014"," "," "," "," "," "," ","ANGELES","GILBERT","DONATO","Rural Health Physician","","",""
"DOH000000000000184","184","LUBAO RURAL HEALTH UNIT I"," "," "," ","Rural Health Unit","Government","Local Government Unit"," ","CUTUD"," ","REGION III (CENTRAL LUZON)","030000000","PAMPANGA","035400000","LUBAO","035408000","SANTO TOMAS (POB.)","035408045","2005"," "," "," ","erln77@yahoo.com"," "," ","NICDAO","EUGENE RAYMUND","LAYOS","Rural Health Physician","","",""
"DOH000000000000189","189","TARLAC CITY HEALTH CENTER X"," "," "," ","Rural Health Unit","Government","Local Government Unit"," "," "," ","REGION III (CENTRAL LUZON)","030000000","TARLAC","036900000","CITY OF TARLAC (Capital)","036916000","TIBAG","036916088","2300"," "," "," "," "," "," ","MARTIN","LOIDA","DG.","Rural Health Physician","","",""
"DOH000000000000191","191","MAGALANG RURAL HEALTH UNIT I","DON COJUANGCO HEALTH CENTER"," "," ","Rural Health Unit","Government","Local Government Unit"," ","MUNICIPAL COMPOUND","DON COJUANGCO","REGION III (CENTRAL LUZON)","030000000","PAMPANGA","035400000","MAGALANG","035411000","SAN NICOLAS 1ST (POB.)","035411013","2011","+63 453434218"," "," ","suzettevitug@yahoo.com"," "," ","YALUNG","SUZETTE","VITUG","Municipal Health Officer","","",""
"DOH000000000000192","192","PLARIDEL RURAL HEALTH UNIT II"," "," "," ","Rural Health Unit","Government","Local Government Unit"," ","PUROK 2"," ","REGION III (CENTRAL LUZON)","030000000","BULACAN","031400000","PLARIDEL","031417000","DAMPOL","031417008","3004","+63 447919678"," "," "," "," "," ","VICTORIA","WILMA","C.","Municipal Health Officer","","",""
"DOH000000000000211","211","BALANGA RURAL HEALTH UNIT II","","","","Rural Health Unit","Government","Local Government Unit","","J. P RIZAL STREET","","REGION III (CENTRAL LUZON)","030000000","BATAAN","030800000","CITY OF BALANGA (Capital)","030803000","PTO. RIVAS ITAAS","030803015","2100","+63 472372215","","","","","","CHUA","CESAR","CUESTA","Rural Health Physician","","",""
"DOH000000000000213","213","SCIENCE CITY OF MUÑOZ HEALTH OFFICE I","","","","Rural Health Unit","Government","Local Government Unit","","D. DELOS SANTOS STREET","TB DOTS BUILDING 1ST FLOOR","REGION III (CENTRAL LUZON)","030000000","NUEVA ECIJA","034900000","SCIENCE CITY OF MU?OZ","034917000","POBLACION WEST","034917029","3119","+63 444565921","","+63 444565020","","","","GADONG","SHIRLEY","ANGELLANO","Public Health Nurse","","",""
"DOH000000000000811","811","ALIAGA RURAL HEALTH UNIT II"," "," "," ","Rural Health Unit","Government","Local Government Unit"," ","SANTO ROSARIO EXTENSION"," ","REGION III (CENTRAL LUZON)","030000000","NUEVA ECIJA","034900000","ALIAGA","034901000","SANTO ROSARIO","034901038","3111"," "," "," ","rhualiaga@yahoo.com","jane_lopez10@yahoo.com"," ","SOLIMAN","JEANA","FERNANDEZ","Rural Health Physician","","",""
"DOH000000000000815","815","ANGELES RURAL HEALTH UNIT IV","","","","Rural Health Unit","Government","Local Government Unit","","BALIBAGO","","REGION III (CENTRAL LUZON)","030000000","PAMPANGA","035400000","ANGELES CITY","035401000","BALIBAGO","035401003","2009","","","","","","","PATIO","CHRISTINE JOY","SAVELLIANO","Rural Health Physician","","",""
"DOH000000000000882","882","PORAC RURAL HEALTH UNIT II"," "," "," ","Rural Health Unit","Government","Local Government Unit"," ","AGUAS SUBDIVISION, PUROK 4"," ","REGION III (CENTRAL LUZON)","030000000","PAMPANGA","035400000","PORAC","035415000","MANIBAUG LIBUTAD","035415017","2008"," "," "," ","sxyman_14@yahoo.com"," "," ","LACANLALE","EDGAR CORNELLO","DIZON","Rural Health Physician","","",""
"DOH000000000000890","890","SAN ANTONIO RURAL HEALTH UNIT II"," "," "," ","Rural Health Unit","Government","Local Government Unit"," ","PUROK 7"," ","REGION III (CENTRAL LUZON)","030000000","NUEVA ECIJA","034900000","SAN ANTONIO","034924000","SANTO CRISTO","034924015","3108"," "," "," "," "," "," ","COSTALES","BIBIANA","NAVAL","Rural Health Midwife","","",""
"DOH000000000000896","896","SAN MIGUEL RURAL HEALTH UNIT IV (BULIRAN)","","","","Rural Health Unit","Government","Local Government Unit","","ZONE 1","","REGION III (CENTRAL LUZON)","030000000","BULACAN","031400000","SAN MIGUEL","031421000","BULIRAN","031421014","3011","","","","","","","RAMOS","RAMIL","PIZARRO","Rural Health Physician","","",""
"DOH000000000000907","907","TALAVERA RURAL HEALTH UNIT II","","","","Rural Health Unit","Government","Local Government Unit","","PUROK 5","","REGION III (CENTRAL LUZON)","030000000","NUEVA ECIJA","034900000","TALAVERA","034930000","SAN RICARDO","034930052","3114","","","","","","","LUCAS","YOLANDA","CORONEL","Rural Health Physician","","",""
"DOH000000000001379","1379","CANDELARIA RURAL HEALTH UNIT"," "," "," ","Rural Health Unit","Government","Local Government Unit"," ","CABALLERO STREET"," ","REGION III (CENTRAL LUZON)","030000000","ZAMBALES","037100000","CANDELARIA","037103000","POBLACION","037103015","2212"," "," "," "," "," "," ","MANIAGO","LYNN","M.","Municipal Health Officer","","",""
"DOH000000000001390","1390","ABUCAY RURAL HEALTH UNIT","","","","Rural Health Unit","Government","Local Government Unit","","DECENA AVENUE","","REGION III (CENTRAL LUZON)","030000000","BATAAN","030800000","ABUCAY","030801000","SALIAN","030801010","2114","+63 472371277","","","abucayrhu@gmail.com","","","CANOY","ARLENE","GUANZON","Municipal Health Officer","","",""
"DOH000000000001394","1394","SANTA MARIA RURAL HEALTH UNIT I"," "," "," ","Rural Health Unit","Government","Local Government Unit"," ","JOSE CORAZON DE JESUS"," ","REGION III (CENTRAL LUZON)","030000000","BULACAN","031400000","SANTA MARIA","031423000","POBLACION","031423016","3022","+63 446413372"," "," "," "," "," ","BAUTISTA","ESTELITA","GIRON","Rural Health Midwife","","",""
"DOH000000000001402","1402","SAN JOSE CITY RURAL HEALTH UNIT III"," "," "," ","Rural Health Unit","Government","Local Government Unit"," ","ZONE 9, STREET CECILIA"," ","REGION III (CENTRAL LUZON)","030000000","NUEVA ECIJA","034900000","SAN JOSE CITY","034926000","ABAR IST","034926002","3121","+63 445112857"," ","+63 445112857","dr_rizzamiranda@yahoo.com"," "," ","ESGUERRA","RIZZA GREGORIA","MIRANDA","Rural Health Physician","","",""
"DOH000000000001409","1409","GAPAN CITY HEALTH OFFICE","","","","Rural Health Unit","Government","Local Government Unit","","MAHARLIKA HI WAY","GAPAN CITY HALL","REGION III (CENTRAL LUZON)","030000000","NUEVA ECIJA","034900000","CITY OF GAPAN","034908000","BAYANIHAN","034908001","3105","+63 444860513","","+63 444865502","chogapan@yahoo.com","","","BAUTISTA","MA. ARACERI CARINA","","City Health Officer","","",""
"DOH000000000001410","1410","DIPACULAO MUNICIPAL HEALTH OFFICE","","","","Rural Health Unit","Government","Local Government Unit","","GENERAL LUNA STREET","","REGION III (CENTRAL LUZON)","030000000","AURORA","037700000","DIPACULAO","037706000","NORTH POBLACION","037706019","3203","","","","RHUDIPACULAO2016@YAHOO.COM","","","PARILLA","ARTURO JR.","ARELLANO","Municipal Health Officer","","",""
"DOH000000000001441","1441","TALUGTUG RURAL HEALTH UNIT"," "," "," ","Rural Health Unit","Government","Local Government Unit"," "," "," ","REGION III (CENTRAL LUZON)","030000000","NUEVA ECIJA","034900000","TALUGTUG","034931000","QUEZON (POB.)","034931017","3118","+63 446110488"," "," "," "," "," ","CALLANTA","MARIE JO","GONZALES","Municipal Health Officer","","",""
"DOH000000000001446","1446","SAN ISIDRO RURAL HEALTH UNIT II"," "," "," ","Rural Health Unit","Government","Local Government Unit"," ","PUROK 4, RIZAL STREET"," ","REGION III (CENTRAL LUZON)","030000000","NUEVA ECIJA","034900000","SAN ISIDRO","034925000","POBLACION","034925006","3106"," "," "," "," "," "," ","VALMONTE","LORENZA","DOMINGO","Rural Health Physician","","",""
"DOH000000000001511","1511","JAEN RURAL HEALTH UNIT I"," "," "," ","Rural Health Unit","Government","Local Government Unit"," "," "," ","REGION III (CENTRAL LUZON)","030000000","NUEVA ECIJA","034900000","JAEN","034912000","SAPANG","034912029","3109","+63 444867099"," "," ","ettelimquetua@ymail.com"," "," ","SANTOS","MILGRACE","OCAMPO","Municipal Health Officer","","",""
"DOH000000000001539","1539","BALANGA CITY HEALTH OFFICE","","","","Rural Health Unit","Government","Local Government Unit","","DON MANUEL STREET","DOÑA DOMINGA BUILDING CITY HALL ANNEX","REGION III (CENTRAL LUZON)","030000000","BATAAN","030800000","CITY OF BALANGA (Capital)","030803000","DOÑA FRANCISCA","030803026","2100","+63 472374333","","","","","","BANZON","MARIANO ANTONIO","TIANGCO","City Health Officer","","",""
"DOH000000000001632","1632","DOÑA REMEDIOS TRINIDAD RURAL HEALTH UNIT","","","","Rural Health Unit","Government","Local Government Unit","","","","REGION III (CENTRAL LUZON)","030000000","BULACAN","031400000","DO?A REMEDIOS TRINIDAD","031424000","PULONG SAMPALOK","031424006","3009","","","","","","","VARGELEON","MA. RODELIA","Q.","","","",""
"DOH000000000001644","1644","TALAVERA RURAL HEALTH UNIT III","","","","Rural Health Unit","Government","Local Government Unit","","PUROK 3","","REGION III (CENTRAL LUZON)","030000000","NUEVA ECIJA","034900000","TALAVERA","034930000","SAN PASCUAL","034930051","3114","","","","","","","CORONEL","CARLINE MAYE","CORONEL","Rural Health Physician","","",""
"DOH000000000001658","1658","APALIT RURAL HEALTH UNIT I"," "," "," ","Rural Health Unit","Government","Local Government Unit"," ","GONZALES AVENUE"," ","REGION III (CENTRAL LUZON)","030000000","PAMPANGA","035400000","APALIT","035402000","SAN JUAN (POB.)","035402011","2016","+63 453027227"," "," ","apalitrhu1@gmail.com"," "," ","SAMILEY","ERIC VON","OCSAN","Municipal Health Officer","","",""
"DOH000000000001693","1693","SAN RAFAEL RURAL HEALTH UNIT III AND BIRTHING STATION","SAN RAFAEL COMMUNITY HOSPITAL"," "," ","Rural Health Unit","Government","Local Government Unit"," "," "," ","REGION III (CENTRAL LUZON)","030000000","BULACAN","031400000","SAN RAFAEL","031422000","POBLACION","031422023","3008"," "," "," "," "," "," "," "," "," "," ","","",""
"DOH000000000023608","23608","BARRETTO HEALTH CENTER","","","","Rural Health Unit","Government","Local Government Unit","","ILO-ILO STREET","","REGION III (CENTRAL LUZON)","030000000","ZAMBALES","037100000","OLONGAPO CITY","037107000","BARRETO","037107003","2200","","","","olongapochd@gmail.com","","","FIGUERRES","ANA VERLITA","F.","Rural Health Physician","","",""
"DOH000000000001907","1907","CUYAPO RURAL HEALTH UNIT I"," "," "," ","Rural Health Unit","Government","Local Government Unit"," ","CORPUZ STREET","DON JUAN C. COJUANGCO BUILDING","REGION III (CENTRAL LUZON)","030000000","NUEVA ECIJA","034900000","CUYAPO","034906000","DISTRICT VI (POB. VI)","034906023","3117"," "," "," ","cuyapomho@yahoo.com"," "," ","BELMONTE","NEMESIO, JR","BERNARDO","Municipal Health Officer","","",""
"DOH000000000001987","1987","HERMOSA LYING IN AND HEALTH CENTER","HERMOSA RURAL HEALTH UNIT","","","Rural Health Unit","Government","Local Government Unit","","NEW MARKET","","REGION III (CENTRAL LUZON)","030000000","BATAAN","030800000","HERMOSA","030805000","PALIHAN","030805014","2111","+63 476120547","","","hermosa_rhu@yahoo.com.ph","","","ABAD","JOSE BISMARCK","ZABAT","Municipal Health Officer","","",""
"DOH000000000001998","1998","SAN AGUSTIN RURAL HEALTH UNIT IV","CITY OF SAN FERNANDO (CAPITAL) RURAL HEALTH UNIT IV"," "," ","Rural Health Unit","Government","Local Government Unit"," ","DIRETSO STREET"," ","REGION III (CENTRAL LUZON)","030000000","PAMPANGA","035400000","CITY OF SAN FERNANDO (Capital)","035416000","SAN AGUSTIN","035416024","2000","+63 459611764"," "," "," "," "," ","LAPID","MARICEL","M.","Rural Health Physician","","",""
"DOH000000000002003","2003","SCIENCE CITY OF MUÑOZ RURAL HEALTH UNIT II"," "," "," ","Rural Health Unit","Government","Local Government Unit"," ","D. DELOS SANTOS STREET","DON JUAN COJUANGCO MEMORIAL HEALTH CENTER","REGION III (CENTRAL LUZON)","030000000","NUEVA ECIJA","034900000","SCIENCE CITY OF MU?OZ","034917000","POBLACION WEST","034917029","3119"," "," "," ","etr_munoz@yahoo.com"," "," ","PADILLA","JUDITH MARIE","PESEBRE","Rural Health Physician","","",""
"DOH000000000002023","2023","POBLACION RURAL HEALTH UNIT I","DINALUPIHAN RURAL HEALTH UNIT I","","","Rural Health Unit","Government","Local Government Unit","","","","REGION III (CENTRAL LUZON)","030000000","BATAAN","030800000","DINALUPIHAN","030804000","PADRE DANDAN (POB.)","030804023","2110","+63 476361512","","","","","","BAUTISTA","MARIA CORAZON","BAUTISTA","Rural Health Physician","","",""
"DOH000000000002057","2057","ANGELES RURAL HEALTH UNIT I","","","","Rural Health Unit","Government","Local Government Unit","","","","REGION III (CENTRAL LUZON)","030000000","PAMPANGA","035400000","ANGELES CITY","035401000","SANTO DOMINGO","035401028","2009","","","","MS_GARCIA@GMAIL.COM","","","TUAZON","MARIA CHERYL","PARAS","Rural Health Physician","","",""
"DOH000000000002078","2078","ZARAGOZA RURAL HEALTH UNIT I"," "," "," ","Rural Health Unit","Government","Local Government Unit"," ","PUROK BALINTAWAK"," ","REGION III (CENTRAL LUZON)","030000000","NUEVA ECIJA","034900000","ZARAGOZA","034932000","DEL PILAR","034932005","3110","+63 449581590"," "," ","coffe.cappuccino18@gmail.com"," "," ","CALDERON","CHERYL","AGUILAR","Municipal Health Officer","","",""
"DOH000000000002093","2093","MARIVELES RURAL HEALTH UNIT I","","","","Rural Health Unit","Government","Local Government Unit","","MUNICIPAL COMPOUND","","REGION III (CENTRAL LUZON)","030000000","BATAAN","030800000","MARIVELES","030807000","SAN CARLOS","030807009","2105","+63 476334630","","","","","","VELASCO","LUZ","VILLARUZ","Rural Health Physician","","",""
"DOH000000000002098","2098","LA PAZ RURAL HEALTH UNIT II","","","","Rural Health Unit","Government","Local Government Unit","","","","REGION III (CENTRAL LUZON)","030000000","TARLAC","036900000","LA PAZ","036907000","RIZAL","036907018","2314","+63 454931943","","","","","","","","","","","",""
"DOH000000000002109","2109","PANIQUI RURAL HEALTH UNIT II"," "," "," ","Rural Health Unit","Government","Local Government Unit"," "," "," ","REGION III (CENTRAL LUZON)","030000000","TARLAC","036900000","PANIQUI","036910000"," "," ","2307"," "," "," "," "," "," ","UNTALAN","HECTOR"," ","Public Health Nurse","","",""
"DOH000000000002136","2136","MARIA AURORA RURAL HEALTH UNIT","","","","Rural Health Unit","Government","Local Government Unit","","675 SILVESTRE STREET","","REGION III (CENTRAL LUZON)","030000000","AURORA","037700000","MARIA AURORA","037707000","BARANGAY III (POB.)","037707007","3202","","","","MHOMARIA070@GMAIL.COM","","","NECESITO","HEZER","ESTEBAN","Municipal Health Officer","","",""
"DOH000000000002140","2140","GORDON HEIGHTS RURAL HEALTH UNIT","","","","Rural Health Unit","Government","Local Government Unit","","BLOCK 12, IPIL-IPIL STREET LONG ROAD","","REGION III (CENTRAL LUZON)","030000000","ZAMBALES","037100000","OLONGAPO CITY","037107000","GORDON HEIGHTS","037107008","2200","+63 472235497","","","olongapochd@gmail.com","","","PALMA","LESLIE ANN","ALCAOSIN","Rural Health Physician","","",""
"DOH000000000002188","2188","MAYAPYAP SUR RURAL HEALTH UNIT I","","","","Rural Health Unit","Government","Local Government Unit","","DAMA DE NOCHE","","REGION III (CENTRAL LUZON)","030000000","NUEVA ECIJA","034900000","CABANATUAN CITY","034903000","MAYAPYAP SUR","034903053","3100","+63 449601627","","","chc1.mayapyap@gmail.com","","","GARCIA","GIOVANNI","MACEDONIO","Rural Health Physician","","",""
"DOH000000000002210","2210","APALIT RURAL HEALTH UNIT II"," "," "," ","Rural Health Unit","Government","Local Government Unit"," "," "," ","REGION III (CENTRAL LUZON)","030000000","PAMPANGA","035400000","APALIT","035402000","TABUYUC (SANTO ROSARIO)","035402015","2016","+63 453027227"," "," ","rhu2apalitpampanga@yahoo.com"," "," ","RIVERA","JOSEPH ANTHONY","RIVERA","Municipal Health Officer","","",""
"DOH000000000002287","2287","BONGABON RURAL HEALTH UNIT II","","","","Rural Health Unit","Government","Local Government Unit","","BURGOS STREET","","REGION III (CENTRAL LUZON)","030000000","NUEVA ECIJA","034900000","BONGABON","034902000","SANTOR","034902023","3128","","","","","","","PAYAWAL","JANETE","CAROLINO","Rural Health Physician","","",""
"DOH000000000002319","2319","BONGABON RURAL HEALTH UNIT I","","","","Rural Health Unit","Government","Local Government Unit","","ILAGAN SUBDIVISION","","REGION III (CENTRAL LUZON)","030000000","NUEVA ECIJA","034900000","BONGABON","034902000","SINIPIT (POB.)","034902024","3128","","","","","","","ESPIRITU","ELIZABETH","PADUA","Municipal Health Officer","","",""
"DOH000000000002330","2330","ALIAGA RURAL HEALTH UNIT I"," "," "," ","Rural Health Unit","Government","Local Government Unit"," ","SANTO ROSARIO EXTENSION"," ","REGION III (CENTRAL LUZON)","030000000","NUEVA ECIJA","034900000","ALIAGA","034901000","SANTO ROSARIO","034901038","3111"," "," "," ","rhualiaga@yahoo.com","ndpaliaga@yahoo.com"," ","CARLOS","EDGARDO","ELBAMBUENA","Municipal Health Officer","","",""
"DOH000000000002368","2368","GENERAL MAMERTO NATIVIDAD RURAL HEALTH UNIT"," "," "," ","Rural Health Unit","Government","Local Government Unit"," ","PUROK TALISAY"," ","REGION III (CENTRAL LUZON)","030000000","NUEVA ECIJA","034900000","GENERAL MAMERTO NATIVIDAD","034909000","POBLACION","034909019","3125"," "," "," ","genmnatividadrhu@gmail.com","mikhail.esteban@gmail.com","www.gennatividad.gov.ph","ESTEBAN","MIKHAIL","ESTRELLA"," ","","",""
"DOH000000000002382","2382","IBA RURAL HEALTH UNIT"," "," "," ","Rural Health Unit","Government","Local Government Unit"," "," "," ","REGION III (CENTRAL LUZON)","030000000","ZAMBALES","037100000","IBA (Capital)","037105000","ZONE 6 POB. (BAYTAN)","037105005","2201","+63 478112722"," "," "," "," "," ","ECHIPARE","RAUL","ENCINA","Rural Health Midwife","","",""
"DOH000000000002387","2387","CAMILING RURAL HEALTH UNIT I"," "," "," ","Rural Health Unit","Government","Local Government Unit"," "," "," ","REGION III (CENTRAL LUZON)","030000000","TARLAC","036900000","CAMILING","036903000"," "," ","2306"," "," "," "," "," "," ","TANGONAN","DALISAY"," ","Municipal Health Officer","","",""
"DOH000000000002398","2398","LUBAO RURAL HEALTH UNIT III"," "," "," ","Rural Health Unit","Government","Local Government Unit"," ","SITIO BARIN"," ","REGION III (CENTRAL LUZON)","030000000","PAMPANGA","035400000","LUBAO","035408000","SAN ISIDRO","035408016","2005"," "," "," ","docreyalipio@yahoo.com"," "," ","ALIPIO","REYNALDO","SUING","Rural Health Physician","","",""
"DOH000000000002417","2417","MEXICO RURAL HEALTH UNIT III"," "," "," ","Rural Health Unit","Government","Local Government Unit"," ","MASAGANA STREET"," ","REGION III (CENTRAL LUZON)","030000000","PAMPANGA","035400000","MEXICO","035413000","SANTO DOMINGO","035413042","2021"," "," "," ","rhu3.mexico@gmail.com"," "," ","REGALA","ERNESTO","LEDESMA","Rural Health Physician","","",""
"DOH000000000002434","2434","CABANGAN MUNICIPAL HEALTH OFFICE, TB DOTS CENTER AND BIRTHING CLINIC (DON COJUANGCO MEMORIAL HEALTH CENTER)","CABANGAN RURAL HEALTH UNIT","","","Rural Health Unit","Government","Local Government Unit","","","","REGION III (CENTRAL LUZON)","030000000","ZAMBALES","037100000","CABANGAN","037102000","DOLORES (POB.)","037102010","2203","","","","","","","DULLAS","MIRIAN","ABADILLA","Municipal Health Officer","","",""
"DOH000000000002522","2522","VICTORIA RURAL HEALTH UNIT II"," "," "," ","Rural Health Unit","Government","Local Government Unit"," ","PUROK 2"," ","REGION III (CENTRAL LUZON)","030000000","TARLAC","036900000","VICTORIA","036917000","CALIBUNGAN","036917009","2313"," "," "," "," "," "," ","DESCALSO","JANET"," ","Municipal Health Officer","","",""
"DOH000000000002587","2587","SANTO TOMAS RURAL HEALTH UNIT","","","","Rural Health Unit","Government","Local Government Unit","","RIZAL STREET","","REGION III (CENTRAL LUZON)","030000000","PAMPANGA","035400000","SANTO TOMAS","035421000","POBLACION","035421004","2020","","","","","","","BASILIO","JERECO","TUAZON","Municipal Health Officer","","",""
"DOH000000000002608","2608","ANGELES RURAL HEALTH UNIT V","","","","Rural Health Unit","Government","Local Government Unit","","SAN PABLO STREET, SAN IGNACIO","","REGION III (CENTRAL LUZON)","030000000","PAMPANGA","035400000","ANGELES CITY","035401000","PANDAN","035401018","2009","","","","","","","NEPOMUCEN","RAYMOND JOHN","SANTOS","Rural Health Physician","","",""
"DOH000000000002609","2609","MORONG RURAL HEALTH UNIT"," "," "," ","Rural Health Unit","Government","Local Government Unit"," ","BURGOS STREET"," ","REGION III (CENTRAL LUZON)","030000000","BATAAN","030800000","MORONG","030808000","POBLACION","030808004","2108"," "," "," "," "," "," ","BUGAY","EMMA","QUICIO","Rural Health Physician","","",""
"DOH000000000002663","2663","SANTA ROSA RURAL HEALTH UNIT I"," "," "," ","Rural Health Unit","Government","Local Government Unit"," "," "," ","REGION III (CENTRAL LUZON)","030000000","NUEVA ECIJA","034900000","SANTA ROSA","034928000","RIZAL (POB.)","034928010","3101","+63 449400526"," "," "," "," "," ","SERAPIO","IRENE","DOMINGO","Public Health Nurse","","",""
"DOH000000000002681","2681","SAN JOSE CITY HEALTH OFFICE"," "," "," ","Rural Health Unit","Government","Local Government Unit"," ","A.O. PASCUAL STREET"," ","REGION III (CENTRAL LUZON)","030000000","NUEVA ECIJA","034900000","SAN JOSE CITY","034926000","RAYMUNDO EUGENIO POB. (DISTRICT IV)","034926022","3121","+63 445114219"," ","+63 449402143","rdpa@yahoo.com"," "," ","AGLIAM","RAUL","DEL PILAR","City Health Officer","","",""
"DOH000000000002760","2760","TALAVERA RURAL HEALTH UNIT I","","","","Rural Health Unit","Government","Local Government Unit","","PAN PACIFIC HIGHWAY","","REGION III (CENTRAL LUZON)","030000000","NUEVA ECIJA","034900000","TALAVERA","034930000","PAG-ASA (POB.)","034930042","3114","+63 449583837","","","","","","SANTOS","RONALDO","LACANILAO","Rural Health Physician","","",""
"DOH000000000002765","2765","GENERAL LUNA RURAL HEALTH UNIT V","","","","Rural Health Unit","Government","Local Government Unit","","BLOCK 3","","REGION III (CENTRAL LUZON)","030000000","NUEVA ECIJA","034900000","CABANATUAN CITY","034903000","GENERAL LUNA (POB.)","034903036","3100","","","","cabanatuanrhu5@gmail.com","","","ALBERTO","ROMMEL","PAZ","Rural Health Physician","","",""
"DOH000000000002774","2774","MEXICO RURAL HEALTH UNIT II"," "," "," ","Rural Health Unit","Government","Local Government Unit"," "," "," ","REGION III (CENTRAL LUZON)","030000000","PAMPANGA","035400000","MEXICO","035413000","SAN JOSE MALINO","035413029","2021"," "," "," "," "," "," ","NUCUP","RONALD","GARCIA","Rural Health Physician","","",""
"DOH000000000002785","2785","SAN LEONARDO RURAL HEALTH UNIT II"," "," "," ","Rural Health Unit","Government","Local Government Unit"," "," "," ","REGION III (CENTRAL LUZON)","030000000","NUEVA ECIJA","034900000","SAN LEONARDO","034927000","DIVERSION","034927005","3102"," "," "," ","rhu2sanleo@gmail.com"," "," ","JAVIER","JOMAR","WAGAN","Rural Health Physician","","",""
"DOH000000000002897","2897","JAEN RURAL HEALTH UNIT II"," "," "," ","Rural Health Unit","Government","Local Government Unit"," "," "," ","REGION III (CENTRAL LUZON)","030000000","NUEVA ECIJA","034900000","JAEN","034912000","LAMBAKIN","034912006","3109"," "," "," "," "," "," ","PALLANAN","CARMELA","YAMBOT","Rural Health Physician","","",""
"DOH000000000002903","2903","BOCAUE RURAL HEALTH UNIT I","","","","Rural Health Unit","Government","Local Government Unit","","P. BURGOS STREET","","REGION III (CENTRAL LUZON)","030000000","BULACAN","031400000","BOCAUE","031404000","POBLACION","031404014","3018","","","","","","","DEL ROSARIO","CORAZON","GUTIERREZ","Municipal Health Officer","","",""
"DOH000000000002922","2922","CABIAO RURAL HEALTH UNIT II"," "," "," ","Rural Health Unit","Government","Local Government Unit"," "," "," ","REGION III (CENTRAL LUZON)","030000000","NUEVA ECIJA","034900000","CABIAO","034904000","SANTA INES","034904026","3107","+63 448060552"," "," "," "," "," "," "," "," "," ","","",""
"DOH000000000002927","2927","FLORIDABLANCA RURAL HEALTH UNIT II"," "," "," ","Rural Health Unit","Government","Local Government Unit"," ","SAN GABRIEL STREET"," ","REGION III (CENTRAL LUZON)","030000000","PAMPANGA","035400000","FLORIDABLANCA","035406000","GUTAD","035406013","2006","+63 459700155"," "," "," "," "," ","BULANDAY","ETHEL","SAZON","Public Health Nurse","","",""
"DOH000000000002945","2945","ZARAGOZA RURAL HEALTH UNIT II"," "," "," ","Rural Health Unit","Government","Local Government Unit"," ","PUROK 3, SAN ISIDRO"," ","REGION III (CENTRAL LUZON)","030000000","NUEVA ECIJA","034900000","ZARAGOZA","034932000","SAN ISIDRO","034932020","3110"," "," "," "," "," "," ","BOADO","MA. THERESA","DE GUZMAN","Rural Health Midwife","","",""
"DOH000000000002998","2998","SAN ANTONIO RURAL HEALTH UNIT III"," "," "," ","Rural Health Unit","Government","Local Government Unit"," ","BULACAN STREET"," ","REGION III (CENTRAL LUZON)","030000000","NUEVA ECIJA","034900000","SAN ANTONIO","034924000","SAN FRANCISCO","034924011","3108"," "," "," "," "," "," ","OSTARES","BELINDA","PAGDANGANAN","Rural Health Midwife","","",""
"DOH000000000003037","3037","CAPAS RURAL HEALTH UNIT I"," "," "," ","Rural Health Unit","Government","Local Government Unit"," "," "," ","REGION III (CENTRAL LUZON)","030000000","TARLAC","036900000","CAPAS","036904000","CUBCUB (POB.)","036904003","2315","+63 459250529"," ","+63 459250529"," "," "," "," "," "," "," ","","",""
"DOH000000000003119","3119","FLORIDABLANCA RURAL HEALTH UNIT I"," "," "," ","Rural Health Unit","Government","Local Government Unit"," ","RIZAL STREET"," ","REGION III (CENTRAL LUZON)","030000000","PAMPANGA","035400000","FLORIDABLANCA","035406000","POBLACION","035406023","2006","+63 459700755"," ","+63 459700755","floridablancarhu1@gmail.com"," "," ","CUYUGAN, JR","HENSON","FELIPE","Municipal Health Officer","","",""
"DOH000000000003154","3154","LAUR RURAL HEALTH UNIT"," "," "," ","Rural Health Unit","Government","Local Government Unit"," ","GENERAL TINIO STREET"," ","REGION III (CENTRAL LUZON)","030000000","NUEVA ECIJA","034900000","LAUR","034913000","BARANGAY II (POB.)","034913002","3129"," "," "," "," "," "," ","MABUTAS","JUAN","CID","Municipal Health Officer","","",""
"DOH000000000003157","3157","ANAO RURAL HEALTH UNIT","","","","Rural Health Unit","Government","Local Government Unit","","","","REGION III (CENTRAL LUZON)","030000000","TARLAC","036900000","ANAO","036901000","POBLACION","036901013","2310","+63 456061976","","","","","","BULSECO","AMELIA","","Municipal Health Officer","","",""
"DOH000000000003196","3196","MAGALANG RURAL HEALTH UNIT II"," "," "," ","Rural Health Unit","Government","Local Government Unit"," "," "," ","REGION III (CENTRAL LUZON)","030000000","PAMPANGA","035400000","MAGALANG","035411000","SAN ILDEFONSO","035411009","2011"," "," "," "," "," "," ","DEL ROSARIO","MYLA","DIZON","Rural Health Midwife","","",""
"DOH000000000003243","3243","GAPAN RURAL HEALTH UNIT III","","","","Rural Health Unit","Government","Local Government Unit","","PUROK 4","","REGION III (CENTRAL LUZON)","030000000","NUEVA ECIJA","034900000","CITY OF GAPAN","034908000","SANTA CRUZ","034908014","3105","","","","","","","BOMBASE","ANALIZA","ISIDRO","Rural Health Physician","","",""
"DOH000000000003366","3366","VICTORIA RURAL HEALTH UNIT I"," "," "," ","Rural Health Unit","Government","Local Government Unit"," ","RIZAL STREET"," ","REGION III (CENTRAL LUZON)","030000000","TARLAC","036900000","VICTORIA","036917000","BULO","036917007","2313"," "," "," "," "," "," ","TACASA","NELIU"," ","Municipal Health Officer","","",""
"DOH000000000003434","3434","NAMPICUAN RURAL HEALTH UNIT","","","","Rural Health Unit","Government","Local Government Unit","","","","REGION III (CENTRAL LUZON)","030000000","NUEVA ECIJA","034900000","NAMPICUAN","034918000","NORTH POBLACION","034918016","3116","","","","rhunampicuan2014@gmail.com","analizajsantiago30@gmail.com","","QUIMADO","RON ALLAN","CARDONA","Municipal Health Officer","","",""
"DOH000000000003437","3437","SAN JOSE CITY RURAL HEALTH UNIT I"," "," "," ","Rural Health Unit","Government","Local Government Unit"," ","ZONE 6"," ","REGION III (CENTRAL LUZON)","030000000","NUEVA ECIJA","034900000","SAN JOSE CITY","034926000","PALESTINA","034926014","3121"," "," "," ","marissabunao@yahoo.com"," "," ","BUNAO","MARISSA","BALUNES","Rural Health Physician","","",""
"DOH000000000003439","3439","ORANI RURAL HEALTH UNIT","","","","Rural Health Unit","Government","Local Government Unit","","DR. JUNIO STREET","","REGION III (CENTRAL LUZON)","030000000","BATAAN","030800000","ORANI","030809000","PARANG PARANG (POB.)","030809015","2112","","","","oranirhu@yahoomail.com","","","SILLORIQUEZ","RACHELLE GRACE","HALILI","Municipal Health Officer","","",""
"DOH000000000003444","3444","SAN JOSE RURAL HEALTH UNIT"," "," "," ","Rural Health Unit","Government","Local Government Unit"," "," "," ","REGION III (CENTRAL LUZON)","030000000","TARLAC","036900000","SAN JOSE","036918000","VILLA AGLIPAY","036918013","2318"," "," "," "," "," "," ","MEREDOR","DIONISIA","T.","Public Health Nurse","","",""
"DOH000000000003463","3463","PANIQUI RURAL HEALTH UNIT I"," "," "," ","Rural Health Unit","Government","Local Government Unit"," "," "," ","REGION III (CENTRAL LUZON)","030000000","TARLAC","036900000","PANIQUI","036910000"," "," ","2307"," "," "," "," "," "," ","MIGUEL","MARISSA"," ","Municipal Health Officer","","",""
"DOH000000000003589","3589","DINALUNGAN RURAL HEALTH UNIT","","","","Rural Health Unit","Government","Local Government Unit","","MANUEL LUIS QUEZON STREET","","REGION III (CENTRAL LUZON)","030000000","AURORA","037700000","DINALUNGAN","037704000","ZONE II (POB.)","037704003","3206","","","","dinalungan.lgu1966@yahoo.com","","","BARRERA","NYDA","SERQUÑA","Municipal Health Officer","","",""
"DOH000000000003617","3617","ARAYAT RURAL HEALTH UNIT III"," "," "," ","Rural Health Unit","Government","Local Government Unit"," ","PUROK 2"," ","REGION III (CENTRAL LUZON)","030000000","PAMPANGA","035400000","ARAYAT","035403000","KALEDIAN (CAMBA)","035403036","2012"," "," "," "," "," "," ","ESTAQUIO","CRISPIN","CUNANAN","Rural Health Physician","","",""
"DOH000000000003618","3618","BACOLOR RURAL HEALTH UNIT I","","","","Rural Health Unit","Government","Local Government Unit","","","","REGION III (CENTRAL LUZON)","030000000","PAMPANGA","035400000","BACOLOR","035404000","CABAMBANGAN (POB.)","035404003","2001","","","","RHUBACOLOR@YAHOO.COM","","","TRINIDAD","JANET","GATUS","Municipal Health Officer","","",""
"DOH000000000003636","3636","SANTO DOMINGO RURAL HEALTH UNIT II"," "," "," ","Rural Health Unit","Government","Local Government Unit"," ","PUROK 4"," ","REGION III (CENTRAL LUZON)","030000000","NUEVA ECIJA","034900000","SANTO DOMINGO","034929000","SANTO ROSARIO","034929036","3133"," "," "," ","ndpstodomingo@gmail.com"," ","www.facebook.com/SDNERHU","CERENO","RENO EUFEMON","PULLO","Municipal Health Officer","","",""
"DOH000000000003641","3641","TARLAC CITY HEALTH CENTER VIII"," "," "," ","Rural Health Unit","Government","Local Government Unit"," "," "," ","REGION III (CENTRAL LUZON)","030000000","TARLAC","036900000","CITY OF TARLAC (Capital)","036916000","BARAS-BARAS","036916015","2300"," "," "," "," "," "," ","CANLAS","MA. LARIETTA","A.","Rural Health Physician","","",""
"DOH000000000003642","3642","TARLAC CITY HEALTH CENTER IX"," "," "," ","Rural Health Unit","Government","Local Government Unit"," ","SITIO LANDING"," ","REGION III (CENTRAL LUZON)","030000000","TARLAC","036900000","CITY OF TARLAC (Capital)","036916000","SAN RAFAEL","036916072","2300"," "," "," "," "," "," ","MAXIMO","ELENA MARIE","M.","Rural Health Physician","","",""
"DOH000000000003659","3659","ORION RURAL HEALTH UNIT","","","","Rural Health Unit","Government","Local Government Unit","","PAG-ASA","","REGION III (CENTRAL LUZON)","030000000","BATAAN","030800000","ORION","030810000","WAWA (POB.)","030810029","2102","+63 472444284","","","","","","CRUZ","CORAZON","MANGALINDAN","Municipal Health Officer","","",""
"DOH000000000003736","3736","GAPAN RURAL HEALTH UNIT II","","","","Rural Health Unit","Government","Local Government Unit","","CENTRO","","REGION III (CENTRAL LUZON)","030000000","NUEVA ECIJA","034900000","CITY OF GAPAN","034908000","SAN NICOLAS","034908011","3105","+63 449402685","","","","","","PANGILINAN","AUGUSTO","MATIAS","Rural Health Physician","","",""
"DOH000000000003744","3744","MASANTOL RURAL HEALTH UNIT I"," "," "," ","Rural Health Unit","Government","Local Government Unit"," "," "," ","REGION III (CENTRAL LUZON)","030000000","PAMPANGA","035400000","MASANTOL","035412000","SAN NICOLAS (POB.)","035412019","2017"," "," "," "," "," "," ","ALGARNE","ABELARDO","BONIFACIO","Municipal Health Officer","","",""
"DOH000000000003821","3821","LUPAO RURAL HEALTH UNIT"," "," "," ","Rural Health Unit","Government","Local Government Unit"," ","PUROK 3"," ","REGION III (CENTRAL LUZON)","030000000","NUEVA ECIJA","034900000","LUPAO","034916000","POBLACION SOUTH","034916022","3122"," "," "," ","lupaorhu@gmail.com","naturalkillerz_08@yahoo.com"," ","AGLIAM","VINCENT BENJAMIN","BORJA","Municipal Health Officer","","",""
"DOH000000000003828","3828","LUBAO RURAL HEALTH UNIT II"," "," "," ","Rural Health Unit","Government","Local Government Unit"," ","CENTRO STREET"," ","REGION III (CENTRAL LUZON)","030000000","PAMPANGA","035400000","LUBAO","035408000","SANTA CRUZ","035408034","2005","+63 459716117"," "," ","vey_balu@yahoo.com"," "," ","BALUCATING","HARVEY","AGCAOILI","Rural Health Physician","","",""
"DOH000000000003829","3829","ANGELES RURAL HEALTH UNIT II","","","","Rural Health Unit","Government","Local Government Unit","","","","REGION III (CENTRAL LUZON)","030000000","PAMPANGA","035400000","ANGELES CITY","035401000","LOURDES NORTH WEST","035401010","2009","","","","MARIFEBALUYUT@YAHOO.COM","","","TUVERA","HEIDI","BRAGA","Rural Health Physician","","",""
"DOH000000000003845","3845","MARIVELES RURAL HEALTH UNIT II","","","","Rural Health Unit","Government","Local Government Unit","","DOLORES STREET","","REGION III (CENTRAL LUZON)","030000000","BATAAN","030800000","MARIVELES","030807000","CABCABEN","030807004","2105","","","","","","","SANTOS","KRISTINE","SAMEN","Rural Health Physician","","",""
"DOH000000000003859","3859","BACOLOR RURAL HEALTH UNIT II","","","","Rural Health Unit","Government","Local Government Unit","","ZONE 3","","REGION III (CENTRAL LUZON)","030000000","PAMPANGA","035400000","BACOLOR","035404000","SAN ISIDRO","035404018","2001","","","","","","","GUINTO","JED LOUIE","CUNANAN","Public Health Nurse","","",""
"DOH000000000003865","3865","MABALACAT RURAL HEALTH UNIT II"," "," "," ","Rural Health Unit","Government","Local Government Unit"," "," "," ","REGION III (CENTRAL LUZON)","030000000","PAMPANGA","035400000","MABALACAT CITY","035409000","DAU","035409008","2010","+63 453313746"," "," ","rhu2mabalacat@yahoo.com.ph"," "," ","ANUNCIACION","FREDDIE","C.","Rural Health Physician","","",""
"DOH000000000003866","3866","MABALACAT RURAL HEALTH UNIT I"," "," "," ","Rural Health Unit","Government","Local Government Unit"," ","P. BURGOS STREET"," ","REGION III (CENTRAL LUZON)","030000000","PAMPANGA","035400000","MABALACAT CITY","035409000","POBLACION","035409020","2010"," "," "," ","rhuonemabalacat@yahoo.com"," "," ","TOLENTINO","ANN MARY","ULANA","Rural Health Physician","","",""
"DOH000000000003903","3903","MACABEBE RURAL HEALTH UNIT I","","","","Rural Health Unit","Government","Local Government Unit","","PUROK COBRA","","REGION III (CENTRAL LUZON)","030000000","PAMPANGA","035400000","MACABEBE","035410000","SANTA RITA (POB.)","035410020","2018","","","","macrhu1@yahoo.com","","","YABUT","JOCELYN","GO","Municipal Health Officer","","",""
"DOH000000000003964","3964","CARRANGLAN RURAL HEALTH UNIT II"," "," "," ","Rural Health Unit","Government","Local Government Unit"," ","MAHARLIKA HIGHWAY"," ","REGION III (CENTRAL LUZON)","030000000","NUEVA ECIJA","034900000","CARRANGLAN","034905000","JOSON (DIGIDIG)","034905015","3123"," "," "," "," "," "," ","CHU","FIDELITA","GOMEZ","Municipal Health Officer","","",""
"DOH000000000003966","3966","SAN JOSE CITY RURAL HEALTH UNIT II"," "," "," ","Rural Health Unit","Government","Local Government Unit"," ","ZONE 3, BONIFACIO STREET"," ","REGION III (CENTRAL LUZON)","030000000","NUEVA ECIJA","034900000","SAN JOSE CITY","034926000","CALAOCAN","034926006","3121"," "," "," ","noel_devela@yahoo.com"," "," ","DE VELA","NOEL","BAUTISTA","Rural Health Physician","","",""
"DOH000000000003967","3967","SANTA ROSA RURAL HEALTH UNIT II"," "," "," ","Rural Health Unit","Government","Local Government Unit"," ","PUROK 6"," ","REGION III (CENTRAL LUZON)","030000000","NUEVA ECIJA","034900000","SANTA ROSA","034928000","SANTO ROSARIO","034928018","3101"," "," "," "," "," "," ","SACRAMENTO","IMELDA","BUNAG","Public Health Nurse","","",""
"DOH000000000003968","3968","ROSAURO R. TANGSON MEMORIAL CLINIC","SAN LUIS RURAL HELATH UNIT","","","Rural Health Unit","Government","Local Government Unit","","MONDALA STREET","","REGION III (CENTRAL LUZON)","030000000","AURORA","037700000","SAN LUIS","037708000","BARANGAY II (POB.)","037708003","3201","","","","RTANGSON2014@GMAIL.COM","","","TANGSON","ROSALILIA","CALDERON","Municipal Health Officer","","",""
"DOH000000000004010","4010","SANTO DOMINGO RURAL HEALTH UNIT I"," "," "," ","Rural Health Unit","Government","Local Government Unit"," ","PUROK 1"," ","REGION III (CENTRAL LUZON)","030000000","NUEVA ECIJA","034900000","SANTO DOMINGO","034929000","MALAYA (POOK MALAYA)","034929024","3133"," "," "," ","ndpstodomingo@gmail.com"," ","www.facebook.com/SDNERHU","GUERRERO","MYRNALENE","LIM","Rural Health Physician","","",""
"DOH000000000004048","4048","LA PAZ RURAL HEALTH UNIT I","","","","Rural Health Unit","Government","Local Government Unit","","","","REGION III (CENTRAL LUZON)","030000000","TARLAC","036900000","LA PAZ","036907000","SAN ROQUE (POB.)","036907020","2314","+63 454931970","","","","","","","","","","","",""
"DOH000000000004064","4064","DR. ANDRES ARAGON ANGARA HEALTH CENTER","BALER RURAL HEALTH UNIT","","","Rural Health Unit","Government","Local Government Unit","","SITIO DUPAX","","REGION III (CENTRAL LUZON)","030000000","AURORA","037700000","BALER (Capital)","037701000","SUCLAYIN","037701012","3200","","","","NENSEPHERN@GMAIL.COM","","","HERNANADEZ","NENITA","SEPULCRE","Municipal Health Officer","","",""
"DOH000000000004089","4089","QUEZON RURAL HEALTH UNIT"," "," "," ","Rural Health Unit","Government","Local Government Unit"," ","PUROK 2"," ","REGION III (CENTRAL LUZON)","030000000","NUEVA ECIJA","034900000","QUEZON","034922000","BARANGAY II (POB.)","034922011","3113"," "," "," ","rhu.quezon@yahoo.com","ndpquezon2014@yahoo.com"," ","BOSE","ADALISA","HIZON","Municipal Health Officer","","",""
"DOH000000000004121","4121","CONCEPCION RURAL HEALTH UNIT III","","","","Rural Health Unit","Government","Local Government Unit","","","","REGION III (CENTRAL LUZON)","030000000","TARLAC","036900000","CONCEPCION","036905000","SANTA CRUZ","036905040","2316","","","","","","","","","","","","",""
"DOH000000000004165","4165","ANGELES RURAL HEALTH UNIT III","","","","Rural Health Unit","Government","Local Government Unit","","FAJARDO","","REGION III (CENTRAL LUZON)","030000000","PAMPANGA","035400000","ANGELES CITY","035401000","LOURDES SUR EAST","035401012","2009","","","","","","","BADIOLA","JENNILYN","DELA CRUZ","Rural Health Physician","","",""
"DOH000000000004176","4176","PILAR RURAL HEALTH UNIT - LT. JUAN ALDABA MEMORIAL HEALTH CENTER","","","","Rural Health Unit","Government","Local Government Unit","","","","REGION III (CENTRAL LUZON)","030000000","BATAAN","030800000","PILAR","030811000","PANILAO","030811019","2101","+63 472372913","+63 476135816","+63 472374564","PILARRHU2014@YAHOO.COM","","","ENRIQUEZ","MARY ELLEN","ELERIA","Municipal Health Officer","","",""
"DOH000000000004180","4180","BOTOLAN RURAL HEALTH UNIT I"," "," "," ","Rural Health Unit","Government","Local Government Unit"," "," "," ","REGION III (CENTRAL LUZON)","030000000","ZAMBALES","037100000","BOTOLAN","037101000","TAMPO (POB.)","037101022","2202","+63 478101912"," "," "," "," "," ","IGROBAY","FERNANDO","DIÑOSO","Municipal Health Officer","","",""
"DOH000000000004241","4241","TARLAC CITY HEALTH CENTER III"," "," "," ","Rural Health Unit","Government","Local Government Unit"," ","CASTAÑEDA STREET"," ","REGION III (CENTRAL LUZON)","030000000","TARLAC","036900000","CITY OF TARLAC (Capital)","036916000","SAN MIGUEL","036916068","2300","+63 459850543"," "," "," "," "," ","BALMACEDA","RESTITUTO","V.","Rural Health Midwife","","",""
"DOH000000000004286","4286","ANGELES RURAL HEALTH UNIT VI","","","","Rural Health Unit","Government","Local Government Unit","","EPZA CENTER PUROK 2","","REGION III (CENTRAL LUZON)","030000000","PAMPANGA","035400000","ANGELES CITY","035401000","PULUNG CACUTUD","035401021","2009","","","","","","","TULUD","HERNAND TIMOTEO","BAUZON","Rural Health Physician","","",""
"DOH000000000004333","4333","LUBAO MUNICIPAL HEALTH OFFICE"," "," "," ","Rural Health Unit","Government","Local Government Unit"," ","PUROK 3"," ","REGION III (CENTRAL LUZON)","030000000","PAMPANGA","035400000","LUBAO","035408000","SAN NICOLAS 1ST (POB.)","035408022","2005"," "," "," "," "," "," ","ONG","RUDY","PINEDA","Municipal Health Officer","","",""
"DOH000000000004336","4336","ARAYAT RURAL HEALTH UNIT I"," "," "," ","Rural Health Unit","Government","Local Government Unit"," "," "," ","REGION III (CENTRAL LUZON)","030000000","PAMPANGA","035400000","ARAYAT","035403000","PLAZANG LUMA","035403017","2012"," "," "," ","kristel06alfonso@gmail.com"," "," ","AUSTRIA","PAULINO","A.","Municipal Health Officer","","",""
"DOH000000000004382","4382","SAMAL RURAL HEALTH UNIT","","","","Rural Health Unit","Government","Local Government Unit","","POBLACION STREET","","REGION III (CENTRAL LUZON)","030000000","BATAAN","030800000","SAMAL","030812000","EAST DAANG BAGO (POB.)","030812002","2113","","","","","","","ESPINO","CRISTINA","SANTOS","Rural Health Physician","","",""
"DOH000000000004514","4514","MASANTOL RURAL HEALTH UNIT II"," "," "," ","Rural Health Unit","Government","Local Government Unit"," "," "," ","REGION III (CENTRAL LUZON)","030000000","PAMPANGA","035400000","MASANTOL","035412000","SAN AGUSTIN (CAINGIN)","035412009","2017"," "," "," "," "," "," ","GONZALES","JEANNE","TIANGHA","Rural Health Physician","","",""
"DOH000000000004563","4563","BALIUAG RURAL HEALTH UNIT IV"," "," "," ","Rural Health Unit","Government","Local Government Unit"," ","CAGAYAN STREET"," ","REGION III (CENTRAL LUZON)","030000000","BULACAN","031400000","BALIUAG","031403000","POBLACION","031403014","3006"," "," "," "," "," "," ","DELA CRUZ","MA. EDITHA","CRUZ","Municipal Health Officer","","",""
"DOH000000000004626","4626","TARLAC CITY HEALTH CENTER VI"," "," "," ","Rural Health Unit","Government","Local Government Unit"," ","BLOCK3"," ","REGION III (CENTRAL LUZON)","030000000","TARLAC","036900000","CITY OF TARLAC (Capital)","036916000","SAN MANUEL","036916067","2300"," "," "," "," "," "," ","CAPILI","AMELIA","D.","Rural Health Physician","","",""
"DOH000000000004650","4650","MARIVELES RURAL HEALTH UNIT III","","","","Rural Health Unit","Government","Local Government Unit","","CONCEPCION STREET","","REGION III (CENTRAL LUZON)","030000000","BATAAN","030800000","MARIVELES","030807000","POBLACION","030807008","2105","047 6334352","","","","","","SEBASTIAN","ETHEL MARIE","VALIENTE","Rural Health Physician","","",""
"DOH000000000004732","4732","GAPAN RURAL HEALTH UNIT IV","","","","Rural Health Unit","Government","Local Government Unit","","RILES","","REGION III (CENTRAL LUZON)","030000000","NUEVA ECIJA","034900000","CITY OF GAPAN","034908000","SAN ROQUE","034908012","3105","","","","","","","PANGILINAN","AUGUSTO","MATIAS","Rural Health Physician","","",""
"DOH000000000004753","4753","CASTILLEJOS RURAL HEALTH UNIT"," "," "," ","Rural Health Unit","Government","Local Government Unit"," ","SAN AGUSTIN ROAD"," ","REGION III (CENTRAL LUZON)","030000000","ZAMBALES","037100000","CASTILLEJOS","037104000","SAN AGUSTIN","037104008","2208","+63 476241035"," "," "," "," "," ","ABAD","JOSE BISMARCK","ZABAT","Municipal Health Officer","","",""
"DOH000000000004754","4754","SANTA ANA RURAL HEALTH UNIT"," "," "," ","Rural Health Unit","Government","Local Government Unit"," "," ","MUNICIPAL BUILDING","REGION III (CENTRAL LUZON)","030000000","PAMPANGA","035400000","SANTA ANA","035419000","SAN JOAQUIN (POB.)","035419004","2022","+63 453434218"," "," "," "," "," ","MARIN","JOSEFINA","TONGOL","Municipal Health Officer","","",""
"DOH000000000004785","4785","SANTA CRUZ RURAL HEALTH UNIT I","","","","Rural Health Unit","Government","Local Government Unit","","MILLADO STREET","","REGION III (CENTRAL LUZON)","030000000","ZAMBALES","037100000","SANTA CRUZ","037113000","","","2213","","","","","","","MAYOR","MILAGRINA","MISOLA","Municipal Health Officer","","",""
"DOH000000000004870","4870","GUIMBA RURAL HEALTH UNIT I"," "," "," ","Rural Health Unit","Government","Local Government Unit"," "," "," ","REGION III (CENTRAL LUZON)","030000000","NUEVA ECIJA","034900000","GUIMBA","034911000","SARANAY DISTRICT (POB.)","034911062","3115","+63 446117950"," ","+63 446117950"," "," "," ","GALAPON","MANUEL","LUCIANO","Municipal Health Officer","","",""
"DOH000000000004891","4891","SANTA MARIA RURAL HEALTH UNIT II"," "," "," ","Rural Health Unit","Government","Local Government Unit"," ","SANTO TOMAS"," ","REGION III (CENTRAL LUZON)","030000000","BULACAN","031400000","SANTA MARIA","031423000"," "," ","3022"," "," "," "," "," "," ","FELICIANO","MA. CONSUELO","GUERRERO","Rural Health Midwife","","",""
"DOH000000000004901","4901","SAN ISIDRO RURAL HEALTH UNIT I"," "," "," ","Rural Health Unit","Government","Local Government Unit"," ","PLAZA SANTOS"," ","REGION III (CENTRAL LUZON)","030000000","NUEVA ECIJA","034900000","SAN ISIDRO","034925000","POBLACION","034925006","3106","+63 444867353"," "," "," "," "," ","CASTRO","SUSANA","CERIACO","Municipal Health Officer","","",""
"DOH000000000004925","4925","GERONA RURAL HEALTH UNIT I","","","","Rural Health Unit","Government","Local Government Unit","","PUROK PAYAPA MCARTHUR HIGHWAY","","REGION III (CENTRAL LUZON)","030000000","TARLAC","036900000","GERONA","036906000","ABAGON","036906001","2302","+63 459313355","","","yeyepeemayer.2003@gmail.com","","","CABUNOC","JULIET","OFIANA","Municipal Health Officer","","",""
"DOH000000000005008","5008","DINGALAN RURAL HEALTH UNIT","","","","Rural Health Unit","Government","Local Government Unit","","LGU COMPOUND","","REGION III (CENTRAL LUZON)","030000000","AURORA","037700000","DINGALAN","037705000","POBLACION","037705010","3207","","","","RHUDINGALAN@GMAIL.COM","","","CEBEDO","LANI VERONICA","MABANAG","Municipal Health Officer","","",""
"DOH000000000005099","5099","SAN JOSE DEL MONTE CITY HEALTH CENTER II","SAN JOSE DEL MONTE CITY HEALTH OFFICE II","","","Rural Health Unit","Government","Local Government Unit","","TANGERINE STREET PECSONVILLE SUBDIVISION","","REGION III (CENTRAL LUZON)","030000000","BULACAN","031400000","CITY OF SAN JOSE DEL MONTE","031420000","TUNGKONG MANGGA","031420011","3023","","","","","","","MANICAD","ARLIZE","DADA","Rural Health Physician","","",""
"DOH000000000005103","5103","SANTA RITA RURAL HEALTH UNIT"," "," "," ","Rural Health Unit","Government","Local Government Unit"," "," "," ","REGION III (CENTRAL LUZON)","030000000","PAMPANGA","035400000","SANTA RITA","035420000","SAN JOSE (POB.)","035420006","2002","+63 459002096"," "," "," "," "," ","DE VERA","LENNARD","CUEVAS","Municipal Health Officer","","",""
"DOH000000000005150","5150","CUYAPO RURAL HEALTH UNIT II"," "," "," ","Rural Health Unit","Government","Local Government Unit"," ","CORPUZ STREET","DON JUAN C. COJUANGCO BUILDING","REGION III (CENTRAL LUZON)","030000000","NUEVA ECIJA","034900000","CUYAPO","034906000","DISTRICT I (POB. I)","034906018","3117"," "," "," ","cuyapomho@yahoo.com"," "," ","BELMONTE","PILARCITA","VERDE","Rural Health Physician","","",""
"DOH000000000005175","5175","COLO RURAL HEALTH UNIT II","DINALUPIHAN RURAL HEALTH UNIT II","","","Rural Health Unit","Government","Local Government Unit","","NATIONAL HIGHWAY","BUILDING 2","REGION III (CENTRAL LUZON)","030000000","BATAAN","030800000","DINALUPIHAN","030804000","COLO","030804007","2110","+63 476336398","","","rhu2dinalupihanbataan16@gmail.com","","","TIMPLE","JOSELITO","MAGNO","Rural Health Physician","","",""
"DOH000000000005188","5188","CARRANGLAN RURAL HEALTH UNIT I"," "," "," ","Rural Health Unit","Government","Local Government Unit"," "," "," ","REGION III (CENTRAL LUZON)","030000000","NUEVA ECIJA","034900000","CARRANGLAN","034905000","F. C. OTIC POB. (BGY. II)","034905053","3123"," "," "," "," "," "," ","CHU","FIDELITA","GOMEZ","Municipal Health Officer","","",""
"DOH000000000005300","5300","SAN JOSE DEL MONTE CITY HEALTH CENTER I","SAN JOSE DEL MONTE CITY HEALTH OFFICE I","","","Rural Health Unit","Government","Local Government Unit","","SAN PEDRO STREET","CITY HALL BUILDING","REGION III (CENTRAL LUZON)","030000000","BULACAN","031400000","CITY OF SAN JOSE DEL MONTE","031420000","POBLACION I","031420043","3023","","","","","","","TOLENTINO","ROSELL","TEJANO","","","",""
"DOH000000000005319","5319","PEÑARANDA RURAL HEALTH UNIT"," "," "," ","Rural Health Unit","Government","Local Government Unit"," ","0458 STREET"," ","REGION III (CENTRAL LUZON)","030000000","NUEVA ECIJA","034900000","PE?ARANDA","034921000","POBLACION I","034921006","3103","+63 449405604"," "," "," "," "," ","ABESAMIS","EVELYN","ISON","Municipal Health Officer","","",""
"DOH000000000005494","5494","H. CONCEPCION CITY HEALTH UNIT 7","","","","Rural Health Unit","Government","Local Government Unit","","","","REGION III (CENTRAL LUZON)","030000000","NUEVA ECIJA","034900000","CABANATUAN CITY","034903000","HERMOGENES C. CONCEPCION, SR.","034903092","3100","+63 444636900","","","","","","ADECER","ARMINDA","A.","City Health Officer","","",""
"DOH000000000005598","5598","GUIMBA RURAL HEALTH UNIT III"," "," "," ","Rural Health Unit","Government","Local Government Unit"," "," "," ","REGION III (CENTRAL LUZON)","030000000","NUEVA ECIJA","034900000","GUIMBA","034911000","SAN ANDRES","034911051","3115"," "," "," "," "," "," ","ROMANO","OSCAR","PASCUAL","Municipal Health Officer","","",""
"DOH000000000005613","5613","TARLAC CITY HEALTH CENTER VII"," "," "," ","Rural Health Unit","Government","Local Government Unit"," ","HICKORY LANE, SOLIMAN AVENUE"," ","REGION III (CENTRAL LUZON)","030000000","TARLAC","036900000","CITY OF TARLAC (Capital)","036916000","SALAPUNGAN","036916097","2300"," "," "," "," "," "," ","VENGCO","ALLAN","C.","Rural Health Physician","","",""
"DOH000000000005628","5628","CANDABA RURAL HEALTH UNIT III"," "," "," ","Rural Health Unit","Government","Local Government Unit"," ","CENTRO ASLAGAN"," ","REGION III (CENTRAL LUZON)","030000000","PAMPANGA","035400000","CANDABA","035405000","SALAPUNGAN","035405028","2013"," "," "," "," "," "," ","ANTONINO","JAIME","S.","Rural Health Physician","","",""
"DOH000000000005647","5647","ARAYAT RURAL HEALTH UNIT II"," "," "," ","Rural Health Unit","Government","Local Government Unit"," ","PUROK 1"," ","REGION III (CENTRAL LUZON)","030000000","PAMPANGA","035400000","ARAYAT","035403000","SAN ROQUE BITAS","035403029","2012"," "," "," "," "," "," ","TAYAG","EULOGIO","TRAJANO","Rural Health Physician","","",""
"DOH000000000005654","5654","CONCEPCION RURAL HEALTH UNIT I","","","","Rural Health Unit","Government","Local Government Unit","","","","REGION III (CENTRAL LUZON)","030000000","TARLAC","036900000","CONCEPCION","036905000","SAN NICOLAS (POB.)","036905035","2316","+63 456090410","","+63 456090410","","","","","","","","","",""
"DOH000000000005666","5666","LLANERA RURAL HEALTH UNIT"," "," "," ","Rural Health Unit","Government","Local Government Unit"," "," "," ","REGION III (CENTRAL LUZON)","030000000","NUEVA ECIJA","034900000","LLANERA","034915000","VICTORIA","034915023","3126"," "," "," "," "," "," ","OLIVA","MARIA ELENA","JOCO","Municipal Health Officer","","",""
"DOH000000000005680","5680","RIZAL RURAL HEALTH UNIT","","","","Rural Health Unit","Government","Local Government Unit","","PAG-ASA GYM","","REGION III (CENTRAL LUZON)","030000000","NUEVA ECIJA","034900000","RIZAL","034923000","POBLACION NORTE","034923027","3127","+63 449584338","","","rizalrhu12@yahoo.com","","","AYSON","ARMENIO JR.","DACANAY","Municipal Health Officer","","",""
"DOH000000000005712","5712","CONCEPCION RURAL HEALTH UNIT II","","","","Rural Health Unit","Government","Local Government Unit","","","","REGION III (CENTRAL LUZON)","030000000","TARLAC","036900000","CONCEPCION","036905000","BALUTU","036905003","2316","","","","","","","","","","","","",""
"DOH000000000005801","5801","LIMAY EMERGENCY AND BIRTHING FACILITY","LIMAY RURAL HEALTH UNIT","","","Rural Health Unit","Government","Local Government Unit","","REAL STREET","","REGION III (CENTRAL LUZON)","030000000","BATAAN","030800000","LIMAY","030806000","POBLACION","030806007","2103","+63 472444040","+63 472447141","","","","","LEONGSON","RAQUEL","ABUEG","Other","","",""
"DOH000000000005871","5871","MABINI HOMESITE RURAL HEALTH UNIT","CARIDAD RURAL HEALTH UNIT IV","","","Rural Health Unit","Government","Local Government Unit","","","","REGION III (CENTRAL LUZON)","030000000","NUEVA ECIJA","034900000","CABANATUAN CITY","034903000","MABINI HOMESITE","034903047","3100","","","","chc4_mabinihs@yahoo.com","","","BORJA","JEANNETTE","MICLA","Rural Health Physician","","",""
"DOH000000000005877","5877","PALAUIG RURAL HEALTH UNIT"," "," "," ","Rural Health Unit","Government","Local Government Unit"," ","PUROK LANGKA"," ","REGION III (CENTRAL LUZON)","030000000","ZAMBALES","037100000","PALAUIG","037108000","WEST POBLACION","037108015","2210"," "," "," "," "," "," ","EGALLA","NICANOR","BARRERA","Municipal Health Officer","","",""
"DOH000000000005879","5879","SUBIC MUNICIPAL HEALTH OFFICE"," "," "," ","Rural Health Unit","Government","Local Government Unit"," ","NATIONAL HIGHWAY"," ","REGION III (CENTRAL LUZON)","030000000","ZAMBALES","037100000","SUBIC","037114000","MANGAN-VACA","037114014","2209","+63 472321325"," "," "," "," "," ","AFABLE","LEONARDO","FINEZ","Municipal Health Officer","","",""
"DOH000000000005880","5880","SAN ANTONIO MUNICIPAL HEALTH OFFICE","SAN ANTONIO MUNICIPAL HEALTH OFFICE"," "," ","Rural Health Unit","Government","Local Government Unit"," ","NATIONAL HIGHWAY"," ","REGION III (CENTRAL LUZON)","030000000","ZAMBALES","037100000","SAN ANTONIO","037109000","RIZAL","037109014","2206"," "," "," ","tracylee_paredes@yahoo.com"," "," ","LONZANIDA","EDZEL","LACTAOTAO","Municipal Health Officer","","",""
"DOH000000000005896","5896","BOTOLAN RURAL HEALTH UNIT II"," "," "," ","Rural Health Unit","Government","Local Government Unit"," "," "," ","REGION III (CENTRAL LUZON)","030000000","ZAMBALES","037100000","BOTOLAN","037101000","SAN JUAN","037101019","2202"," "," "," "," "," "," ","MARIANO","UREKA","DUMAPLIN","Rural Health Physician","","",""
"DOH000000000005901","5901","TARLAC CITY HEALTH CENTER IV"," "," "," ","Rural Health Unit","Government","Local Government Unit"," ","ZONE 2, SAN ISIDRO"," ","REGION III (CENTRAL LUZON)","030000000","TARLAC","036900000","CITY OF TARLAC (Capital)","036916000","SAN ISIDRO","036916060","2300"," "," "," "," "," "," ","AQUINO","MA. JOSEFINA"," ","Rural Health Physician","","",""
"DOH000000000005908","5908","NEW CABALAN HEALTH CENTER","","","","Rural Health Unit","Government","Local Government Unit","","RIZAL STREET","","REGION III (CENTRAL LUZON)","030000000","ZAMBALES","037100000","OLONGAPO CITY","037107000","NEW CABALAN","037107014","2200","","","","edongcruz@yahoo.com","olongapochd@gmail.com","","CRUZ","EDUARDO","","Rural Health Physician","","",""
"DOH000000000006142","6142","SANTA MARIA RURAL HEALTH UNIT III"," "," "," ","Rural Health Unit","Government","Local Government Unit"," "," "," ","REGION III (CENTRAL LUZON)","030000000","BULACAN","031400000","SANTA MARIA","031423000"," "," ","3022"," "," "," "," "," "," "," "," "," "," ","","",""
"DOH000000000006154","6154","TARLAC CITY HEALTH CENTER V"," "," "," ","Rural Health Unit","Government","Local Government Unit"," ","SILANGAN STREET"," ","REGION III (CENTRAL LUZON)","030000000","TARLAC","036900000","CITY OF TARLAC (Capital)","036916000","MAPALACSIAO","036916050","2300"," "," "," "," "," "," ","NIDERA","HILARIO","A.","Rural Health Physician","","",""
"DOH000000000006356","6356","CALUMPIT RURAL HEALTH UNIT I","","","","Rural Health Unit","Government","Local Government Unit","","PUROK 2","","REGION III (CENTRAL LUZON)","030000000","BULACAN","031400000","CALUMPIT","031407000","BALUNGAO","031407002","3003","+63 442024430","","","ALUMPIT_MUNHEALTHOFFICE@YAHOO.COM","","","LUCAS","RIZALIE","SANTOS","Rural Health Physician","","",""
"DOH000000000006384","6384","GENERAL TINIO RURAL HEALTH UNIT II"," "," "," ","Rural Health Unit","Government","Local Government Unit"," ","RIZAL STREET"," ","REGION III (CENTRAL LUZON)","030000000","NUEVA ECIJA","034900000","GENERAL TINIO (PAPAYA)","034910000","RIO CHICO","034910014","3104"," "," "," "," "," "," ","ADOR","MARR ENRICO","RIVERA","Rural Health Physician","","",""
"DOH000000000006396","6396","GABALDON RURAL HEALTH UNIT"," "," "," ","Rural Health Unit","Government","Local Government Unit"," ","SAMPAGUITA STREET"," ","REGION III (CENTRAL LUZON)","030000000","NUEVA ECIJA","034900000","GABALDON (BITULOK & SABANI)","034907000","SOUTH POBLACION","034907014","3131"," "," "," ","chinablue_12@yahoo.com","ndpgabaldon@gmail.com"," ","MAGNO, JR.","JOSE","REYES","Municipal Health Officer","","",""
"DOH000000000006397","6397","SAN ANTONIO RURAL HEALTH UNIT I"," "," "," ","Rural Health Unit","Government","Local Government Unit"," ","VIESCA STREET"," ","REGION III (CENTRAL LUZON)","030000000","NUEVA ECIJA","034900000","SAN ANTONIO","034924000","POBLACION","034924009","3108","+63 449409649"," "," ","rhusanantonio@gmail.com"," "," ","TORRES","HELENA","GONZALES","Municipal Health Officer","","",""
"DOH000000000006400","6400","PANTABANGAN RURAL HEALTH UNIT","","","","Rural Health Unit","Government","Local Government Unit","","","","REGION III (CENTRAL LUZON)","030000000","NUEVA ECIJA","034900000","PANTABANGAN","034920000","POBLACION EAST","034920012","3124","","","","rhupantabangan@yahoo.com","","","UERA","AUGUSTUS CESAR","RABIONES","Municipal Health Officer","Not Applicable","",""
"DOH000000000006409","6409","GAPAN RURAL HEALTH UNIT I","","","","Rural Health Unit","Government","Local Government Unit","","BONIFACIO STREET","","REGION III (CENTRAL LUZON)","030000000","NUEVA ECIJA","034900000","CITY OF GAPAN","034908000","SAN VICENTE (POB.)","034908013","3105","+63 444860396","","","","","","BOMBASE","ANALIZA","ISIDRO","Rural Health Physician","","",""
"DOH000000000006419","6419","SAN LEONARDO RURAL HEALTH UNIT I"," "," "," ","Rural Health Unit","Government","Local Government Unit"," "," "," ","REGION III (CENTRAL LUZON)","030000000","NUEVA ECIJA","034900000","SAN LEONARDO","034927000","SAN BARTOLOME (POB.)","034927010","3102"," "," "," "," "," "," ","GALVEZ","MARISOL","FERNANDEZ","Municipal Health Officer","","",""
"DOH000000000006420","6420","BAGAC RURAL HEALTH UNIT"," "," "," ","Rural Health Unit","Government","Local Government Unit"," ","BONIFACIO STREET"," ","REGION III (CENTRAL LUZON)","030000000","BATAAN","030800000","BAGAC","030802000","IBABA","030802006","2107"," "," "," "," "," "," ","GONZALES","ANN YSABEL","ALONZO","Municipal Health Officer","","",""
"DOH000000000006421","6421","GUIMBA RURAL HEALTH UNIT II"," "," "," ","Rural Health Unit","Government","Local Government Unit"," "," "," ","REGION III (CENTRAL LUZON)","030000000","NUEVA ECIJA","034900000","GUIMBA","034911000","SARANAY DISTRICT (POB.)","034911062","3115"," "," "," "," "," "," ","TADEO","MA. GENE","CINENSE","Municipal Health Officer","","",""
"DOH000000000006432","6432","GENERAL TINIO RURAL HEALTH UNIT I"," "," "," ","Rural Health Unit","Government","Local Government Unit"," ","BONIFACIO STREET"," ","REGION III (CENTRAL LUZON)","030000000","NUEVA ECIJA","034900000","GENERAL TINIO (PAPAYA)","034910000","POBLACION CENTRAL","034910015","3104"," "," "," ","rhugtne@yahoo.com"," "," ","ADOR","MARR ENRICO","RIVERA","Rural Health Physician","","",""
"DOH000000000006529","6529","GERONA RURAL HEALTH UNIT II"," "," "," ","Rural Health Unit","Government","Local Government Unit"," ","PUROK CENTRO"," ","REGION III (CENTRAL LUZON)","030000000","TARLAC","036900000","GERONA","036906000","PINASLING (PINASUNG)","036906027","2302","+63 454915168"," "," "," "," "," ","LAGADE","ABNER","T.","Municipal Health Officer","","",""
"DOH000000000006543","6543","GUAGUA RURAL HEALTH UNIT III"," "," "," ","Rural Health Unit","Government","Local Government Unit"," ","PUROK 4"," ","REGION III (CENTRAL LUZON)","030000000","PAMPANGA","035400000","GUAGUA","035407000","NATIVIDAD","035407008","2003"," "," "," "," "," "," ","CAMAYA","ADOR","P.","Municipal Health Officer","","",""
"DOH000000000006697","6697","LICAB RURAL HEALTH UNIT AND BIRTHING STATION"," "," "," ","Rural Health Unit","Government","Local Government Unit"," ","PUROK 5"," ","REGION III (CENTRAL LUZON)","030000000","NUEVA ECIJA","034900000","LICAB","034914000","POBLACION SUR","034914004","3112"," "," "," "," "," "," ","MAXIMO","BENJAMIN","FERNANDEZ","Municipal Health Officer","","",""
"DOH000000000006784","6784","BALANGA RURAL HEALTH UNIT I","","","","Rural Health Unit","Government","Local Government Unit","","SAMPAGUITA STREET","","REGION III (CENTRAL LUZON)","030000000","BATAAN","030800000","CITY OF BALANGA (Capital)","030803000","SAN JOSE","030803016","2100","+63 472372481","","","","","","ROSTRATA","JOSE EZRA","DE LEON","Rural Health Physician","","",""
"DOH000000000006822","6822","GUAGUA RURAL HEALTH UNIT II"," "," "," ","Rural Health Unit","Government","Local Government Unit"," "," "," ","REGION III (CENTRAL LUZON)","030000000","PAMPANGA","035400000","GUAGUA","035407000","SAN NICOLAS 2ND","035407021","2003","+63 454050286"," "," ","ruralhealthunit.sannicolas@yahoo.com"," "," ","NOBLE","REMEDIOS","SIBUG","Municipal Health Officer","","",""
"DOH000000000006831","6831","MABALACAT RURAL HEALTH UNIT III"," "," "," ","Rural Health Unit","Government","Local Government Unit"," ","FIRST DRIVE AIRMENS STREET"," ","REGION III (CENTRAL LUZON)","030000000","PAMPANGA","035400000","MABALACAT CITY","035409000","MABIGA","035409012","2010","+63 45331770"," "," ","mhcthree.mabalacat@gmail.com"," "," ","MANALO","ROSEMARIE ANNE","M.","Rural Health Physician","","",""
"DOH000000000006849","6849","EAST TAPINAC RURAL HEALTH UNIT","","","","Rural Health Unit","Government","Local Government Unit","","14TH STREET CORNER GALLAGHER","","REGION III (CENTRAL LUZON)","030000000","ZAMBALES","037100000","OLONGAPO CITY","037107000","EAST TAPINAC","037107006","2200","+63 472233444","","","mch.olongapo@gmail.com","olongapochd@gmail.com","","CARRILLO","ELIZABETH","MEDINA","Rural Health Physician","","",""
"DOH000000000006903","6903","SAN JOSE RURAL HEALTH UNIT II","BULACAN RURAL HEALTH UNIT II"," "," ","Rural Health Unit","Government","Local Government Unit"," "," "," ","REGION III (CENTRAL LUZON)","030000000","BULACAN","031400000","BULACAN","031405000","SAN JOSE (POB.)","031405010","3017"," "," "," "," "," "," "," "," "," "," ","","",""
"DOH000000000006904","6904","CABIAO RURAL HEALTH UNIT I"," "," "," ","Rural Health Unit","Government","Local Government Unit"," "," "," ","REGION III (CENTRAL LUZON)","030000000","NUEVA ECIJA","034900000","CABIAO","034904000","SANTA INES","034904026","3107"," "," "," "," "," "," "," "," "," "," ","","",""
"DOH000000000006905","6905","CAMILING RURAL HEALTH UNIT II"," "," "," ","Rural Health Unit","Government","Local Government Unit"," "," "," ","REGION III (CENTRAL LUZON)","030000000","TARLAC","036900000","CAMILING","036903000"," "," ","2306"," "," "," "," "," "," ","PAGADUAN","MELA"," ","Public Health Nurse","","",""
"DOH000000000007123","7123","LUZ MAGPAYO-MERCADO RURAL HEALTH CENTER"," "," "," ","Rural Health Unit","Government","Local Government Unit"," ","JUPITER STREET"," ","REGION III (CENTRAL LUZON)","030000000","PAMPANGA","035400000","SASMUAN (SEXMOAN)","035422000","SAN NICOLAS 2ND","035422009","2004"," "," "," ","merlynmlimpin@yahoo.com"," "," ","LIMPIN","MERLYN","MENDOZA","Rural Health Physician","","",""
"DOH000000000007139","7139","GERONA RURAL HEALTH UNIT III"," "," "," ","Rural Health Unit","Government","Local Government Unit"," ","PUROK PAG-ASA"," ","REGION III (CENTRAL LUZON)","030000000","TARLAC","036900000","GERONA","036906000","SULIPA","036906044","2302"," "," "," "," "," "," ","ADAOAG","ERICK"," ","Municipal Health Officer","","",""
"DOH000000000007147","7147","SAN JOSEF NORTE RURAL HEALTH UNIT II","","","","Rural Health Unit","Government","Local Government Unit","","DONA ENCARNACION AVENUE","","REGION III (CENTRAL LUZON)","030000000","NUEVA ECIJA","034900000","CABANATUAN CITY","034903000","SAN JOSEF NORTE","034903071","3100","","","","chc2sanjosef@gmail.com","","","SO","ROBERT JAYSON","ANG","Rural Health Physician","","",""
"DOH000000000007151","7151","SANTA IGNACIA RURAL HEALTH UNIT","","","","Rural Health Unit","Government","Local Government Unit","","IGNACIO STREET","","REGION III (CENTRAL LUZON)","030000000","TARLAC","036900000","SANTA IGNACIA","036915000","POBLACION WEST","036915014","2303","+63 456050203","","","","","","BACNIS","GENE JERARD","PLAZA","Municipal Health Officer","","",""
"DOH000000000007154","7154","SINDALAN RURAL HEALTH UNIT II","CITY OF SAN FERNANDO (CAPITAL) RURAL HEALTH UNIT II"," "," ","Rural Health Unit","Government","Local Government Unit"," ","GLORIA 1"," ","REGION III (CENTRAL LUZON)","030000000","PAMPANGA","035400000","CITY OF SAN FERNANDO (Capital)","035416000","SINDALAN","035416036","2000"," "," "," ","rhu2csfp@yahoo.com.ph"," "," ","MERCADO","EMERITO","D.","Rural Health Physician","","",""
"DOH000000000007155","7155","SAN NARCISO RURAL HEALTH UNIT"," "," "," ","Rural Health Unit","Government","Local Government Unit"," ","GRANVIA STREET"," ","REGION III (CENTRAL LUZON)","030000000","ZAMBALES","037100000","SAN NARCISO","037112000","SAN RAFAEL (POB.)","037112015","2205","+63 479134304"," "," "," "," "," ","SY-SANTOS","RODIL","ARCILLA","Municipal Health Officer","","",""
"DOH000000000007159","7159","MEXICO RURAL HEALTH UNIT I"," "," "," ","Rural Health Unit","Government","Local Government Unit"," "," ","JICA BUILDING","REGION III (CENTRAL LUZON)","030000000","PAMPANGA","035400000","MEXICO","035413000","PARIAN (POB.)","035413024","2021","+63 459660854"," "," ","rhu1mexico@yahoo.com"," "," ","CUNANAN","HILARIO JAMES","MARTIN","Municipal Health Officer","","",""
"DOH000000000007161","7161","MINALIN RURAL HEALTH UNIT"," "," "," ","Rural Health Unit","Government","Local Government Unit"," ","PUROK 4"," ","REGION III (CENTRAL LUZON)","030000000","PAMPANGA","035400000","MINALIN","035414000","SAN NICOLAS (POB.)","035414009","2019"," "," "," ","minalinrhu2019@yahoo.com"," "," ","PILAO","RINA","DAAG","Municipal Health Officer","","",""
"DOH000000000007163","7163","SAN MARCELINO HEALTH CENTER","","","","Rural Health Unit","Government","Local Government Unit","","OSMEÑA STREET","","REGION III (CENTRAL LUZON)","030000000","ZAMBALES","037100000","SAN MARCELINO","037111000","","","2207","+63 476232123","","","rhu_sanmarcelino@yahoo.com","","","YAP","EARL","BELTRAN","Municipal Health Officer","","",""
"DOH000000000007173","7173","SAN LUIS RURAL HEALTH UNIT I"," "," "," ","Rural Health Unit","Government","Local Government Unit"," "," "," ","REGION III (CENTRAL LUZON)","030000000","PAMPANGA","035400000","SAN LUIS","035417000","SANTA CRUZ POBLACION","035417012","2014"," "," "," "," "," "," ","REGALA","MARGARITA","MALONG","Municipal Health Officer","","",""
"DOH000000000007182","7182","CANDABA RURAL HEALTH UNIT II"," "," "," ","Rural Health Unit","Government","Local Government Unit"," ","SITIO 3"," ","REGION III (CENTRAL LUZON)","030000000","PAMPANGA","035400000","CANDABA","035405000","BAHAY PARE","035405001","2013"," "," "," "," "," "," ","PANGAN","ANITA","ALIPIO","Rural Health Physician","","",""
"DOH000000000007203","7203","SAN MANUEL RURAL HEALTH UNIT","","","","Rural Health Unit","Government","Local Government Unit","","PERALTA STREET","","REGION III (CENTRAL LUZON)","030000000","TARLAC","036900000","SAN MANUEL","036914000","POBLACION","036914007","2309","+63 456063156","","","rhusanmanuel561@gmail.com","","","VALDEZ","ALICIA","ROBLES","Municipal Health Officer","","",""
"DOH000000000007204","7204","RAMOS RURAL HEALTH UNIT","","","","Rural Health Unit","Government","Local Government Unit","","PUROK ULIMEK","","REGION III (CENTRAL LUZON)","030000000","TARLAC","036900000","RAMOS","036912000","PANCE","036912003","2311","+63 454917359","","","lguramosrhu1@gmail.com","","","VIGILIA","GERARDO JR","ESPEJO","Municipal Health Officer","","",""
"DOH000000000007206","7206","MASINLOC RURAL HEALTH UNIT"," "," "," ","Rural Health Unit","Government","Local Government Unit"," ","SANTA LUCIA STREET"," ","REGION III (CENTRAL LUZON)","030000000","ZAMBALES","037100000","MASINLOC","037106000","SOUTH POBLACION","037106011","2211","+63 478211150"," "," "," "," "," ","EAMILAO","SYLVIA","MARCELO","Municipal Health Officer","","",""
"DOH000000000007209","7209","BALAGTAS (BIGAA) RURAL HEALTH UNIT I","","","","Rural Health Unit","Government","Local Government Unit","","","","REGION III (CENTRAL LUZON)","030000000","BULACAN","031400000","BALAGTAS (BIGAA)","031402000","WAWA (POB.)","031402011","3016","+63 446935808","","","","","","GALVEZ","GENIVELLE","E.","Rural Health Physician","","",""
"DOH000000000007210","7210","OBANDO RURAL HEALTH UNIT"," "," "," ","Rural Health Unit","Government","Local Government Unit"," ","JP RIZAL STREET"," ","REGION III (CENTRAL LUZON)","030000000","BULACAN","031400000","OBANDO","031414000","PALIWAS","031414008","3021","+63 442772137"," "," "," "," "," ","RAYMUNDO","MICHAEL ANGELO","ANDAYA","Rural Health Physician","","",""
"DOH000000000007211","7211","MAYANTOC RURAL HEALTH UNIT","","","","Rural Health Unit","Government","Local Government Unit","","PROVINCIAL ROAD","","REGION III (CENTRAL LUZON)","030000000","TARLAC","036900000","MAYANTOC","036908000","POBLACION SUR","036908019","2300","+63 454915005","","","RHUMayantoc5005@yahoo.com","","","TOMAS","CARLITO","CASTRO","Municipal Health Officer","","",""
"DOH000000000007212","7212","ANGAT MUNICIPAL HEALTH CENTER","ANGAT MUNICIPAL HEALTH OFFICE","","","Rural Health Unit","Government","Local Government Unit","","MA FERNANDO AVENUE","","REGION III (CENTRAL LUZON)","030000000","BULACAN","031400000","ANGAT","031401000","SANTA CRUZ (POB.)","031401015","3012","+63 446711147","","","","","","TOLENTINO","VERONICA","TRINIDAD","Rural Health Midwife","","",""
"DOH000000000007214","7214","GUIGUINTO RURAL HEALTH UNIT I"," "," "," ","Rural Health Unit","Government","Local Government Unit"," "," "," ","REGION III (CENTRAL LUZON)","030000000","BULACAN","031400000","GUIGUINTO","031408000","POBLACION","031408006","3015","+63 446907950"," "," "," "," "," "," "," "," "," ","","",""
"DOH000000000007216","7216","CITY OF MALOLOS RURAL HEALTH UNIT I"," "," "," ","Rural Health Unit","Government","Local Government Unit"," "," "," ","REGION III (CENTRAL LUZON)","030000000","BULACAN","031400000","CITY OF MALOLOS (Capital)","031410000","SANTO ROSARIO (POB.)","031410050","3000","+63 447914693"," "," "," "," "," ","AVES","EVA","L.","Municipal Health Officer","","",""
"DOH000000000007217","7217","PAOMBONG RURAL HEALTH UNIT I"," "," "," ","Rural Health Unit","Government","Local Government Unit"," "," "," ","REGION III (CENTRAL LUZON)","030000000","BULACAN","031400000","PAOMBONG","031416000","POBLACION","031416007","3001","+63 446651202"," "," "," "," "," ","GARVIDA","JULIO","I.","Municipal Health Officer","","",""
"DOH000000000007218","7218","PLARIDEL RURAL HEALTH UNIT I"," "," "," ","Rural Health Unit","Government","Local Government Unit"," "," "," ","REGION III (CENTRAL LUZON)","030000000","BULACAN","031400000","PLARIDEL","031417000","POBLACION","031417015","3004","+63 447952225"," "," "," "," "," ","MANICAD JR.","MACARIO","M.","Municipal Health Officer","","",""
"DOH000000000007220","7220","SAN MIGUEL RURAL HEALTH UNIT I (ELADIA)"," "," "," ","Rural Health Unit","Government","Local Government Unit"," "," "," ","REGION III (CENTRAL LUZON)","030000000","BULACAN","031400000","SAN MIGUEL","031421000","POBLACION","031421037","3011","+63 446782471"," "," "," "," "," "," "," "," "," ","","",""
"DOH000000000007221","7221","SAN ILDEFONSO MAIN HEALTH CENTER I"," "," "," ","Rural Health Unit","Government","Local Government Unit"," ","E. VIUDEZ STREET"," ","REGION III (CENTRAL LUZON)","030000000","BULACAN","031400000","SAN ILDEFONSO","031419000","POBLACION","031419026","3010","+63 446771658"," "," "," "," "," ","GALVEZ","MERCEDITA"," "," ","","",""
"DOH000000000007222","7222","CAPAS RURAL HEALTH UNIT II","","","","Rural Health Unit","Government","Local Government Unit","","","","REGION III (CENTRAL LUZON)","030000000","TARLAC","036900000","CAPAS","036904000","O'DONNELL","036904013","2315","","","","","","","","","","","","",""
"DOH000000000007226","7226","BUSTOS RURAL HEALTH UNIT","BUSTOS RURAL HEALTH UNIT & LYING-IN CENTER"," "," ","Rural Health Unit","Government","Local Government Unit"," "," "," ","REGION III (CENTRAL LUZON)","030000000","BULACAN","031400000","BUSTOS","031406000","POBLACION","031406010","3007"," "," "," "," "," "," ","ESGUERRA","LELISA","F.","Municipal Health Officer","","",""
"DOH000000000007228","7228","NORZAGARAY RURAL HEALTH UNIT I","","","","Rural Health Unit","Government","Local Government Unit","","A. PAYUMO STREET","","REGION III (CENTRAL LUZON)","030000000","BULACAN","031400000","NORZAGARAY","031413000","POBLACION","031413022","3013","+63 443240398","","","","","","PAITIM","GEORGE PEPPARD","CRUZ","Municipal Health Officer","","",""
"DOH000000000007229","7229","MONCADA RURAL HEALTH UNIT I"," "," "," ","Rural Health Unit","Government","Local Government Unit"," "," "," ","REGION III (CENTRAL LUZON)","030000000","TARLAC","036900000","MONCADA","036909000"," "," ","2308","+63 456010406"," "," "," "," "," ","TAMAYO","PETER LOUIE"," ","Municipal Health Officer","","",""
"DOH000000000007232","7232","TARLAC CITY HEALTH CENTER II"," "," "," ","Rural Health Unit","Government","Local Government Unit"," "," "," ","REGION III (CENTRAL LUZON)","030000000","TARLAC","036900000","CITY OF TARLAC (Capital)","036916000","MATATALAIB","036916052","2300"," "," "," "," "," "," ","ELENA","RAMOS","D.","Rural Health Physician","","",""
"DOH000000000007233","7233","TARLAC CITY HEALTH CENTER I"," "," "," ","Rural Health Unit","Government","Local Government Unit"," ","HOSPITAL DRIVE"," ","REGION III (CENTRAL LUZON)","030000000","TARLAC","036900000","CITY OF TARLAC (Capital)","036916000","LIGTASAN","036916041","2300"," "," "," "," "," "," ","SERRANO","SHIERLY","T.","Rural Health Physician","","",""
"DOH000000000007234","7234","SAN JOSE HEALTH CENTER (RURAL HEALTH UNIT I)","CITY OF SAN FERNANDO (CAPITAL) RURAL HEALTH UNIT I"," "," ","Rural Health Unit","Government","Local Government Unit"," ","PUROK 5"," ","REGION III (CENTRAL LUZON)","030000000","PAMPANGA","035400000","CITY OF SAN FERNANDO (Capital)","035416000","SAN JOSE","035416027","2000"," "," "," "," "," "," ","TUNGOL","RENELY","P.","Rural Health Physician","","",""
"DOH000000000007244","7244","SAN SIMON RURAL HEALTH UNIT"," "," "," ","Rural Health Unit","Government","Local Government Unit"," ","POBLACION"," ","REGION III (CENTRAL LUZON)","030000000","PAMPANGA","035400000","SAN SIMON","035418000","SAN JOSE","035418006","2015"," "," "," "," "," "," ","BAGTAS-DELA ROSA","MARLINE","ALFARO","Municipal Health Officer","","",""
"DOH000000000007366","7366","MONCADA RURAL HEALTH UNIT II"," "," "," ","Rural Health Unit","Government","Local Government Unit"," "," "," ","REGION III (CENTRAL LUZON)","030000000","TARLAC","036900000","MONCADA","036909000"," "," ","2308","+63 456010031"," "," "," "," "," ","CUCHAPIN-AHITO","LOVELLA"," ","Rural Health Physician","","",""
"DOH000000000007378","7378","PAOMBONG RURAL HEALTH UNIT II"," "," "," ","Rural Health Unit","Government","Local Government Unit"," "," "," ","REGION III (CENTRAL LUZON)","030000000","BULACAN","031400000","PAOMBONG","031416000","SAN ISIDRO II","031416010","3001"," "," "," "," "," "," ","DELA CRUZ","JANETTE"," ","Municipal Health Officer","","",""
"DOH000000000007379","7379","HAGONOY RURAL HEALTH UNIT I"," "," "," ","Rural Health Unit","Government","Local Government Unit"," "," "," ","REGION III (CENTRAL LUZON)","030000000","BULACAN","031400000","HAGONOY","031409000","SANTO NIÑO (POB.)","031409023","3002","+63 447930013"," ","+63 447931092"," "," "," ","PAJELA","ROMMEL","M.","Municipal Health Officer","","",""
"DOH000000000007384","7384","BALIUAG RURAL HEALTH UNIT III"," "," "," ","Rural Health Unit","Government","Local Government Unit"," ","JP RIZAL STREET"," ","REGION III (CENTRAL LUZON)","030000000","BULACAN","031400000","BALIUAG","031403000","SAN JOSE","031403017","3006","+63 447660554"," "," "," "," "," ","DINLASAN","MARY JOAN","DE JESUS","Municipal Health Officer","","",""
"DOH000000000007387","7387","SAN MIGUEL RURAL HEALTH UNIT II (SANTA RITA MATANDA)"," "," "," ","Rural Health Unit","Government","Local Government Unit"," "," "," ","REGION III (CENTRAL LUZON)","030000000","BULACAN","031400000","SAN MIGUEL","031421000","SANTA RITA MATANDA","031421050","3011"," "," "," "," "," "," "," "," "," "," ","","",""
"DOH000000000007388","7388","CITY OF MALOLOS RURAL HEALTH UNIT IV"," "," "," ","Rural Health Unit","Government","Local Government Unit"," "," "," ","REGION III (CENTRAL LUZON)","030000000","BULACAN","031400000","CITY OF MALOLOS (Capital)","031410000","MATIMBO","031410033","3000","+63 447914528"," "," "," "," "," ","ANTONIO","LILIAN"," ","Municipal Health Officer","","",""
"DOH000000000007389","7389","SAN RAFAEL RURAL HEALTH UNIT II (MAGUINAO)"," "," "," ","Rural Health Unit","Government","Local Government Unit"," ","DRT HIGHWAY"," ","REGION III (CENTRAL LUZON)","030000000","BULACAN","031400000","SAN RAFAEL","031422000","MAGUINAO","031422014","3008","+63 446770975"," "," "," "," "," "," "," "," "," ","","",""
"DOH000000000007391","7391","SAN MIGUEL RURAL HEALTH UNIT III (SALACOT)"," "," "," ","Rural Health Unit","Government","Local Government Unit"," "," "," ","REGION III (CENTRAL LUZON)","030000000","BULACAN","031400000","SAN MIGUEL","031421000","SALACOT","031421040","3011"," "," "," "," "," "," "," "," "," "," ","","",""
"DOH000000000007392","7392","CITY OF MALOLOS RURAL HEALTH UNIT II"," "," "," ","Rural Health Unit","Government","Local Government Unit"," "," "," ","REGION III (CENTRAL LUZON)","030000000","BULACAN","031400000","CITY OF MALOLOS (Capital)","031410000"," "," ","3000","+63 447914791"," "," "," "," "," ","CRUZ","MYRA"," ","Municipal Health Officer","","",""
"DOH000000000007393","7393","GUIGUINTO RURAL HEALTH UNIT II","","","","Rural Health Unit","Government","Local Government Unit","","","","REGION III (CENTRAL LUZON)","030000000","BULACAN","031400000","GUIGUINTO","031408000","TIAONG","031408013","3015","+63 446900220","","","","","","","","","","","",""
"DOH000000000007399","7399","SAN RAFAEL RURAL HEALTH UNIT I","","","","Rural Health Unit","Government","Local Government Unit","","","","REGION III (CENTRAL LUZON)","030000000","BULACAN","031400000","SAN RAFAEL","031422000","SAMPALOC","031422027","3008","","","","rhusanrafael@yahoo.com","","","VERGEL DE DIOS","MARIA CRISTINA","SALTA","Municipal Health Officer","","",""
"DOH000000000007403","7403","CITY OF MALOLOS RURAL HEALTH UNIT III"," "," "," ","Rural Health Unit","Government","Local Government Unit"," ","PUROK 3"," ","REGION III (CENTRAL LUZON)","030000000","BULACAN","031400000","CITY OF MALOLOS (Capital)","031410000","BAGONG BAYAN","031410005","3000","+63 447943809"," "," "," "," "," ","MATEO","JULIETA"," ","Municipal Health Officer","","",""
"DOH000000000007412","7412","HAGONOY RURAL HEALTH UNIT III","","","","Rural Health Unit","Government","Local Government Unit","","","","REGION III (CENTRAL LUZON)","030000000","BULACAN","031400000","HAGONOY","031409000","SAN NICOLAS","031409014","3002","+63 447935439","","","","","","RAZ","PURIFICACION","T.","Rural Health Midwife","","",""
"DOH000000000007414","7414","HAGONOY RURAL HEALTH UNIT II","","","","Rural Health Unit","Government","Local Government Unit","","","","REGION III (CENTRAL LUZON)","030000000","BULACAN","031400000","HAGONOY","031409000","SAN JUAN","031409012","3002","+63 448960350","","","","","","SANTOS","RHANDY","G.","Municipal Health Officer","","",""
"DOH000000000007415","7415","BALIUAG RURAL HEALTH UNIT I"," "," "," ","Rural Health Unit","Government","Local Government Unit"," ","BS AQUINO AVENUE"," ","REGION III (CENTRAL LUZON)","030000000","BULACAN","031400000","BALIUAG","031403000","BAGONG NAYON","031403001","3006","+63 447663260"," ","+63 446734059"," "," "," ","PATAWARAN","ORPHA","SAYO","Municipal Health Officer","","",""
"DOH000000000007418","7418","BALAGTAS (BIGAA) RURAL HEALTH UNIT II","","","","Rural Health Unit","Government","Local Government Unit","","","","REGION III (CENTRAL LUZON)","030000000","BULACAN","031400000","BALAGTAS (BIGAA)","031402000","BOROL 2ND","031402002","3016","+63 446937541","","","dereckfern@yahoo.com","","","ESPIRIDION","AGNES","","Rural Health Physician","","",""
"DOH000000000007425","7425","SAN JOSE DEL MONTE CITY HEALTH CENTER III","SAN JOSE DEL MONTE CITY HEALTH OFFICE III","","","Rural Health Unit","Government","Local Government Unit","","ROAD II","","REGION III (CENTRAL LUZON)","030000000","BULACAN","031400000","CITY OF SAN JOSE DEL MONTE","031420000","MINUYAN IV","031420039","3024","","","","","","","REYES","LEONARDO","ALARIAO","Rural Health Physician","","",""
"DOH000000000007429","7429","BOCAUE RURAL HEALTH UNIT II","","","","Rural Health Unit","Government","Local Government Unit","","13 MENDOZA STREET","","REGION III (CENTRAL LUZON)","030000000","BULACAN","031400000","BOCAUE","031404000","LOLOMBOY","031404013","3018","","","","","","","HIPOLITO","MELISSA","BOBADILLA","Rural Health Physician","","",""
"DOH000000000007430","7430","HAGONOY RURAL HEALTH UNIT IV"," "," "," ","Rural Health Unit","Government","Local Government Unit"," "," "," ","REGION III (CENTRAL LUZON)","030000000","BULACAN","031400000","HAGONOY","031409000","SANTO ROSARIO","031409024","3002"," "," "," "," "," "," ","MANIEGO","JENAROSE","B.","Rural Health Midwife","","",""
"DOH000000000007431","7431","MARILAO RURAL HEALTH UNIT II","","","","Rural Health Unit","Government","Local Government Unit","","SAN MIGUEL STREET","","REGION III (CENTRAL LUZON)","030000000","BULACAN","031400000","MARILAO","031411000","POBLACION I","031411009","3019","+63 449131569","","","MARILAORHU2@YAHOO.COM","","","SANTIAGO","JOSEPHINE","DELA ROSA","Rural Health Physician","","",""
"DOH000000000007432","7432","MEYCAUAYAN CITY HEALTH UNIT I"," "," "," ","Rural Health Unit","Government","Local Government Unit"," ","BACEZ STREET"," ","REGION III (CENTRAL LUZON)","030000000","BULACAN","031400000","CITY OF MEYCAUAYAN","031412000","BAYUGO","031412005","3020"," "," "," "," "," "," ","VICTORIANO","EDNALINE","V.","Public Health Nurse","","",""
"DOH000000000007433","7433","MEYCAUAYAN CITY HEALTH UNIT II"," "," "," ","Rural Health Unit","Government","Local Government Unit"," ","PARIAN STREET"," ","REGION III (CENTRAL LUZON)","030000000","BULACAN","031400000","CITY OF MEYCAUAYAN","031412000","POBLACION","031412020","3020"," "," "," "," "," "," ","CURIOSO","ERNESTO MOCHTAR","P.","Rural Health Physician","","",""
"DOH000000000007434","7434","MEYCAUAYAN CITY HEALTH UNIT VII","","","","Rural Health Unit","Government","Local Government Unit","","FRANC STREET","","REGION III (CENTRAL LUZON)","030000000","BULACAN","031400000","CITY OF MEYCAUAYAN","031412000","PANDAYAN","031412017","3020","+63 2284461","","","CHU7PANDAYAN@YAHOO.COM","","","BARRIBAL","FERDINAND","CAIMBON","Rural Health Physician","","",""
"DOH000000000007435","7435","MEYCAUAYAN CITY HEALTH UNIT III","","","","Rural Health Unit","Government","Local Government Unit","","IBA ROAD","","REGION III (CENTRAL LUZON)","030000000","BULACAN","031400000","CITY OF MEYCAUAYAN","031412000","IBA","031412009","3020","","","","","","","PALAGANAS","FE VICTORIA","PINEDA","Rural Health Physician","","",""
"DOH000000000007436","7436","MEYCAUAYAN CITY HEALTH UNIT IV","","","","Rural Health Unit","Government","Local Government Unit","","FLORO SUBDIVISION, ZIGZAG HILLS","","REGION III (CENTRAL LUZON)","030000000","BULACAN","031400000","CITY OF MEYCAUAYAN","031412000","MALHACAN","031412015","3020","","","","","","","ROQUE","CHRISTIAN","B.","Rural Health Physician","","",""
"DOH000000000007438","7438","NORZAGARAY RURAL HEALTH UNIT II","","","","Rural Health Unit","Government","Local Government Unit","","POBLACION","","REGION III (CENTRAL LUZON)","030000000","BULACAN","031400000","NORZAGARAY","031413000","BIGTE","031413006","3013","","","","","","","MANUSON","FELIX","ESQUIVEL","Municipal Health Officer","","",""
"DOH000000000007439","7439","PANDI RURAL HEALTH UNIT","","","","Rural Health Unit","Government","Local Government Unit","","SERGIO OSMEÑA STREET","","REGION III (CENTRAL LUZON)","030000000","BULACAN","031400000","PANDI","031415000","POBLACION","031415016","3014","","","","","","","ATAL","MARICEL","ESTEBAN","Municipal Health Officer","","",""
"DOH000000000007440","7440","PULILAN MATERNITY AND CHILD CARE CENTER","PULILAN RURAL HEALTH UNIT I","","","Rural Health Unit","Government","Local Government Unit","","FRANCIA STREET","","REGION III (CENTRAL LUZON)","030000000","BULACAN","031400000","PULILAN","031418000","POBLACION","031418022","3005","+63 447696219","","","","","","ANTONIO","MA. CONCEPCION","ONG","Rural Health Physician","","",""
"DOH000000000007441","7441","PULILAN RURAL HEALTH UNIT II","","","","Rural Health Unit","Government","Local Government Unit","","","","REGION III (CENTRAL LUZON)","030000000","BULACAN","031400000","PULILAN","031418000","CUTCOT","031418003","3005","+63 448157095","","","","","","ELERIA","WILBERT","","Municipal Health Officer","","",""
"DOH000000000007442","7442","SAN ILDEFONSO MAIN HEALTH CENTER II"," "," "," ","Rural Health Unit","Government","Local Government Unit"," ","GRACE PARK"," ","REGION III (CENTRAL LUZON)","030000000","BULACAN","031400000","SAN ILDEFONSO","031419000","PINAOD","031419025","3010"," "," "," "," "," "," ","PIOQUINTO","REGIN","LABUNG","Rural Health Physician","","",""
"DOH000000000007443","7443","SAN ILDEFONSO MAIN HEALTH CENTER III"," "," "," ","Rural Health Unit","Government","Local Government Unit"," "," "," ","REGION III (CENTRAL LUZON)","030000000","BULACAN","031400000","SAN ILDEFONSO","031419000","MALIPAMPANG","031419020","3010"," "," "," "," "," "," ","CASTRO","MELVIN","MARIANO"," ","","",""
"DOH000000000007445","7445","CALUMPIT RURAL HEALTH UNIT II"," "," "," ","Rural Health Unit","Government","Local Government Unit"," ","PUROK 1"," ","REGION III (CENTRAL LUZON)","030000000","BULACAN","031400000","CALUMPIT","031407000","SAN MARCOS","031407024","3003"," "," "," ","rhu2calumpit@yahoo.com"," "," ","SANTOS","MARITES","PANGANIBAN","Rural Health Midwife","","",""
"DOH000000000007449","7449","BALIUAG RURAL HEALTH UNIT II"," "," "," ","Rural Health Unit","Government","Local Government Unit"," ","PUROK 3"," ","REGION III (CENTRAL LUZON)","030000000","BULACAN","031400000","BALIUAG","031403000","SANTO NIÑO","031403021","3006","+63 447660638"," "," "," "," "," ","ESGUERRA","MA. ROSARIO","HERNANDEZ","Municipal Health Officer","","",""
"DOH000000000007450","7450","SAN JOSE DEL MONTE CITY HEALTH CENTER V","SAN JOSE DEL MONTE CITY HEALTH OFFICE V","","","Rural Health Unit","Government","Local Government Unit","","BLOCK 286","","REGION III (CENTRAL LUZON)","030000000","BULACAN","031400000","CITY OF SAN JOSE DEL MONTE","031420000","SANTA CRUZ III","031420055","3024","","","","","","","BORILLO","BRIAN EARL","MALINAO","Rural Health Physician","","",""
"DOH000000000007456","7456","MEXICO RURAL HEALTH UNIT IV"," "," "," ","Rural Health Unit","Government","Local Government Unit"," "," "," ","REGION III (CENTRAL LUZON)","030000000","PAMPANGA","035400000","MEXICO","035413000","PANDACAQUI","035413021","2021"," "," "," "," "," "," ","LACSAMANA","RAYMOND","OLALIA","Rural Health Physician","","",""
"DOH000000000007457","7457","PORAC RURAL HEALTH UNIT I","PORAC PUERICULTURE CENTER"," "," ","Rural Health Unit","Government","Local Government Unit"," ","GENERAL LUNA STREET"," ","REGION III (CENTRAL LUZON)","030000000","PAMPANGA","035400000","PORAC","035415000","POBLACION","035415026","2008","+63 453292512"," "," ","drliliapanlilio@yahoo.com"," "," ","PANLILIO","LILIA","MAGAT","Municipal Health Officer","","",""
"DOH000000000007663","7663","CASIGURAN RURAL HEALTH UNIT","","","","Rural Health Unit","Government","Local Government Unit","","LIWAYWAY STREET","","REGION III (CENTRAL LUZON)","030000000","AURORA","037700000","CASIGURAN","037702000","BARANGAY  4 (POB.)","037702004","3204","","","","RHUCASSIGURAN1@YAHOO.COM","","","DANAY","MERILL","ALEJO","Municipal Health Officer","","",""
"DOH000000000023668","23668","CAPAS RURAL HEALTH UNIT III"," "," "," ","Rural Health Unit","Government","Local Government Unit"," "," "," ","REGION III (CENTRAL LUZON)","030000000","TARLAC","036900000","CAPAS","036904000","CRISTO REY","036904025","2315"," "," "," "," "," "," ","BALMORES","CARLOS"," ","Rural Health Physician","","",""
"DOH000000000023669","23669","BALANGA RURAL HEALTH UNIT III","","","","Rural Health Unit","Government","Local Government Unit","","M.H. DEL PILAR STREET","","REGION III (CENTRAL LUZON)","030000000","BATAAN","030800000","CITY OF BALANGA (Capital)","030803000","CUPANG PROPER","030803008","2100","+63 472370754","","","bhenanthonybautista@yahoo.com.ph","","","BAUTISTA","BHEN ANTHONY","PEREZ","Rural Health Physician","","",""
"DOH000000000023670","23670","BAMBAN RURAL HEALTH UNIT II (NINOY AQUINO HEALTH CENTER)"," "," "," ","Rural Health Unit","Government","Local Government Unit"," "," "," ","REGION III (CENTRAL LUZON)","030000000","TARLAC","036900000","BAMBAN","036902000","SAN ROQUE","036902013","2317"," "," "," "," "," "," ","LEGASPI","EVELYN"," ","Municipal Health Officer","","",""
"DOH000000000023671","23671","BAMBAN RURAL HEALTH UNIT I"," "," "," ","Rural Health Unit","Government","Local Government Unit"," ","DAP-DAP"," ","REGION III (CENTRAL LUZON)","030000000","TARLAC","036900000","BAMBAN","036902000","LA PAZ","036902006","2317"," "," "," "," "," "," ","LOMBOY","ELAINE"," ","Rural Health Physician","","",""
"DOH000000000026651","26651","BAMBANG RURAL HEALTH UNIT I","BULACAN RURAL HEALTH UNIT I"," "," ","Rural Health Unit","Government","Local Government Unit"," "," "," ","REGION III (CENTRAL LUZON)","030000000","BULACAN","031400000","BULACAN","031405000","BAMBANG","031405003","3017"," "," "," "," "," "," "," "," "," "," ","","",""
"DOH000000000026652","26652","CITY OF MALOLOS RURAL HEALTH UNIT V"," "," "," ","Rural Health Unit","Government","Local Government Unit"," "," "," ","REGION III (CENTRAL LUZON)","030000000","BULACAN","031400000","CITY OF MALOLOS (Capital)","031410000","LUGAM","031410028","3000"," "," "," "," "," "," ","AGUIRRE","CHERRY LOU","B.","Municipal Health Officer","","",""
"DOH000000000026653","26653","CITY OF MALOLOS RURAL HEALTH UNIT VI"," "," "," ","Rural Health Unit","Government","Local Government Unit"," "," "," ","REGION III (CENTRAL LUZON)","030000000","BULACAN","031400000","CITY OF MALOLOS (Capital)","031410000","BANGKAL","031410008","3000"," "," "," "," "," "," ","DE ROXAS","ROY NELSON"," ","Municipal Health Officer","","",""
"DOH000000000026654","26654","MEYCAUAYAN CITY HEALTH UNIT V","","","","Rural Health Unit","Government","Local Government Unit","","STREET PETER PHASE 3B","","REGION III (CENTRAL LUZON)","030000000","BULACAN","031400000","CITY OF MEYCAUAYAN","031412000","PEREZ","031412019","3020","","","","","","","RICAFORT","ELAINE THERESE","C.","Rural Health Physician","","",""
"DOH000000000026655","26655","MEYCAUAYAN CITY HEALTH UNIT VI","","","","Rural Health Unit","Government","Local Government Unit","","SAN DIEGO STREET","","REGION III (CENTRAL LUZON)","030000000","BULACAN","031400000","CITY OF MEYCAUAYAN","031412000","BANCAL","031412003","3020","","","","","","","FERNANDEZ","CAROLINA","","Public Health Nurse","","",""
"DOH000000000026656","26656","SAN JOSE CITY RURAL HEALTH UNIT IV"," "," "," ","Rural Health Unit","Government","Local Government Unit"," ","ZONE 6, SAN JOSE- LUPAO ROAD"," ","REGION III (CENTRAL LUZON)","030000000","NUEVA ECIJA","034900000","SAN JOSE CITY","034926000","SANTO NIÑO 1ST","034926030","3121"," "," "," ","leilanimanguerra05@gmail.com"," "," ","MANGUERRA","LEILANI","FRIAS","Rural Health Physician","","",""
"DOH000000000028177","28177","CAALIBANGBANGAN RURAL HEALTH UNIT VI","","","","Rural Health Unit","Government","Local Government Unit","","","","REGION III (CENTRAL LUZON)","030000000","NUEVA ECIJA","034900000","CABANATUAN CITY","034903000","CAALIBANGBANGAN","034903019","3100","","","","chc6caalibangbangan@gmail.com","","","GARCIA","GIOVANNI","MACEDONIO","Rural Health Physician","","",""
"DOH000000000029214","29214","SANTA MARIA RURAL HEALTH UNIT IV"," "," "," ","Rural Health Unit","Government","Local Government Unit"," ","TIBAGAN"," ","REGION III (CENTRAL LUZON)","030000000","BULACAN","031400000","SANTA MARIA","031423000","CAY POMBO","031423007","3022"," "," "," "," "," "," ","MENDOZA","BEDA BENNETTE"," ","Rural Health Midwife","","",""
"DOH000000000029215","29215","SANTA MARIA RURAL HEALTH UNIT V"," "," "," ","Rural Health Unit","Government","Local Government Unit"," "," "," ","REGION III (CENTRAL LUZON)","030000000","BULACAN","031400000","SANTA MARIA","031423000","CATMON","031423006","3022"," "," "," "," "," "," ","JIMENES","JANETTE","NIEVA","Rural Health Midwife","","",""
"DOH000000000030337","30337","BUSTOS RURAL HEALTH UNIT II AND LYING-IN CLINIC","LICIADA BARANGAY HEALTH STATION","","","Rural Health Unit","Government","Local Government Unit","","","","REGION III (CENTRAL LUZON)","030000000","BULACAN","031400000","BUSTOS","031406000","LICIADA","031406007","3007","+63 447662543","","","","","","ESGUERRA","LELISA","FRANCISCO","Municipal Health Officer","","",""
"DOH000000000030571","30571","PLARIDEL RURAL HEALTH UNIT III"," "," "," ","Rural Health Unit","Government","Local Government Unit"," ","PUROK SANTAN"," ","REGION III (CENTRAL LUZON)","030000000","BULACAN","031400000","PLARIDEL","031417000","SAN JOSE","031417017","3004","+63 447600400"," "," ","drbethabella@yahoo.com.ph"," "," ","ABELLA","LILIBETH","ACOSTA","Rural Health Physician","","",""
"DOH000000000030704","30704","BANGAD RURAL HEALTH UNIT III","LOURDES RURAL HEALTH UNIT III","","","Rural Health Unit","Government","Local Government Unit","","","","REGION III (CENTRAL LUZON)","030000000","NUEVA ECIJA","034900000","CABANATUAN CITY","034903000","BANGAD","034903009","3100","+63 448037166","","","chc3bangad@gmail.com","","","ESTEBAN","MIKHAIL","ESTRELLA","Rural Health Physician","","",""
"DOH000000000030811","30811","CITY OF SAN FERNANDO RURAL HEALTH UNIT V","NORTHVILLE 14-A MAIN HEALTH CENTER","","","Rural Health Unit","Government","Local Government Unit","","NORTHVILLE 14, PHASE 1","","REGION III (CENTRAL LUZON)","030000000","PAMPANGA","035400000","CITY OF SAN FERNANDO (Capital)","035416000","CALULUT","035416004","2000","","","","","","","SALAS","ROWENA","LLANAREZ","Rural Health Physician","","",""
"DOH000000000030926","30926","SAN FELIFE RURAL HEALTH UNIT AND LYING-IN CLINIC","","","","Rural Health Unit","Government","Local Government Unit","","","","REGION III (CENTRAL LUZON)","030000000","ZAMBALES","037100000","SAN FELIPE","037110000","FERIA (POB.)","037110005","2204","","","","","","","ARINDUQUE","SALOME","FLORESCA","","","",""
"DOH000000000032051","32051","MARILAO RURAL HEALTH UNIT I","","","","Rural Health Unit","Government","Local Government Unit","","BACOOD STREET","","REGION III (CENTRAL LUZON)","030000000","BULACAN","031400000","MARILAO","031411000","PATUBIG","031411008","3019","+63 442486217","","","marilaorhu@yahoo.com","","","MARAMBA","CECILIA","SIMBULAN","Municipal Health Officer","","",""
"DOH000000000032068","32068","NORZAGARAY RURAL HEALTH UNIT III","","","","Rural Health Unit","Government","Local Government Unit","","NORZAGARAY SAN JOSE DEL MONTE ROAD CORNER PANTALEON STREET","","REGION III (CENTRAL LUZON)","030000000","BULACAN","031400000","NORZAGARAY","031413000","TIGBE","031413031","3013","","","","YEOJ_87B@YAHOO.COM","","","LUISTRO","JOSE JACINTO III","MANTARING","Rural Health Physician","","",""
"DOH000000000033859","33859","CITY OF MALOLOS RURAL HEALTH UNIT VII","","","","Rural Health Unit","Government","Local Government Unit","","","","REGION III (CENTRAL LUZON)","030000000","BULACAN","031400000","CITY OF MALOLOS (Capital)","031410000","MOJON","031410034","3000","","","","myrahmoscruz@yahoo.com","","","CRUZ","MYRAH","RAMOS","Rural Health Physician","","",""
"DOH000000000033998","33998","BALANGA RURAL HEALTH UNIT IV","VILLA LINA BARANGAY HEALTH CENTER","","","Rural Health Unit","Government","Local Government Unit","","DON ANTONIO","","REGION III (CENTRAL LUZON)","030000000","BATAAN","030800000","CITY OF BALANGA (Capital)","030803000","TENEJERO","030803021","2100","","","","DOC_EZ_2000@YAHOO.COM","","","ROSTRATA","JOSE EZRA","DE LEON","Rural Health Physician","","",""
"DOH000000000034444","34444","DINALUPIHAN RURAL HEALTH UNIT III","","","","Rural Health Unit","Government","Local Government Unit","","PUROK 4","","REGION III (CENTRAL LUZON)","030000000","BATAAN","030800000","DINALUPIHAN","030804000","NEW SAN JOSE","030804021","2110","","","","","","","BULAONG","LAHAINA","GABRIEL","Rural Health Physician","","",""
"DOH000000000034416","34416","MALOLOS CITY HEALTH OFFICE","","","","Rural Health Unit","Government","Local Government Unit","","","","REGION III (CENTRAL LUZON)","030000000","BULACAN","031400000","CITY OF MALOLOS (Capital)","031410000","SANTO NIÑO (POB.)","031410049","3000","+63 447910896","","","","","","BATANES","VICTOR ANTONINO","REANTASO","City Health Officer","","",""
"DOH000000000034499","34499","SAN JOSE DEL MONTE CITY HEALTH CENTER IV","CITY HEALTH CENTER IV","","","Rural Health Unit","Government","Local Government Unit","","","","REGION III (CENTRAL LUZON)","030000000","BULACAN","031400000","CITY OF SAN JOSE DEL MONTE","031420000","BAGONG BUHAY","031420001","3024","","","","","","","MERCADO","EUFROCINO","LAXA","Rural Health Physician","","",""
"DOH000000000034657","34657","SAN JOSE DEL MONTE CITY HEALTH CENTER VI","","","","Rural Health Unit","Government","","","NOEL'S VILLAGE","","REGION III (CENTRAL LUZON)","030000000","BULACAN","031400000","CITY OF SAN JOSE DEL MONTE","031420000","MUZON","031420007","3024","","","","nelson.yuzon@yahoo.com","","","GRAVADOR","JOSE MARIA","ALBERTO","Rural Health Physician","","",""
"DOH000000000034961","34961","SANTA MARIA RURAL HEALTH UNIT VI","","","","Rural Health Unit","Government","Local Government Unit","","LABANOS STREET","","REGION III (CENTRAL LUZON)","030000000","BULACAN","031400000","SANTA MARIA","031423000","","","3022","","","","maciejose@yahoo.com","","","CRUZ","MARICIELA","JOSE","Rural Health Physician","","",""
"DOH000000000035818","35818","MEXICO RURAL HEALTH UNIT V","","","","Rural Health Unit","Government","","","","","REGION III (CENTRAL LUZON)","030000000","PAMPANGA","035400000","MEXICO","035413000","ANAO","035413002","2021","","","","","","","","","","","","",""
"DOH000000000037133","37133","PLARIDEL RURAL HEALTH UNIT IV","","","","Rural Health Unit","Government","Local Government Unit","","STA. VERONICA, MA. LOURDES SUBDIVISION","","REGION III (CENTRAL LUZON)","030000000","BULACAN","031400000","PLARIDEL","031417000","TABANG","031417021","3000","","","","rhu4plaridel@gmail.com","","","MARIANO","SARAH GRACE","BORJA","Rural Health Physician","Not Applicable","",""
"DOH000000000037560","37560","LA PAZ RURAL HEALTH UNIT III","","","","Rural Health Unit","Government","","","","","REGION III (CENTRAL LUZON)","030000000","TARLAC","036900000","LA PAZ","036907000","LA PURISIMA","036907009","2314","","","","","","","REYES","TEODORA","VILLAMOR","Municipal Health Officer","Not Applicable","",""
